{"type": "Feature","bbox": [4.0352,49.9372,4.4856,50.4732],"geometry": {"type": "MultiPolygon","coordinates": [[[[4.4013,50.0697,223.3765],[4.4006,50.0957,281.1444],[4.3987,50.104,262.7501],[4.4037,50.1123,230.2892],[4.4052,50.119,225.4202],[4.3915,50.1436,301.3512],[4.3777,50.1524,276.7617],[4.3754,50.1591,266.9633],[4.3787,50.1654,234.21],[4.3989,50.1761,246.0739],[4.4049,50.1818,252.8648],[4.4063,50.2109,258.6809],[4.41,50.2223,185.8974],[4.4107,50.233,206.8646],[4.384,50.2433,223.7818],[4.3755,50.2444,220.1947],[4.3665,50.2417,216.1087],[4.3609,50.2346,242.3133],[4.3549,50.2306,233.3579],[4.3487,50.2292,234.7567],[4.3417,50.2297,244.6879],[4.311,50.2409,238.8655],[4.3052,50.2454,222.2983],[4.3042,50.2516,193.8399],[4.3091,50.2574,178.4161],[4.336,50.2692,181.6638],[4.3624,50.2737,176.7253],[4.3767,50.2826,164.5951],[4.4022,50.2905,171.0281],[4.4059,50.2939,189.7891],[4.4116,50.3044,206.3883],[4.4162,50.3069,180.3183],[4.4265,50.3072,197.4188],[4.4601,50.3019,224.6974],[4.4685,50.3026,233.9456],[4.4736,50.3054,236.4352],[4.4856,50.3257,218.2746],[4.479,50.3317,228.976],[4.4646,50.351,224.7701],[4.4608,50.3545,219.3721],[4.4341,50.3555,218.5872],[4.4255,50.3598,195.8401],[4.4182,50.3608,168.2623],[4.4071,50.36,116.9213],[4.4038,50.3562,143.7232],[4.3954,50.3533,215.866],[4.3836,50.3526,219.6854],[4.3462,50.3688,175.1769],[4.3114,50.3693,128.9782],[4.3042,50.3717,121.6263],[4.2977,50.3809,178.0188],[4.2972,50.3995,194.3054],[4.2934,50.4069,185.9097],[4.2936,50.431,171.4559],[4.2775,50.4272,173.9639],[4.2677,50.4265,137.0451],[4.268,50.4433,136.6908],[4.2756,50.45,167.1138],[4.2766,50.4556,168.0542],[4.2752,50.4588,169.685],[4.2687,50.4637,176.5891],[4.2628,50.4728,164.3852],[4.2471,50.4732,162.8],[4.2388,50.471,161.9906],[4.225,50.4701,121.9197],[4.2212,50.4665,112.9223],[4.2194,50.4611,111.8268],[4.2147,50.455,102.2104],[4.1998,50.4453,96.2787],[4.1963,50.4407,102.0571],[4.1769,50.4405,84.4386],[4.15,50.4354,57.3501],[4.1298,50.4352,73.0724],[4.0908,50.4433,69.1803],[4.0714,50.4437,80.2342],[4.0656,50.4421,70.4452],[4.0644,50.4306,85.3832],[4.0573,50.4264,90.0807],[4.044,50.4094,70.4794],[4.0394,50.4006,75.6427],[4.0388,50.3944,62.4555],[4.0421,50.3929,70.48],[4.0549,50.3772,90.9163],[4.0561,50.3711,109.0722],[4.0553,50.3684,118.6873],[4.0487,50.3635,123.8343],[4.0352,50.3458,122.7021],[4.0376,50.343,131.9761],[4.0522,50.3387,139.2015],[4.0771,50.3205,129.6174],[4.0792,50.3097,140.866],[4.0993,50.3121,149.5099],[4.1084,50.3039,138.3184],[4.1184,50.3023,125.0089],[4.1251,50.2895,160.67],[4.124,50.2728,196.7854],[4.1338,50.274,189.843],[4.1384,50.2616,195.231],[4.135,50.2591,185.6456],[4.1637,50.2573,199.4855],[4.1668,50.2671,185.1234],[4.1521,50.277,157.2552],[4.1604,50.2859,123.858],[4.17,50.2856,163.0486],[4.1796,50.2768,190.957],[4.206,50.2725,156.9631],[4.2208,50.2543,212.4096],[4.2046,50.2406,184.9799],[4.1991,50.2405,191.0354],[4.1834,50.2321,187.8262],[4.1659,50.2151,213.4968],[4.1509,50.2134,174.005],[4.1605,50.1982,198.5065],[4.1562,50.1928,192.2935],[4.1566,50.1861,232.6197],[4.15,50.1766,224.2756],[4.1551,50.1671,235.6712],[4.1532,50.1604,244.8603],[4.1406,50.1537,231.8432],[4.1269,50.1349,201.8114],[4.1461,50.129,225.7326],[4.1631,50.1351,238.1415],[4.1952,50.1346,254.5394],[4.2034,50.1153,253.069],[4.1977,50.1094,210.3812],[4.2046,50.1045,219.4951],[4.2054,50.098,185.6782],[4.2275,50.0797,230.6951],[4.2301,50.0698,208.1386],[4.2243,50.0644,230.7048],[4.201,50.0569,206.5429],[4.1906,50.0494,230.9502],[4.1711,50.047,212.2032],[4.1608,50.0475,206.7163],[4.1373,50.0218,262.5289],[4.1354,50.0152,238.7917],[4.1472,50.004,240.6641],[4.161,49.9998,264.0563],[4.1624,49.9966,267.703],[4.1563,49.9872,249.0317],[4.141,49.9788,222.3545],[4.1541,49.9751,238.3083],[4.1739,49.976,237.2541],[4.1954,49.9674,278.0077],[4.1974,49.9545,247.9582],[4.2331,49.9578,267.1489],[4.2582,49.964,275.7705],[4.2905,49.9642,282.8343],[4.3106,49.9686,298.3957],[4.3193,49.9644,305.0765],[4.3352,49.9627,332.8809],[4.3494,49.9522,319.0283],[4.3808,49.9537,317.3796],[4.3885,49.9489,309.3497],[4.4192,49.9464,317.8789],[4.4458,49.9372,323.2583],[4.4509,49.9386,332.1631],[4.4498,49.961,360.6711],[4.4447,49.9671,354.9995],[4.4317,49.9744,352.7427],[4.4262,49.982,336.4959],[4.4254,50.0085,268.6365],[4.4222,50.0188,322.213],[4.4211,50.0328,260.2136],[4.4164,50.0448,248.577],[4.4099,50.0531,244.5068],[4.4013,50.0697,223.3765]]]]}
,"properties": {"GID_3": "BEL.3.2.6_1","GID_0": "BEL","country": "Belgium","GID_1": "BEL.3_1","state": "Wallonie","NL_NAME_1": "NA","GID_2": "BEL.3.2_1","county": "Hainaut","NL_NAME_2": "NA","city": "Thuin","VARNAME_3": "NA","NL_NAME_3": "NA","TYPE_3": "Arrondissement","ENGTYPE_3": "Arrondissement","CC_3": "NA","HASC_3": "BE.HT.TN","name": "Thuin.city","area_km2": 973.2088,"hist_schema_id": "Elevation0-9000","hist_area_km2": {"50": 4.8492,"75": 25.4803,"100": 31.8835,"125": 54.4619,"150": 101.6877,"175": 126.961,"200": 120.6215,"225": 144.7912,"250": 171.2419,"275": 86.6795,"300": 53.4239,"325": 35.8941,"350": 13.6783,"375": 1.5548}}}