{"type":"Feature","properties":{"ISO3166-1-Alpha-3":"BEL","country":"Belgium","fill":"#F00","id":"3481","name":"Liege"},
"geometry":{"type": "Polygon","coordinates": [[[5.71741,50.75282,77.0069],[5.70656,50.75422,55.2664],[5.68837,50.76083,50.0349],[5.6987,50.78377,43.5],[5.70046,50.79556,48.9999],[5.68485,50.7985,64.9159],[5.66325,50.80507,111.9925],[5.65743,50.80764,114.5353],[5.60848,50.77642,109.1326],[5.52193,50.76004,105.7852],[5.52384,50.74376,127.7199],[5.49681,50.72885,127.8968],[5.48084,50.7264,132.7669],[5.46115,50.73996,113.2357],[5.45325,50.72226,134.6256],[5.43098,50.72087,127.5156],[5.4041,50.72748,116.66],[5.40409,50.7275,116.66],[5.39175,50.74712,112.0207],[5.39175,50.74712,112.0207],[5.37821,50.75084,99.5198],[5.33212,50.74097,104.1003],[5.31227,50.72971,119.8426],[5.30737,50.71839,105.6514],[5.27558,50.72945,116.9974],[5.24339,50.71686,119.0502],[5.24338,50.71688,119.0502],[5.23616,50.72823,109.4247],[5.23616,50.72823,109.4247],[5.22892,50.71875,131.6157],[5.16939,50.72356,118.3607],[5.16939,50.72356,118.3607],[5.18044,50.70716,126.5893],[5.18045,50.70715,126.5893],[5.16774,50.69725,126.1147],[5.10113,50.70976,127.2447],[5.1011,50.70976,127.2447],[5.07472,50.70692,125.0531],[5.05953,50.71157,115.2597],[5.04304,50.72511,94.6039],[5.04304,50.72511,94.6039],[5.04356,50.74283,89.4856],[5.04355,50.74284,89.4856],[5.01911,50.75193,77.4865],[5.0191,50.75193,77.4865],[5.01585,50.73349,75.5004],[4.99197,50.72533,84.5272],[5.01657,50.70295,104.1375],[5.00076,50.69579,99.8608],[5.00179,50.66616,123.1882],[4.98257,50.64337,139.8314],[4.97911,50.61929,138.3191],[5.02773,50.58994,162.282],[5.05337,50.54193,213.2872],[5.03456,50.53288,199.6308],[5.09037,50.53092,188.5188],[5.10535,50.50736,169.316],[5.11905,50.50575,128.7672],[5.14282,50.51289,100.5757],[5.12928,50.50457,72.4592],[5.13626,50.48875,160.5034],[5.15605,50.49061,213.8281],[5.15103,50.48188,186.3639],[5.16209,50.46994,260.5792],[5.19594,50.47862,255.7903],[5.21759,50.46467,226.3381],[5.23609,50.43806,229.7024],[5.22049,50.41842,268.0051],[5.23279,50.40555,252.9517],[5.2824,50.39695,271.0295],[5.28126,50.37845,259.6833],[5.29511,50.36618,315.8572],[5.34994,50.38974,281.9415],[5.39242,50.38047,283.518],[5.42575,50.40059,229.1334],[5.4057,50.42338,245.7614],[5.41179,50.43031,253.329],[5.42507,50.43077,258.6055],[5.46848,50.40907,156.7031],[5.50864,50.42597,148.5464],[5.51778,50.40628,167.9776],[5.53468,50.40411,194.2006],[5.53158,50.39512,147.2011],[5.53711,50.39191,173.2738],[5.5537,50.39028,221.158],[5.5877,50.40059,205.931],[5.64186,50.36824,396.2105],[5.67503,50.36959,461.5122],[5.67028,50.35765,462.0366],[5.72077,50.35755,380.2817],[5.7034,50.33264,436.6748],[5.70449,50.32163,438.3116],[5.72061,50.30411,435.782],[5.74759,50.29982,461.1683],[5.72072,50.26308,634.0107],[5.78087,50.26902,518.2952],[5.79725,50.26572,530.544],[5.80391,50.25611,483.6263],[5.81043,50.26587,556.3347],[5.87378,50.27151,432.7188],[5.88029,50.28132,432.0054],[5.84546,50.28458,468.4507],[5.86779,50.31946,511.7397],[5.84929,50.32954,500.7541],[5.85807,50.34788,409.1432],[5.9793,50.33088,609.6859],[5.98106,50.3223,594.5999],[6.013,50.31176,464.4258],[6.00747,50.21874,515.2834],[6.01191,50.20766,495.5868],[6.03382,50.20484,486.0602],[6.01987,50.19469,518.3312],[6.02406,50.18386,535.1036],[6.02493,50.18161,548.8131],[6.02297,50.15089,508.8968],[6.02297,50.15082,508.8968],[6.02736,50.14945,513.7491],[6.03863,50.14841,522.3939],[6.06137,50.15074,490.6733],[6.07005,50.1542,493.3186],[6.07646,50.15864,449.6595],[6.08421,50.15932,467.3254],[6.09713,50.15131,453.6486],[6.10147,50.14211,485.2005],[6.10033,50.13265,456.8466],[6.1026,50.12475,487.6664],[6.11749,50.12046,435.167],[6.12658,50.12733,436.1547],[6.12948,50.13405,398.827],[6.12596,50.1402,459.2533],[6.11583,50.14547,440.0104],[6.118,50.15038,437.7744],[6.12131,50.16159,486.8173],[6.12317,50.1649,488.8785],[6.13175,50.16831,452.2609],[6.1517,50.16934,466.1915],[6.15914,50.17244,460.4104],[6.16513,50.1819,435.4788],[6.16575,50.19316,474.3549],[6.16017,50.20453,381.0287],[6.14684,50.21404,435.9482],[6.15717,50.22272,509.325],[6.17981,50.23301,450.4218],[6.18963,50.24272,446.919],[6.2104,50.24903,447.489],[6.2534,50.25678,527.4264],[6.27179,50.26742,516.7766],[6.26735,50.27642,524.2864],[6.26942,50.28649,508.7704],[6.27603,50.2961,426.5109],[6.28595,50.30386,471.5087],[6.29949,50.30887,446.9968],[6.31065,50.30825,471.0244],[6.32202,50.30541,494.3864],[6.33546,50.30386,527.5452],[6.36202,50.30696,520.1234],[6.37453,50.31548,558.2],[6.3734,50.32308,563.0701],[6.37246,50.32944,561.4586],[6.33773,50.36809,638.8027],[6.33639,50.37992,671.2628],[6.34331,50.39331,635.8836],[6.35044,50.41687,665.6727],[6.35117,50.43356,645.6992],[6.34734,50.43697,640.2817],[6.34021,50.43785,655.6789],[6.33163,50.4469,629.2349],[6.32616,50.45702,606.3777],[6.32326,50.46602,620.3522],[6.32574,50.47403,614.8948],[6.3369,50.481,532.9703],[6.31871,50.48167,609.222],[6.27541,50.48803,562.7083],[6.26011,50.49268,549.2769],[6.25784,50.49408,573.134],[6.25557,50.49459,586.0436],[6.25309,50.49408,608.4397],[6.25092,50.49268,618.3666],[6.21712,50.48602,562.7194],[6.2072,50.48633,560.0234],[6.19924,50.49041,556.8284],[6.19066,50.50183,563.1254],[6.1826,50.50658,575.6751],[6.19056,50.51521,577.4766],[6.17888,50.51578,561.5099],[6.17082,50.51795,556.851],[6.16947,50.5225,599.0091],[6.17733,50.5302,619.854],[6.16069,50.54358,642.0954],[6.17908,50.56198,633.0994],[6.21061,50.57867,671.3052],[6.23293,50.58715,568.171],[6.23293,50.59076,578.5643],[6.2443,50.59955,555.6802],[6.25133,50.60844,567.1146],[6.24905,50.61443,596.9622],[6.18002,50.61552,478.3861],[6.15945,50.62239,440.0378],[6.14777,50.63676,404.3952],[6.1611,50.64218,428.0805],[6.10023,50.7013,273.4726],[6.081,50.71349,289.1648],[6.06436,50.71448,250.5901],[6.02478,50.70755,208.4974],[6.01155,50.70853,200.9436],[6.00762,50.71691,213.0272],[6.01134,50.72745,248.8213],[6.01083,50.73706,272.4121],[5.99419,50.74259,198.9447],[5.99274,50.74445,201.0329],[5.99264,50.74626,213.7898],[5.99326,50.74807,230.8394],[5.99491,50.74993,250.0148],[5.97476,50.74755,175.6969],[5.9022,50.74905,214.6263],[5.89132,50.75124,247.7372],[5.89129,50.75125,247.7372],[5.91016,50.73597,279.6305],[5.91017,50.73596,279.6305],[5.88692,50.71335,274.8593],[5.87818,50.711,278.7183],[5.85415,50.71885,280.6716],[5.81829,50.7156,250.7904],[5.77597,50.7512,111.3472],[5.75028,50.74686,104.8025],[5.7353,50.75637,85.6575],[5.73278,50.75885,82.9522],[5.72785,50.75416,65.1838],[5.71741,50.75282,77.0069]]]}}