{"type":"Feature","properties":{"GID_2":"BEL.3.3_1","GID_0":"BEL","country":"Belgium","GID_1":"BEL.3_1","state":"Wallonie","NL_NAME_1":"NA","county":"Liège","VARNAME_2":"Luik|Liegi|Lieja|Lüttich","NL_NAME_2":"NA","TYPE_2":"Province","ENGTYPE_2":"Provincie","CC_2":"NA","HASC_2":"BE.LG","name":"Liège.county"},
"geometry":{"type": "MultiPolygon","coordinates": [[[[6.1693,50.2249,386.8404],[6.1767,50.2262,402.4724],[6.1774,50.2287,388.4548],[6.1736,50.232,381.3522],[6.1761,50.2357,403.9334],[6.1853,50.2377,375.7027],[6.1946,50.2369,405.8878],[6.2003,50.2398,382.5911],[6.2067,50.2493,384.6713],[6.2053,50.2512,388.6126],[6.2089,50.2535,391.956],[6.212,50.2529,449.9324],[6.2158,50.257,457.3181],[6.2187,50.2563,495.9629],[6.2173,50.2549,479.9271],[6.2184,50.2544,504.76],[6.2236,50.2587,533.0858],[6.2272,50.2587,537.6028],[6.2361,50.2625,527.7887],[6.2455,50.2619,539.1912],[6.2587,50.2678,529.1032],[6.2615,50.2651,507.8014],[6.2666,50.2648,498.0901],[6.2724,50.2677,516.7766],[6.2779,50.2664,501.9441],[6.2921,50.2788,544.752],[6.2852,50.2843,523.9526],[6.2882,50.2888,517.3518],[6.2869,50.2902,505.0678],[6.2886,50.2905,497.9977],[6.2859,50.2941,467.6401],[6.2915,50.2956,479.6442],[6.2927,50.2969,496.3515],[6.2911,50.2977,481.9013],[6.2957,50.2997,506.4875],[6.2947,50.3013,506.8544],[6.2981,50.3021,523.1171],[6.2983,50.3041,513.7248],[6.2959,50.3053,516.1219],[6.2961,50.309,446.0333],[6.3008,50.3104,449.9878],[6.3066,50.3097,451.7902],[6.3092,50.3117,447.6165],[6.3068,50.3141,468.3865],[6.3079,50.3159,484.129],[6.3055,50.3176,500.3731],[6.3065,50.3201,529.1742],[6.3128,50.3219,546.9974],[6.3177,50.3212,529.9776],[6.318,50.3191,529.0137],[6.3273,50.3245,534.4099],[6.3333,50.3232,529.324],[6.3343,50.3208,522.6755],[6.3329,50.3208,522.6755],[6.333,50.3194,517.3532],[6.3357,50.3188,527.6066],[6.3349,50.3164,478.5767],[6.3429,50.3184,478.2226],[6.3424,50.3174,478.2226],[6.3439,50.3172,478.2226],[6.3405,50.3158,465.0288],[6.3484,50.315,479.5901],[6.3513,50.3108,512.2267],[6.3633,50.3054,519.3223],[6.3583,50.3098,529.2289],[6.359,50.3135,518.3757],[6.3616,50.3147,496.8523],[6.3705,50.3128,520.6066],[6.3751,50.3138,531.1559],[6.3759,50.3175,563.5273],[6.3814,50.3193,572.331],[6.3809,50.3214,574.1852],[6.3826,50.322,579.1151],[6.3894,50.3211,582.3048],[6.405,50.3233,603.3645],[6.4079,50.3351,613.0563],[6.4005,50.3381,612.7708],[6.3992,50.3447,591.7714],[6.3975,50.3462,585.123],[6.3861,50.3511,568.9244],[6.3828,50.3542,573.4167],[6.381,50.3534,578.7239],[6.3771,50.356,592.7404],[6.3763,50.3552,585.1865],[6.3734,50.3582,588.3762],[6.3681,50.3581,582.3121],[6.3671,50.3588,580.4224],[6.3694,50.3611,583.5933],[6.3606,50.3715,637.8284],[6.3422,50.38,669.6652],[6.3466,50.3852,678.4756],[6.3569,50.3911,658.5129],[6.3576,50.3958,678.6872],[6.3652,50.4014,684.5864],[6.3699,50.4089,699.4891],[6.3667,50.4192,685.9397],[6.376,50.4317,652.0386],[6.3776,50.4394,646.5483],[6.3749,50.4512,652.0698],[6.3718,50.4556,643.3413],[6.3629,50.4539,602.5674],[6.3567,50.4565,571.6609],[6.3501,50.4569,557.5391],[6.3402,50.4626,544.3312],[6.3438,50.4688,521.5353],[6.3412,50.472,541.8497],[6.3382,50.4724,513.595],[6.3375,50.4747,515.8469],[6.3411,50.4777,554.4298],[6.3416,50.4835,536.1044],[6.3513,50.4883,512.0019],[6.3348,50.489,534.4214],[6.3323,50.4923,574.3403],[6.3229,50.493899999999996,612.0751],[6.3091,50.5014,624.9117],[6.2975,50.4976,611.387],[6.285,50.499,608.6215],[6.2815,50.5032,603.7849],[6.2748,50.5023,595.8925],[6.2699,50.5045,582.275],[6.2618,50.4988,558.9073],[6.2546,50.4994,527.4541],[6.2546,50.5014,524.0065],[6.2517,50.5035,527.157],[6.2414,50.499,554.7899],[6.2307,50.4975,570.4772],[6.2266,50.4944,608.4614],[6.2246,50.4949,608.4614],[6.22,50.4987,604.9902],[6.2226,50.5006,579.6339],[6.2199,50.5053,566.6379],[6.2168,50.5065,568.6603],[6.2132,50.513,538.6997],[6.2102,50.5131,546.0372],[6.2091,50.5147,548.8917],[6.2126,50.5156,544.86],[6.2081,50.5174,531.0424],[6.2053,50.521,508.0395],[6.1922,50.5211,529.3961],[6.1872,50.5263,550.9336],[6.1921,50.5309,571.5521],[6.197,50.531,493.6169],[6.1986,50.5352,504.0815],[6.1886,50.5403,543.5872],[6.178,50.5416,561.5588],[6.1784,50.554,618.6693],[6.1744,50.5575,635.3279],[6.1891,50.5645,620.6824],[6.1893,50.5661,617.708],[6.1919,50.5655,617.708],[6.2031,50.5693,627.8942],[6.2045,50.571,637.342],[6.2037,50.5723,636.8992],[6.2067,50.5747,645.7271],[6.2063,50.5763,657.8549],[6.2191,50.5814,649.3165],[6.2252,50.5905,606.0753],[6.2348,50.5888,562.3391],[6.2417,50.5935,554.5392],[6.2451,50.593,544.8621],[6.2496,50.5982,552.0512],[6.2477,50.6037,550.5942],[6.26,50.6098,545.9696],[6.2691,50.6192,545.0913],[6.2694,50.625,545.4785],[6.2667,50.6272,570.458],[6.2608,50.6286,579.9895],[6.2355,50.6259,573.08],[6.2169,50.6322,493.9172],[6.1996,50.6315,460.41],[6.1943,50.6339,438.723],[6.1895,50.6301,486.5238],[6.1872,50.6301,488.5093],[6.1888,50.6274,490.8877],[6.1818,50.6238,481.0382],[6.1761,50.6259,479.0377],[6.1756,50.6273,484.1673],[6.1802,50.6285,490.6842],[6.1833,50.6323,460.5759],[6.1666,50.6437,409.0922],[6.178,50.6447,411.1443],[6.1777,50.6483,420.3274],[6.1695,50.6527,457.075],[6.1726,50.6568,451.6532],[6.1648,50.6633,382.4833],[6.1615,50.6697,336.3775],[6.1624,50.6714,332.1989],[6.1575,50.6729,339.6498],[6.1567,50.6748,336.981],[6.1488,50.6778,328.5138],[6.1482,50.6795,322.8993],[6.1436,50.6817,301.9871],[6.1424,50.6871,288.335],[6.1437,50.6889,283.3415],[6.1406,50.6907,256.4826],[6.1393,50.6936,259.387],[6.1333,50.6962,274.1662],[6.133,50.699,279.4708],[6.1232,50.7071,292.8783],[6.1248,50.7111,287.0508],[6.1192,50.7197,280.2764],[6.1153,50.7221,289.6011],[6.1003,50.7233,305.7344],[6.0948,50.7202,311.8019],[6.0916,50.7229,280.7213],[6.0878,50.7214,273.7629],[6.0732,50.721,288.4573],[6.0446,50.7284,239.017],[6.0415,50.7187,243.736],[6.039,50.7184,243.736],[6.0365,50.7201,227.7433],[6.0367,50.7235,225.8611],[6.0284,50.7274,244.1742],[6.0286,50.7252,212.5904],[6.0116,50.7569,274.699],[5.9991,50.7564,256.7947],[5.9596,50.7621,277.4962],[5.9047,50.7552,168.6825],[5.8961,50.7596,198.0834],[5.8848,50.7395,186.0926],[5.8876,50.726,232.5411],[5.8871,50.712,281.6675],[5.8565,50.7112,216.7065],[5.8265,50.7164,251.5262],[5.8053,50.718,240.5521],[5.7948,50.7299,221.2493],[5.7849,50.7359,143.0174],[5.7651,50.738,107.7807],[5.7395,50.745,95.9623],[5.715,50.7406,105.8867],[5.7065,50.7412,101.1079],[5.7018,50.7434,80.136],[5.6931,50.7554,53.61],[5.6913,50.7631,50.0809],[5.7052,50.7859,49.2613],[5.7011,50.8054,44.0],[5.691,50.8092,78.6487],[5.678,50.8046,55.7926],[5.6582,50.7909,97.3436],[5.6305,50.7753,113.7701],[5.5988,50.7676,119.3815],[5.5674,50.7624,138.0226],[5.5523,50.7621,135.7858],[5.5382,50.755,82.1642],[5.5332,50.7465,93.9164],[5.5323,50.7397,95.2778],[5.5005,50.7316,131.6532],[5.4946,50.7259,127.8909],[5.4691,50.7238,135.2106],[5.4539,50.7152,137.2373],[5.4359,50.7127,135.5901],[5.4119,50.7188,120.556],[5.4098,50.7223,129.1996],[5.4102,50.7365,97.7151],[5.4087,50.7427,117.1887],[5.4047,50.7452,111.4257],[5.3949,50.7447,116.9633],[5.3638,50.7411,124.2965],[5.3374,50.7334,119.5844],[5.3239,50.7276,123.6822],[5.3143,50.7199,103.3588],[5.2855,50.724,109.3612],[5.2599,50.7169,127.5369],[5.2471,50.7174,125.2636],[5.2294,50.7221,122.4945],[5.2098,50.7222,115.2495],[5.1831,50.7192,118.843],[5.18,50.7168,128.7575],[5.1777,50.7067,126.8999],[5.174,50.701,124.285],[5.1552,50.6921,136.2053],[5.1425,50.7056,132.5104],[5.1299,50.7137,117.4191],[5.1174,50.7178,114.8657],[5.0992,50.7094,122.2931],[5.0884,50.7074,117.4737],[5.0757,50.7088,114.4105],[5.0645,50.7136,110.9373],[5.0533,50.7224,103.6083],[5.0548,50.7276,98.2944],[5.0522,50.7346,101.4532],[5.0477,50.7399,96.3309],[5.0397,50.7447,87.9888],[5.0257,50.7476,89.513],[5.0153,50.7315,76.8672],[5.0148,50.7171,92.4359],[5.0177,50.7122,73.3135],[5.0196,50.6992,112.5822],[5.0141,50.6848,108.6093],[5.012,50.6618,129.1738],[5.0018,50.6488,141.0561],[4.9909,50.6413,136.7462],[4.9899,50.6274,133.6528],[4.9858,50.6151,145.049],[5.0049,50.6001,145.8333],[5.0234,50.588,160.9998],[5.0304,50.5851,168.6167],[5.046,50.5626,183.2558],[5.056,50.5548,190.2627],[5.0514,50.5437,206.8132],[5.0335,50.5239,210.8754],[5.0292,50.51,211.9827],[5.0702,50.5141,169.728],[5.0915,50.5187,154.9921],[5.1003,50.5182,173.6343],[5.1041,50.5166,186.026],[5.1106,50.5068,150.5022],[5.115,50.5036,79.5625],[5.1415,50.5004,189.9627],[5.1459,50.4943,179.8758],[5.1626,50.4791,254.8854],[5.1715,50.4686,254.3482],[5.1876,50.4695,258.8918],[5.2063,50.4775,253.1693],[5.2182,50.4653,226.3381],[5.2212,50.4546,220.0119],[5.2244,50.4494,200.2063],[5.2356,50.4412,246.9181],[5.242,50.431399999999996,232.0423],[5.2336,50.4198,250.1013],[5.2285,50.4063,233.8403],[5.2637,50.4013,274.0796],[5.2754,50.3973,245.3367],[5.2821,50.3919,245.3095],[5.2924,50.3735,275.825],[5.3054,50.3647,296.0634],[5.3154,50.3634,295.1285],[5.3222,50.3651,289.7172],[5.349,50.3807,297.8491],[5.3778,50.3835,284.0684],[5.3988,50.3814,250.1515],[5.4199,50.3919,267.1703],[5.4268,50.3968,270.8226],[5.4299,50.4034,231.6187],[5.429,50.4066,243.7014],[5.42,50.4175,285.1126],[5.4182,50.4275,249.2398],[5.4299,50.4257,235.867],[5.4465,50.417,240.6816],[5.4709,50.4083,200.3232],[5.4926,50.4111,236.9459],[5.5149,50.4218,185.3079],[5.5241,50.4107,223.4212],[5.5272,50.4001,199.4122],[5.5366,50.3931,145.5518],[5.5478,50.3885,213.2141],[5.5697,50.3879,245.0412],[5.6009,50.3941,277.9747],[5.6088,50.3938,301.6482],[5.6304,50.38,387.0793],[5.6474,50.3641,424.4909],[5.6737,50.3635,466.3053],[5.6876,50.3586,394.0687],[5.732,50.3497,353.7506],[5.7179,50.333,340.3755],[5.7161,50.3184,368.2296],[5.7169,50.3086,390.5965],[5.7203,50.3044,435.782],[5.7269,50.3001,398.1018],[5.7335,50.298,438.7299],[5.7507,50.2964,528.3848],[5.7537,50.2921,566.2719],[5.7338,50.2691,604.0859],[5.7291,50.2567,640.2709],[5.7573,50.2594,543.7961],[5.7762,50.2631,499.9235],[5.7973,50.2608,495.7863],[5.8286,50.2606,473.8938],[5.8583,50.2633,469.4736],[5.8842,50.2682,413.2736],[5.8904,50.272,440.3351],[5.892,50.2753,524.3915],[5.8907,50.2817,440.7081],[5.8866,50.2836,417.035],[5.8692,50.2851,434.0921],[5.863,50.2898,427.692],[5.8633,50.2938,435.1002],[5.8696,50.3023,472.1039],[5.871,50.308,498.6702],[5.8702,50.3126,484.5844],[5.8641,50.3235,548.1134],[5.873,50.3344,491.3888],[5.8828,50.3401,427.1424],[5.887,50.3408,391.6666],[5.8931,50.3398,374.9164],[5.905,50.3337,352.4312],[5.9154,50.3304,357.3319],[5.9614,50.3308,539.6182],[5.9949,50.3193,545.3284],[6.0158,50.3088,471.0614],[6.0211,50.3033,531.9762],[6.0211,50.2879,563.4598],[6.0172,50.2777,585.0793],[6.0155,50.2632,555.5248],[6.0112,50.2458,492.8778],[6.0187,50.2284,501.4828],[6.0233,50.2052,497.6485],[6.0331,50.1929,489.9733],[6.0284,50.1778,534.66],[6.0265,50.1777,534.66],[6.0314,50.1656,516.3116],[6.0482,50.1601,535.9146],[6.0708,50.1564,474.1562],[6.0775,50.1581,449.6595],[6.0808,50.1724,509.2033],[6.1016,50.1708,453.0885],[6.1204,50.1632,491.5215],[6.1254,50.151,403.9409],[6.1164,50.1376,438.6881],[6.1299,50.1338,398.827],[6.147,50.1357,400.5833],[6.1547,50.1419,462.5412],[6.1529,50.1501,393.2311],[6.1485,50.1519,416.8551],[6.1406,50.148,346.5281],[6.1402,50.1498,340.6344],[6.132,50.154,329.2658],[6.1325,50.1555,340.3621],[6.1434,50.1559,355.7402],[6.1475,50.1606,333.7113],[6.1397,50.1683,339.2633],[6.1406,50.1696,350.2408],[6.1476,50.1705,366.7494],[6.1443,50.1735,343.924],[6.1469,50.1778,359.5872],[6.1527,50.1763,403.9115],[6.156,50.1718,436.5804],[6.1603,50.1718,443.3997],[6.1614,50.1776,496.667],[6.1653,50.1791,436.4363],[6.1771,50.1788,464.0141],[6.178,50.1799,464.0141],[6.1801,50.1781,488.1951],[6.1834,50.1782,504.194],[6.1928,50.1819,577.4288],[6.1858,50.184,547.1666],[6.1903,50.1876,513.0585],[6.1839,50.1921,468.381],[6.1865,50.1956,451.7802],[6.1854,50.2032,422.8055],[6.1889,50.2053,416.7996],[6.1831,50.2077,394.0523],[6.178,50.2165,362.669],[6.1668,50.2194,369.8048],[6.1668,50.2225,367.3096],[6.1693,50.2249,386.8404]]]]}}