{"type":"Feature","properties":{"ISO3166-1-Alpha-3":"BEL","country":"Belgium","fill":"#F0F","id":"3474","name":"Brussels"},
"geometry":{"type": "Polygon","coordinates": [[[4.47977,50.79541,126.076],[4.47975,50.79542,149.1362],[4.44649,50.81099,64.2905],[4.44649,50.811,64.2905],[4.45491,50.81978,114.7369],[4.4761,50.82153,126.3415],[4.46023,50.85321,76.4564],[4.46023,50.85321,76.4564],[4.42003,50.86949,60.88],[4.42004,50.8695,60.88],[4.43569,50.87967,53.4564],[4.4362,50.88928,47.7779],[4.43619,50.88929,47.7779],[4.42049,50.90634,19.9563],[4.40329,50.91481,50.143],[4.37734,50.89858,39.3897],[4.33461,50.90313,71.2074],[4.29792,50.89145,77.9007],[4.27895,50.86779,39.6178],[4.27895,50.86779,39.6178],[4.28917,50.85643,70.6281],[4.28918,50.85642,70.6281],[4.28283,50.83962,48.0845],[4.25746,50.83693,62.7756],[4.24558,50.82165,44.9311],[4.24557,50.82164,44.9311],[4.28304,50.80841,25.1877],[4.30123,50.8144,23.6415],[4.32763,50.77898,49.5532],[4.35528,50.76715,98.4423],[4.37724,50.76464,115.6293],[4.39843,50.76779,133.5494],[4.47977,50.79541,126.076]]]}}