{"type": "Feature","bbox": [4.2439,50.7671,4.4722,50.91],"geometry": {"type": "MultiPolygon","coordinates": [[[[4.4035,50.774,144.7276],[4.4131,50.7725,129.842],[4.4326,50.7798,137.0966],[4.4545,50.7829,125.5747],[4.4545,50.7878,125.279],[4.4682,50.7915,117.7025],[4.4722,50.7949,123.663],[4.4691,50.7975,115.822],[4.4468,50.8066,90.5439],[4.4437,50.8108,64.2905],[4.4483,50.8174,118.0119],[4.4563,50.8193,122.1044],[4.4595,50.8294,84.5803],[4.4593,50.8379,69.4699],[4.4531,50.848,70.8739],[4.4467,50.8528,41.9085],[4.4318,50.8603,76.8373],[4.4239,50.8612,76.1864],[4.4231,50.8661,67.4922],[4.4254,50.8728,57.6457],[4.4349,50.8769,55.6098],[4.4358,50.8788,53.4564],[4.4285,50.8878,47.461],[4.4316,50.8933,31.561],[4.4286,50.896,25.3594],[4.4283,50.9005,25.0751],[4.4218,50.9097,12.0861],[4.3984,50.91,45.9229],[4.3721,50.8981,49.3555],[4.3587,50.9006,68.9096],[4.342,50.901,77.9535],[4.3219,50.894,75.3346],[4.3044,50.8948,56.7835],[4.3023,50.8896,77.3029],[4.2992,50.8888,92.7393],[4.2982,50.887,83.7792],[4.3043,50.8803,30.5363],[4.295,50.8755,31.1934],[4.2799,50.8644,39.6625],[4.281,50.8602,47.7098],[4.287,50.8555,66.2652],[4.2834,50.8415,57.2925],[4.2699,50.8374,43.1396],[4.2568,50.8358,62.7756],[4.2527,50.8284,29.658],[4.2439,50.8224,48.2797],[4.2443,50.8198,48.6246],[4.2536,50.818,46.8945],[4.2578,50.8133,44.8674],[4.269,50.8125,30.7641],[4.2768,50.8092,26.0936],[4.2989,50.8071,21.7294],[4.3002,50.8019,22.5443],[4.3084,50.8007,23.2761],[4.3226,50.7891,31.6082],[4.3237,50.7858,33.5724],[4.321,50.7761,56.7207],[4.368,50.7724,95.1028],[4.371,50.7713,106.83],[4.3721,50.768,114.9862],[4.3747,50.7671,117.8457],[4.4035,50.774,144.7276]]]]}
,"properties": {"GID_1": "BEL.1_1","GID_0": "BEL","country": "Belgium","state": "Bruxelles","VARNAME_1": "Brussel","NL_NAME_1": "NA","TYPE_1": "Gewest","ENGTYPE_1": "Region","CC_1": "NA","HASC_1": "NA","ISO_1": "NA","name": "Bruxelles.state","area_km2": 155.4844,"hist_schema_id": "Elevation0-9000","hist_area_km2": {"0": 0.642,"25": 40.6634,"50": 41.8959,"75": 37.093,"100": 23.6223,"125": 9.3156,"150": 2.2522}}}