{"type":"Feature","properties":{"GID_2":"BEL.2.3_1","GID_0":"BEL","country":"Belgium","GID_1":"BEL.2_1","state":"Vlaanderen","NL_NAME_1":"NA","county":"Oost-Vlaanderen","VARNAME_2":"FlandresOriental|FiandraOrient","NL_NAME_2":"NA","TYPE_2":"Provincie","ENGTYPE_2":"Province","CC_2":"NA","HASC_2":"BE.OV","name":"Oost-Vlaanderen.county"},
"geometry":{"type": "MultiPolygon","coordinates": [[[[3.6627,50.7359,73.8119],[3.6647,50.7436,79.446],[3.6759,50.7665,119.1426],[3.6899,50.7671,110.6372],[3.7149,50.7653,115.7339],[3.736,50.7675,110.1484],[3.7492,50.7655,127.0302],[3.7653,50.7497,76.898],[3.7809,50.744,51.7182],[3.8007,50.7448,40.1654],[3.8312,50.7382,26.2869],[3.8378,50.7398,30.1433],[3.8528,50.7474,19.0761],[3.864,50.7484,49.5799],[3.8751,50.745,25.7568],[3.884,50.7369,23.04],[3.9152,50.7326,36.4019],[3.9271,50.7331,25.1338],[3.9485,50.7375,29.0964],[3.9435,50.7414,28.7912],[3.9337,50.7449,26.7125],[3.9284,50.7523,32.5109],[3.9297,50.7613,67.937],[3.9355,50.7681,94.145],[3.9435,50.7733,98.3303],[3.9604,50.7783,74.1592],[3.9684,50.7776,60.8144],[3.9758,50.7734,42.6587],[3.9845,50.771,34.0992],[4.0083,50.7745,45.3188],[4.0256,50.7741,50.023],[4.0456,50.7793,47.8053],[4.0501,50.7848,42.3953],[4.0737,50.8038,50.5631],[4.0806,50.8127,77.845],[4.0803,50.829,41.9773],[4.0765,50.8323,28.0889],[4.0569,50.8345,17.8832],[4.0551,50.8363,28.1907],[4.0545,50.8404,23.0095],[4.0589,50.8472,10.7048],[4.074,50.8591,16.5353],[4.0824,50.8733,10.9731],[4.0902,50.8808,8.4936],[4.0819,50.8922,10.2546],[4.0807,50.9042,24.836],[4.0892,50.9064,33.9041],[4.0953,50.9116,47.855],[4.0977,50.9164,57.6235],[4.0993,50.932,34.7059],[4.1066,50.9345,23.0682],[4.12,50.933,31.0643],[4.1497,50.9202,55.7247],[4.1604,50.9353,71.056],[4.1698,50.943,49.9184],[4.166,50.9527,42.052],[4.1524,50.9661,23.4564],[4.15,50.9743,13.9061],[4.1701,50.9953,13.2401],[4.1884,50.9896,15.2655],[4.2107,50.9876,26.0665],[4.2259,50.9949,16.6111],[4.2328,51.0012,13.4762],[4.2373,51.0079,14.6156],[4.2387,51.0245,8.2646],[4.2439,51.0433,6.1795],[4.2189,51.0383,4.7853],[4.1923,51.0384,0.4933],[4.1944,51.0493,1.881],[4.1942,51.0614,5.9705],[4.1878,51.0771,2.4808],[4.1736,51.0927,0.0],[4.1731,51.0974,0.0],[4.1752,51.1029,3.1376],[4.1789,51.1067,0.1585],[4.2044,51.1218,6.8243],[4.2128,51.1249,11.5166],[4.2306,51.1254,4.52],[4.2614,51.1225,5.2862],[4.2939,51.1277,3.8462],[4.3179,51.1276,0.0],[4.3261,51.1375,0.0],[4.3271,51.1988,11.1908],[4.32,51.2057,7.1781],[4.302,51.2335,-0.0716],[4.2974,51.2455,0.0],[4.294,51.2626,0.0],[4.3044,51.2771,7.3731],[4.3046,51.2836,6.6567],[4.2997,51.2881,5.6588],[4.2788,51.298,1.3032],[4.2713,51.3113,0.0],[4.2699,51.3261,0.0],[4.2666,51.3313,0.0],[4.2469,51.3487,0.0],[4.2326,51.3557,0.0],[4.2371,51.3513,0.0],[4.2177,51.3375,2.065],[4.1835,51.3055,1.5441],[4.1044,51.2679,1.5729],[4.057,51.248,8.3892],[3.9997,51.2413,2.9839],[3.9625,51.216,1.062],[3.9242,51.2105,0.5088],[3.9021,51.1989,1.8501],[3.8842,51.2011,2.0788],[3.8763,51.2135,0.3274],[3.808,51.2049,5.5273],[3.7887,51.2152,0.734],[3.7895,51.2411,0.7353],[3.791,51.2462,5.9654],[3.7993,51.2576,0.5356],[3.778,51.2644,1.1439],[3.7708,51.2634,0.6143],[3.7648,51.2651,0.8162],[3.762,51.2702,0.7908],[3.7554,51.2739,1.0432],[3.7349,51.2741,0.9382],[3.7259,51.2726,1.5268],[3.7137,51.2745,1.3615],[3.6939,51.2834,1.082],[3.6669,51.2929,0.9937],[3.6432,51.2916,1.2717],[3.5919,51.3076,1.1592],[3.5834,51.302,1.4819],[3.5792,51.2918,1.2636],[3.5736,51.2925,1.5103],[3.561,51.2984,2.5153],[3.5559,51.2978,1.2313],[3.5524,51.292,1.9517],[3.5435,51.2932,1.4162],[3.5387,51.2904,1.5221],[3.5266,51.2917,1.5709],[3.514,51.2889,1.3346],[3.525,51.2488,0.9076],[3.5057,51.2467,1.327],[3.4562,51.2448,0.9663],[3.4409,51.246,3.9249],[3.4301,51.2502,1.1364],[3.4235,51.2609,0.9889],[3.4062,51.2639,0.8425],[3.3989,51.2702,1.1614],[3.3894,51.268,1.0049],[3.3875,51.2644,1.2219],[3.3885,51.2616,1.781],[3.3924,51.2574,1.7036],[3.4007,51.2524,1.3849],[3.4036,51.2486,2.2612],[3.404,51.2446,1.4521],[3.3994,51.2383,2.0276],[3.3846,51.2293,2.1639],[3.3842,51.223,1.8617],[3.3904,51.218,3.89],[3.3914,51.2119,7.7805],[3.386,51.2044,11.1615],[3.3758,51.1979,10.8235],[3.3965,51.1794,9.7097],[3.4046,51.1692,9.5121],[3.4086,51.1612,12.1518],[3.4046,51.1481,11.1315],[3.3921,51.1288,8.3879],[3.3791,51.1184,8.2551],[3.341,51.1009,18.0201],[3.3411,51.0941,22.8591],[3.3619,51.0925,18.2159],[3.379,51.0842,37.7833],[3.4366,51.0631,16.3457],[3.4422,51.0602,12.4565],[3.4465,51.055,13.0821],[3.446,51.0455,12.7491],[3.435,51.0324,14.4234],[3.4451,51.0254,15.3485],[3.4523,51.0175,10.1122],[3.4517,51.0048,14.4871],[3.449,50.997,11.56],[3.4409,50.9889,11.038],[3.4401,50.986,10.799],[3.4409,50.9825,10.7597],[3.4462,50.9754,7.9153],[3.4463,50.9689,8.3547],[3.436,50.957,11.0345],[3.4393,50.9509,10.8219],[3.4532,50.9409,5.5076],[3.4448,50.9304,5.9831],[3.4318,50.9228,5.5769],[3.4334,50.917,12.942],[3.4318,50.9115,12.3388],[3.4363,50.9053,8.4519],[3.4418,50.9035,9.4415],[3.4502,50.9041,10.4014],[3.4617,50.9078,13.4089],[3.4745,50.9088,11.6064],[3.4785,50.8967,24.3127],[3.4791,50.8871,16.1001],[3.4691,50.8615,44.8817],[3.4958,50.855,37.2119],[3.501,50.8489,42.9592],[3.5094,50.8296,59.6365],[3.512,50.8114,16.5347],[3.5192,50.8105,15.5948],[3.5286,50.8049,9.5553],[3.5179,50.795,14.8948],[3.4941,50.7848,12.135],[3.467,50.7666,13.6883],[3.4932,50.7587,152.2042],[3.5187,50.7586,104.0495],[3.5387,50.7611,119.351],[3.5488,50.7599,91.9593],[3.5592,50.7533,39.7354],[3.5467,50.7363,18.0682],[3.5748,50.7295,18.7185],[3.6154,50.7311,32.0035],[3.6476,50.7228,101.9229],[3.6627,50.7359,73.8119]]]]}}