{"type":"Feature","properties":{"GID_3":"BEL.2.5.1_1","GID_0":"BEL","country":"Belgium","GID_1":"BEL.2_1","state":"Vlaanderen","NL_NAME_1":"NA","GID_2":"BEL.2.5_1","county":"West-Vlaanderen","NL_NAME_2":"NA","city":"Brugge","VARNAME_3":"Bruges","NL_NAME_3":"NA","TYPE_3":"Arrondissement","ENGTYPE_3":"Arrondissement","CC_3":"NA","HASC_3":"BE.WV.BG","name":"Brugge.city"},
"geometry":{"type": "MultiPolygon","coordinates": [[[[3.1459,51.0583,15.7524],[3.1665,51.0583,16.013],[3.1687,51.056399999999996,16.2168],[3.1698,51.0524,19.4855],[3.1852,51.0559,18.0838],[3.2245,51.06,26.6622],[3.2335,51.0661,19.8381],[3.2398,51.0804,14.5241],[3.2519,51.0884,14.7232],[3.2877,51.09,29.7043],[3.3018,51.0987,24.2966],[3.3189,51.0981,29.2889],[3.33,51.1006,19.4254],[3.341,51.1009,18.0201],[3.3791,51.1184,8.2551],[3.3902,51.127,7.5312],[3.3956,51.1332,9.1962],[3.4046,51.1481,11.1315],[3.4086,51.1612,12.1518],[3.4046,51.1692,9.5121],[3.3965,51.1794,9.7097],[3.3758,51.1979,10.8235],[3.386,51.2044,11.1615],[3.3914,51.2119,7.7805],[3.3904,51.218,3.89],[3.3842,51.223,1.8617],[3.3846,51.2293,2.1639],[3.3994,51.2383,2.0276],[3.4028,51.242,1.4642],[3.4042,51.2466,1.6651],[3.4007,51.2524,1.3849],[3.3924,51.2574,1.7036],[3.3885,51.2616,1.781],[3.3875,51.2644,1.2219],[3.3894,51.268,1.0049],[3.3989,51.2702,1.1614],[3.3943,51.2746,1.0097],[3.3826,51.2773,1.1682],[3.3843,51.2885,1.5087],[3.3768,51.2919,1.0596],[3.3718,51.316,1.2605],[3.377,51.3247,1.2391],[3.387,51.3306,1.4228],[3.3867,51.3361,1.6802],[3.3826,51.3421,1.3778],[3.372,51.349,0.5144],[3.3728,51.3573,2.6418],[3.3608,51.3676,0.9058],[3.2869,51.3537,3.8245],[3.2747,51.3482,2.3454],[3.2592,51.3457,0.0],[3.2519,51.3424,1.4978],[3.2414,51.3424,0.0],[3.2303,51.3401,3.367],[3.2269,51.3407,5.2011],[3.2264,51.3424,4.4496],[3.2258,51.3468,2.0218],[3.2275,51.3504,5.8924],[3.2242,51.3593,0.0],[3.1975,51.3635,0.0],[3.1981,51.3624,0.0],[3.2231,51.3587,0.7495],[3.2108,51.3551,0.0],[3.2097,51.3521,0.0],[3.2114,51.3504,0.0],[3.2119,51.3543,0.0],[3.2169,51.3551,0.0],[3.2181,51.3532,0.0],[3.2158,51.3518,0.0],[3.2192,51.3515,0.0],[3.2242,51.3468,2.0218],[3.2225,51.3449,1.4116],[3.2186,51.3446,0.5784],[3.2231,51.344,1.4116],[3.2225,51.341,3.6237],[3.2181,51.3398,3.9165],[3.2164,51.3421,0.0],[3.2147,51.3421,0.0],[3.2147,51.3404,0.8113],[3.2119,51.3415,0.0],[3.2142,51.3368,3.2029],[3.2031,51.3418,0.0],[3.2025,51.3401,0.0],[3.2081,51.3368,6.2157],[3.1997,51.339,0.0],[3.1992,51.3351,8.3134],[3.1958,51.3332,0.0],[3.1992,51.3321,3.4318],[3.1947,51.3299,5.5328],[3.1908,51.3307,6.0072],[3.1936,51.3318,3.8264],[3.1936,51.334,3.1655],[3.1958,51.3351,0.0],[3.1947,51.3382,0.0],[3.1958,51.3401,0.0],[3.1919,51.3407,0.6655],[3.1908,51.3376,0.9912],[3.1881,51.3396,1.4506],[3.1964,51.3446,1.986],[3.2014,51.3457,1.1261],[3.2031,51.3479,0.0],[3.1958,51.3493,2.9411],[3.1958,51.3479,4.7097],[3.1925,51.3474,3.8318],[3.1947,51.3499,2.9411],[3.1931,51.3504,9.8525],[3.1892,51.3474,3.8318],[3.1825,51.3462,0.0],[3.1803,51.3438,0.261],[3.1753,51.3446,3.7273],[3.1742,51.3471,7.3908],[3.1842,51.3532,5.5613],[3.1842,51.3551,7.6042],[3.1931,51.3543,0.0],[3.1908,51.356,0.6022],[3.1831,51.3571,0.0],[3.1758,51.3529,1.5986],[3.1775,51.3554,0.0],[3.1753,51.3551,0.0],[3.1819,51.3599,0.0],[3.1881,51.3601,0.0],[3.1825,51.3613,0.0],[3.1736,51.3549,0.7281],[3.1697,51.3543,0.0],[3.1681,51.3518,0.0],[3.1747,51.3382,0.728],[3.1814,51.3329,2.1174],[3.1819,51.3304,4.8472],[3.1291,51.3168,9.2057],[3.1287,51.3127,6.9641],[3.124,51.3033,0.3363],[3.1131,51.2955,-0.0304],[3.1107,51.2909,0.0279],[3.0929,51.2904,0.3383],[3.0819,51.2865,0.6241],[3.082,51.281,0.6818],[3.0888,51.2762,0.6087],[3.0904,51.2721,0.5789],[3.0899,51.2626,0.4586],[3.0871,51.2592,0.8335],[3.0855,51.2517,0.4638],[3.0822,51.2463,0.5152],[3.0866,51.236,0.063],[3.0784,51.2348,1.0894],[3.0618,51.2241,-0.4519],[3.057,51.2179,2.0664],[3.0563,51.2001,-0.5312],[3.0486,51.1929,-0.5282],[3.0488,51.1905,-0.5035],[3.0567,51.1812,3.0057],[3.0585,51.1606,17.245],[3.0676,51.1492,9.8474],[3.0774,51.1438,11.1237],[3.0719,51.1388,11.8656],[3.0673,51.13,12.6841],[3.067,51.1116,16.102],[3.0633,51.1047,28.6084],[3.063,51.0961,32.2397],[3.055,51.0857,42.2114],[3.0559,51.0834,40.4681],[3.0625,51.0788,35.1116],[3.0629,51.0763,23.2226],[3.0584,51.0677,18.4262],[3.0516,51.0622,30.108],[3.0483,51.0552,14.9192],[3.0589,51.0431,9.8441],[3.0679,51.0268,13.0853],[3.0698,51.0142,11.1061],[3.0972,51.0146,17.1503],[3.1049,51.0223,18.4173],[3.12,51.0293,20.9794],[3.1224,51.0386,16.5609],[3.1371,51.0485,19.5276],[3.1435,51.0572,16.1561],[3.1459,51.0583,15.7524]]],
[[[3.3664,51.3682,1.5217],[3.3625,51.3682,4.1448],[3.3742,51.3601,1.7718],[3.3732,51.3645,1.8788],[3.3694,51.3671,0.0],[3.3658,51.3665,1.219],[3.3664,51.3682,1.5217]]]]}}