{"type": "Feature","bbox": [3.3758,51.1467,3.85,51.3076],"geometry": {"type": "MultiPolygon","coordinates": [[[[3.808,51.2049,5.5273],[3.7887,51.2152,0.734],[3.7895,51.2411,0.7353],[3.791,51.2462,5.9654],[3.7993,51.2576,0.5356],[3.778,51.2644,1.1439],[3.7708,51.2634,0.6143],[3.7648,51.2651,0.8162],[3.762,51.2702,0.7908],[3.7554,51.2739,1.0432],[3.7349,51.2741,0.9382],[3.7259,51.2726,1.5268],[3.7137,51.2745,1.3615],[3.6939,51.2834,1.082],[3.6669,51.2929,0.9937],[3.6432,51.2916,1.2717],[3.5919,51.3076,1.1592],[3.5834,51.302,1.4819],[3.5792,51.2918,1.2636],[3.5736,51.2925,1.5103],[3.561,51.2984,2.5153],[3.5559,51.2978,1.2313],[3.5524,51.292,1.9517],[3.5435,51.2932,1.4162],[3.5387,51.2904,1.5221],[3.5266,51.2917,1.5709],[3.514,51.2889,1.3346],[3.525,51.2488,0.9076],[3.5057,51.2467,1.327],[3.4562,51.2448,0.9663],[3.4409,51.246,3.9249],[3.4301,51.2502,1.1364],[3.4235,51.2609,0.9889],[3.4062,51.2639,0.8425],[3.3989,51.2702,1.1614],[3.3894,51.268,1.0049],[3.3875,51.2644,1.2219],[3.3885,51.2616,1.781],[3.3924,51.2574,1.7036],[3.4007,51.2524,1.3849],[3.4036,51.2486,2.2612],[3.404,51.2446,1.4521],[3.3994,51.2383,2.0276],[3.3846,51.2293,2.1639],[3.3842,51.223,1.8617],[3.3904,51.218,3.89],[3.3914,51.2119,7.7805],[3.386,51.2044,11.1615],[3.3758,51.1979,10.8235],[3.3965,51.1794,9.7097],[3.4046,51.1692,9.5121],[3.4086,51.1612,12.1518],[3.4313,51.1611,13.3227],[3.4639,51.151,36.8775],[3.5004,51.1506,20.1028],[3.5125,51.1467,8.5681],[3.5251,51.1519,9.6977],[3.5306,51.1603,5.4272],[3.5625,51.1701,4.137],[3.5829,51.1675,3.7543],[3.6168,51.1714,4.2149],[3.6449,51.167,4.5637],[3.6637,51.1681,4.5316],[3.6709,51.1651,3.6973],[3.6812,51.1652,3.0961],[3.6917,51.1713,8.2064],[3.6933,51.1794,5.5626],[3.6953,51.181,6.2223],[3.703,51.1813,5.1986],[3.7127,51.1788,7.7374],[3.7269,51.1795,5.6517],[3.7316,51.1829,6.8112],[3.7332,51.191,5.7975],[3.7378,51.1926,5.3926],[3.7457,51.1924,6.7894],[3.7553,51.1899,5.4409],[3.7718,51.1898,5.0974],[3.7803,51.1874,14.8652],[3.7896,51.1884,37.2389],[3.8036,51.1845,2.5205],[3.8339,51.185,6.5019],[3.8359,51.1854,6.8988],[3.8411,51.1913,9.4247],[3.8427,51.1988,2.0953],[3.85,51.2102,1.4453],[3.808,51.2049,5.5273]]]]}
,"properties": {"GID_3": "BEL.2.3.3_1","GID_0": "BEL","country": "Belgium","GID_1": "BEL.2_1","state": "Vlaanderen","NL_NAME_1": "NA","GID_2": "BEL.2.3_1","county": "Oost-Vlaanderen","NL_NAME_2": "NA","city": "Eeklo","VARNAME_3": "NA","NL_NAME_3": "NA","TYPE_3": "Arrondissement","ENGTYPE_3": "Arrondissement","CC_3": "NA","HASC_3": "BE.OV.EK","name": "Eeklo.city","area_km2": 340.872,"hist_schema_id": "Elevation0-9000","hist_area_km2": {"0": 316.6393,"25": 23.9003,"50": 0.3324}}}