{"type": "Feature","bbox": [2.5991,50.7031,3.1083,50.9541],"geometry": {"type": "MultiPolygon","coordinates": [[[[2.9431,50.7872,29.4374],[2.9538,50.7975,21.3167],[2.9797,50.7997,20.4509],[3.0069,50.8046,20.2753],[3.0132,50.8002,18.1279],[3.0367,50.7716,15.7021],[3.0407,50.7756,12.5636],[3.0587,50.7807,14.9732],[3.0807,50.7729,14.8409],[3.0902,50.7744,12.7427],[3.0979,50.7784,16.8991],[3.0962,50.7813,11.3934],[3.099,50.7814,11.3934],[3.0873,50.7917,14.8193],[3.0863,50.8007,17.7336],[3.0913,50.8058,17.2984],[3.1024,50.8104,17.2691],[3.107,50.8164,19.3044],[3.1083,50.8391,39.4253],[3.0964,50.8402,32.5068],[3.0746,50.8471,25.6174],[3.068,50.8477,24.1143],[3.0671,50.8518,20.1846],[3.063,50.8566,20.8431],[3.0558,50.8601,21.5617],[3.0532,50.8658,20.8536],[3.0467,50.8708,27.2804],[3.0447,50.8761,32.4429],[3.0368,50.8864,34.498],[3.0375,50.8979,30.5862],[3.0566,50.9059,28.1815],[3.0612,50.9112,24.8638],[3.0621,50.9269,25.6521],[3.0326,50.9266,25.3693],[3.0111,50.9214,45.9751],[2.9992,50.9211,30.2838],[2.9932,50.9278,27.4158],[2.9908,50.9337,20.0489],[2.97,50.9508,17.3547],[2.9559,50.948,16.6372],[2.9285,50.9472,11.0654],[2.9225,50.9439,11.9065],[2.9165,50.9376,16.509],[2.9101,50.9364,15.172],[2.8982,50.9369,11.3183],[2.872,50.9467,5.3933],[2.859,50.947,3.4923],[2.8533,50.9402,1.1182],[2.8531,50.9349,3.8356],[2.8412,50.9301,3.6692],[2.8342,50.9203,7.0688],[2.8139,50.907,7.5506],[2.8079,50.9135,11.2545],[2.7986,50.9166,13.5337],[2.7898,50.9157,14.0937],[2.783,50.9091,13.5631],[2.7775,50.9081,12.7544],[2.7712,50.9113,11.4808],[2.7701,50.914,10.2008],[2.7742,50.9222,7.5427],[2.7734,50.9285,6.2937],[2.7639,50.9371,4.2686],[2.7532,50.9441,1.4679],[2.7459,50.9532,1.3023],[2.7334,50.9541,1.1374],[2.7236,50.9537,1.3302],[2.7077,50.9306,1.2001],[2.7001,50.9263,2.1639],[2.6814,50.9258,4.6958],[2.6687,50.9184,6.3811],[2.6601,50.9178,6.4893],[2.6564,50.9211,4.7536],[2.656,50.9347,3.7025],[2.65,50.9365,1.512],[2.6205,50.9181,2.1021],[2.6056,50.9129,2.5626],[2.6067,50.9127,2.2374],[2.6047,50.9064,3.7909],[2.6089,50.8963,3.6453],[2.6073,50.8726,7.8796],[2.6114,50.8636,8.8754],[2.5992,50.8533,11.9396],[2.5991,50.8498,11.842],[2.6146,50.8477,13.5559],[2.617,50.8409,15.0793],[2.6248,50.8361,16.6548],[2.635,50.8128,42.6626],[2.6541,50.8133,39.8887],[2.6702,50.821,35.9065],[2.6821,50.8139,38.9935],[2.7198,50.8121,36.4963],[2.7236,50.8095,39.9],[2.725,50.7957,74.3183],[2.7386,50.7806,118.1354],[2.7543,50.7746,70.451],[2.761,50.7693,57.9753],[2.7595,50.7625,47.7588],[2.782,50.7477,50.8889],[2.7912,50.7275,18.719],[2.8133,50.7169,17.6943],[2.8486,50.7218,17.7665],[2.8713,50.7031,16.6873],[2.8733,50.7113,17.6977],[2.8745,50.7107,17.3743],[2.8721,50.7286,17.1225],[2.8653,50.7351,17.585],[2.8542,50.7404,18.1314],[2.8517,50.7442,19.3304],[2.8521,50.7472,33.3368],[2.8585,50.7527,27.6209],[2.867,50.7572,38.1524],[2.9012,50.7526,21.3441],[2.9176,50.758,25.2761],[2.9387,50.7721,23.3809],[2.9431,50.7872,29.4374]]]]}
,"properties": {"GID_3": "BEL.2.5.3_1","GID_0": "BEL","country": "Belgium","GID_1": "BEL.2_1","state": "Vlaanderen","NL_NAME_1": "NA","GID_2": "BEL.2.5_1","county": "West-Vlaanderen","NL_NAME_2": "NA","city": "Ieper","VARNAME_3": "Ypres","NL_NAME_3": "NA","TYPE_3": "Arrondissement","ENGTYPE_3": "Arrondissement","CC_3": "NA","HASC_3": "BE.WV.IP","name": "Ieper.city","area_km2": 561.1627,"hist_schema_id": "Elevation0-9000","hist_area_km2": {"0": 88.3667,"25": 345.6558,"50": 104.4744,"75": 18.3091,"100": 2.9893,"125": 1.0859,"150": 0.2413,"175": 0.0402}}}