{"type": "Feature","bbox": [4.1640731128962614,49.458990789837884,6.15357506602129,50.423224188275356],"geometry": {"type": "Polygon","coordinates": [[[5.4163924488337054,49.577215887494106,288.5064],[5.9310408863337614,49.799261785931634,317.453],[6.15357506602129,50.078070379681577,479.2507],[5.9056502613337329,50.352118231244049,497.2298],[5.3432723316462329,50.423224188275356,252.7055],[4.7594100269587054,50.382696844525356,250.9626],[4.44678795664629,50.321905828900327,197.4926],[4.2795516285212329,50.166449285931549,237.8109],[4.1640731128962614,49.925055242962884,215.9084],[4.17029869883379,49.674505926556606,147.2827],[4.3676863941462614,49.491522528119049,87.7992],[4.8237410816462614,49.458990789837884,204.8894],[5.4163924488337054,49.577215887494106,288.5064]]]}
,"properties": {"featurecla": "Range/mtn","name": "Ardennes","namealt": null,"region": "Europe","subregion": null,"min_label": 5.4,"max_label": 10.0,"scalerank": 5,"area_km2": 11496.873,"hist_schema_id": "Elevation0-9000","hist_area_km2": {"75": 102.517,"100": 158.572,"125": 162.141,"150": 422.342,"175": 687.56,"200": 865.214,"225": 1029.838,"250": 1141.686,"275": 959.265,"300": 685.516,"325": 604.164,"350": 643.538,"375": 626.486,"400": 633.369,"425": 642.943,"450": 633.194,"475": 621.36,"500": 462.274,"525": 235.676,"550": 102.329,"575": 43.89,"600": 21.743,"625": 8.719,"650": 2.481}}}