{"type":"Feature","properties":{"GID_3":"BEL.2.5.4_1","GID_0":"BEL","country":"Belgium","GID_1":"BEL.2_1","state":"Vlaanderen","NL_NAME_1":"NA","GID_2":"BEL.2.5_1","county":"West-Vlaanderen","NL_NAME_2":"NA","city":"Kortrijk","VARNAME_3":"Courtrai","NL_NAME_3":"NA","TYPE_3":"Arrondissement","ENGTYPE_3":"Arrondissement","CC_3":"NA","HASC_3":"BE.WV.KR","name":"Kortrijk.city"},
"geometry":{"type": "MultiPolygon","coordinates": [[[[3.3658,50.712,9.396],[3.3748,50.7195,8.4216],[3.388,50.7274,10.0067],[3.4077,50.7336,14.8345],[3.4225,50.7409,11.764099999999999],[3.4518,50.7511,13.3056],[3.4558,50.7594,13.4051],[3.4607,50.7632,11.4272],[3.4941,50.7848,12.135],[3.5179,50.795,14.8948],[3.5286,50.8049,9.5553],[3.5192,50.8105,15.5948],[3.512,50.8114,16.5347],[3.5094,50.8296,59.6365],[3.501,50.8489,42.9592],[3.4958,50.855,37.2119],[3.4691,50.8615,44.8817],[3.4791,50.8871,16.1001],[3.4785,50.8967,24.3127],[3.4745,50.9088,11.6064],[3.4617,50.9078,13.4089],[3.4502,50.9041,10.4014],[3.4418,50.9035,9.4415],[3.4363,50.9053,8.4519],[3.4318,50.9115,12.3388],[3.4188,50.9124,7.9676],[3.3962,50.8994,14.8804],[3.3811,50.8963,7.0692],[3.3569,50.8954,10.7181],[3.3442,50.8925,8.2794],[3.3394,50.8884,7.0996],[3.3331,50.8876,11.7351],[3.3168,50.8993,14.8144],[3.3149,50.9028,14.058],[3.3108,50.9035,15.1118],[3.3028,50.9034,14.0408],[3.2873,50.8989,31.8279],[3.2752,50.8975,31.288],[3.2678,50.9008,23.1184],[3.2341,50.9008,19.6599],[3.227,50.9004,21.5107],[3.2122,50.8955,19.4187],[3.1954,50.8952,27.0778],[3.2053,50.886,29.7007],[3.208,50.8803,28.4916],[3.2112,50.8787,32.8747],[3.2107,50.8693,30.1276],[3.1833,50.8599,29.5774],[3.1614,50.8587,19.9823],[3.1494,50.8518,19.4087],[3.1129,50.8417,27.9524],[3.1083,50.8391,39.4253],[3.1078,50.8368,35.0592],[3.107,50.8164,19.3044],[3.1024,50.8104,17.2691],[3.0913,50.8058,17.2984],[3.0867,50.8021,17.2483],[3.0873,50.7917,14.8193],[3.099,50.7814,11.3934],[3.0962,50.7813,11.3934],[3.0979,50.7784,16.8991],[3.1027,50.7809,13.1901],[3.1122,50.793,12.0554],[3.1258,50.7878,15.8845],[3.1471,50.7899,16.5551],[3.1616,50.7723,29.8683],[3.1814,50.752,46.8669],[3.204,50.7526,50.5425],[3.217,50.76,52.218],[3.2354,50.7596,41.4355],[3.2671,50.7549,29.016],[3.2887,50.7575,20.1139],[3.2991,50.7568,30.76],[3.3051,50.7522,44.7175],[3.3133,50.7413,29.6566],[3.3194,50.7266,16.3389],[3.3519,50.713,16.9536],[3.3658,50.712,9.396]]]]}}