{"type": "Feature","bbox": [5.3589,50.397,5.8094,50.8092],"geometry": {"type": "MultiPolygon","coordinates": [[[[5.5484,50.4729,195.5222],[5.5467,50.46,221.86],[5.5747,50.4597,190.997],[5.589,50.4621,247.3895],[5.611,50.456,217.3499],[5.6327,50.4565,235.843],[5.6327,50.443,290.7669],[5.636,50.4376,356.8521],[5.6373,50.43,339.6786],[5.6537,50.4078,366.0137],[5.6686,50.3984,379.2455],[5.7084,50.397,397.4913],[5.7093,50.4106,436.4307],[5.713,50.4159,423.7578],[5.7152,50.4268,409.0787],[5.7201,50.4319,371.5541],[5.7302,50.4336,256.614],[5.7469,50.443,248.8017],[5.7601,50.4428,381.4037],[5.7768,50.4352,435.7926],[5.7887,50.4318,499.4736],[5.8036,50.4315,554.6827],[5.8088,50.4337,551.2908],[5.8094,50.437,558.6154],[5.79,50.4486,492.8164],[5.7705,50.4696,410.202],[5.7595,50.478,381.2064],[5.7603,50.4884,341.2429],[5.765,50.4964,368.9876],[5.7721,50.5019,325.7839],[5.7776,50.5127,307.3239],[5.7767,50.5163,315.0499],[5.7666,50.5286,346.9097],[5.7654,50.5336,325.4723],[5.766,50.547,309.764],[5.7696,50.5511,283.989],[5.7715,50.5586,212.8928],[5.7749,50.5632,136.7731],[5.7759,50.58,273.5528],[5.751,50.5821,201.9418],[5.7381,50.5767,152.5441],[5.7362,50.5694,110.4423],[5.7342,50.5672,107.114],[5.7256,50.5644,104.8238],[5.7178,50.5644,156.9912],[5.7083,50.5675,200.4365],[5.7063,50.5698,194.276],[5.7066,50.5754,176.8237],[5.711,50.5822,232.5618],[5.7111,50.5922,172.4335],[5.708,50.5942,140.9598],[5.6984,50.5946,170.1557],[5.6998,50.6068,206.9586],[5.7118,50.6106,246.7104],[5.7179,50.6103,235.094],[5.7271,50.6056,189.4643],[5.7538,50.5995,269.7205],[5.7636,50.599,271.8798],[5.7645,50.6052,255.7747],[5.7684,50.6121,247.125],[5.7697,50.651,275.1605],[5.7609,50.6581,226.8624],[5.7476,50.663,201.149],[5.75,50.6668,256.7154],[5.7653,50.6763,220.0377],[5.7704,50.6822,214.0029],[5.7711,50.6858,220.8409],[5.7676,50.692,186.685],[5.7681,50.6959,147.1254],[5.7718,50.6974,185.0311],[5.7933,50.697,190.5356],[5.7949,50.7016,161.6875],[5.806,50.709,249.079],[5.8063,50.7148,247.0078],[5.8053,50.718,240.5521],[5.7948,50.7299,221.2493],[5.7849,50.7359,143.0174],[5.7651,50.738,107.7807],[5.7395,50.745,95.9623],[5.715,50.7406,105.8867],[5.7065,50.7412,101.1079],[5.7018,50.7434,80.136],[5.6931,50.7554,53.61],[5.6911,50.7611,50.094],[5.7052,50.7859,49.2613],[5.7011,50.8054,44.0],[5.691,50.8092,78.6487],[5.6808,50.8059,72.3973],[5.6386,50.7792,82.0725],[5.6217,50.7727,126.1594],[5.5674,50.7624,138.0226],[5.5523,50.7621,135.7858],[5.5382,50.755,82.1642],[5.5332,50.7465,93.9164],[5.5323,50.7397,95.2778],[5.5005,50.7316,131.6532],[5.4946,50.7259,127.8909],[5.4691,50.7238,135.2106],[5.4539,50.7152,137.2373],[5.4359,50.7127,135.5901],[5.4337,50.7085,139.0131],[5.4322,50.6987,137.5866],[5.4284,50.6927,136.7739],[5.4289,50.6826,147.5067],[5.4456,50.6596,159.3753],[5.4514,50.6556,167.6764],[5.439,50.6452,175.7599],[5.4255,50.6401,181.7556],[5.4159,50.6389,175.4687],[5.392,50.6317,167.0198],[5.3789,50.6342,169.3281],[5.3682,50.6339,174.9177],[5.3589,50.6215,172.9383],[5.3702,50.611,170.8466],[5.3862,50.6057,151.4239],[5.3872,50.5982,140.8771],[5.3939,50.5945,174.5582],[5.3948,50.5893,165.6307],[5.4237,50.5704,202.0758],[5.4305,50.5631,205.7945],[5.4374,50.5599,217.9693],[5.433,50.5511,232.2361],[5.4322,50.5326,255.1465],[5.4375,50.5279,260.2258],[5.4428,50.5248,257.4629],[5.4557,50.5236,254.58],[5.4652,50.5205,223.1966],[5.473,50.5154,200.442],[5.4878,50.518,185.2361],[5.503,50.5184,216.3829],[5.5067,50.5135,255.6064],[5.549,50.4942,211.7324],[5.5489,50.4913,259.9191],[5.5516,50.4873,222.6258],[5.5518,50.4802,224.3582],[5.5509,50.4757,208.7182],[5.5484,50.4729,195.5222]]]]}
,"properties": {"GID_3": "BEL.3.3.2_1","GID_0": "BEL","country": "Belgium","GID_1": "BEL.3_1","state": "Wallonie","NL_NAME_1": "NA","GID_2": "BEL.3.3_1","county": "Liège","NL_NAME_2": "NA","city": "Liège","VARNAME_3": "Luik","NL_NAME_3": "NA","TYPE_3": "Arrondissement","ENGTYPE_3": "Arrondissement","CC_3": "NA","HASC_3": "BE.LG.LG","name": "Liège.city","area_km2": 792.101,"hist_schema_id": "Elevation0-9000","hist_area_km2": {"25": 0.0135,"50": 37.8389,"75": 54.2244,"100": 44.2094,"125": 91.0493,"150": 123.6173,"175": 104.0359,"200": 63.7423,"225": 77.401,"250": 78.4763,"275": 49.9348,"300": 20.9692,"325": 12.1154,"350": 10.7587,"375": 7.8324,"400": 6.0909,"425": 4.5652,"450": 1.7691,"475": 1.0397,"500": 0.8102,"525": 0.8372,"550": 0.7562,"575": 0.0135}}}