{"type":"Feature","properties":{"featurecla":"River","scalerank":8,"rivernum":821,"dissolve":"821River","name":"Schelde2","name_alt":"Steldt","note":null,"min_zoom":7.0,"strokeweig":0.25,"name_en":"Schelde","min_label":8.0},
"geometry":{"type": "LineString","coordinates": [[4.1103515625,51.04315827030662,0.7746],[4.1220703125,51.04474518436912,4.0522],[4.141845703125,51.056903387494117,1.3734],[4.1529785156250227,51.05951569218162,1.7072],[4.162109375,51.05499909061912,0.763],[4.1703125000000227,51.04645416874412,2.8842],[4.179443359375,51.040790106244117,1.5729],[4.19140625,51.04462311405662,3.7801],[4.1962890625,51.05451080936912,4.713],[4.1932617187500227,51.06610748905662,5.5268],[4.1875,51.077411199994117,2.4808],[4.1845703125,51.08673737186912,0.9563],[4.183349609375,51.09564850468162,1.1484],[4.1820312500000227,51.099872137494117,3.1262],[4.185302734375,51.104266668744117,0.0],[4.1979003906250227,51.11359284061912,0.7989],[4.2158203125,51.12152741093162,0.0],[4.235595703125,51.12396881718162,4.2623],[4.276123046875,51.12396881718162,2.8616],[4.31591796875,51.13214752811912,-0.5139],[4.3285156250000227,51.14777252811912,0.6947],[4.3330078125,51.169696356244117,6.8797],[4.3486328125,51.196649481244116,3.0582],[4.3917480468750227,51.22492096561912,8.0703],[4.395263671875,51.234393621869117,1.4316],[4.308349609375,51.26862213749412,0.0]]}}