{"type": "Feature","bbox": [3.2421,50.488,3.7095,50.7666],"geometry": {"type": "MultiPolygon","coordinates": [[[[3.4524,50.5125,15.5123],[3.4561,50.5208,16.5026],[3.47,50.5315,29.3364],[3.4749,50.5332,40.2598],[3.5064,50.5283,45.9224],[3.5158,50.5247,28.9746],[3.5181,50.5215,27.5656],[3.5172,50.518,28.8904],[3.4989,50.5011,18.4964],[3.4976,50.4977,18.699],[3.4989,50.4907,18.4282],[3.5023,50.488,16.0322],[3.5215,50.4946,17.0166],[3.5686,50.5001,27.3358],[3.5833,50.491,49.5445],[3.6079,50.4965,49.3446],[3.6161,50.4908,52.5737],[3.6154,50.5025,44.9216],[3.6213,50.514,35.0765],[3.6152,50.5203,37.7791],[3.6158,50.5456,57.8913],[3.6236,50.547,57.487],[3.6344,50.5422,50.8399],[3.6481,50.5393,55.3639],[3.6528,50.5397,56.7839],[3.6613,50.5452,65.7012],[3.6658,50.5513,69.1369],[3.6676,50.5567,64.3276],[3.6714,50.5599,59.8568],[3.6852,50.5683,61.4866],[3.6944,50.5696,64.1926],[3.6992,50.5732,67.7047],[3.7088,50.5835,50.6546],[3.7095,50.589,45.6214],[3.6937,50.6,51.4118],[3.6867,50.6093,40.1859],[3.6801,50.6141,37.6664],[3.6628,50.6388,61.3121],[3.6544,50.6366,48.0481],[3.6424,50.6296,56.3379],[3.6087,50.6287,75.5439],[3.5817,50.6229,72.2887],[3.5568,50.6139,62.8906],[3.5478,50.6308,60.6607],[3.5351,50.6419,56.894],[3.5246,50.6462,41.3335],[3.5186,50.6506,34.3624],[3.5179,50.6568,47.7311],[3.5146,50.6615,42.095],[3.5132,50.6711,43.2728],[3.5001,50.6875,47.5246],[3.4896,50.6967,28.7476],[3.5018,50.7127,34.7161],[3.5097,50.7178,54.5335],[3.5321,50.7193,36.4134],[3.539,50.723,27.1271],[3.5592,50.7533,39.7354],[3.5516,50.7586,66.1979],[3.5456,50.7607,84.1337],[3.5187,50.7586,104.0495],[3.4932,50.7587,152.2042],[3.467,50.7666,13.6883],[3.4558,50.7594,13.4051],[3.4518,50.7511,13.3056],[3.4225,50.7409,11.764099999999999],[3.4077,50.7336,14.8345],[3.388,50.7274,10.0067],[3.3748,50.7195,8.4216],[3.3658,50.712,9.396],[3.3519,50.713,16.9536],[3.3194,50.7266,16.3389],[3.3032,50.7158,17.8316],[3.2823,50.7176,24.2594],[3.2497,50.7083,35.4619],[3.2599,50.6987,20.0904],[3.2591,50.6918,17.0926],[3.2537,50.6911,18.5657],[3.2618,50.676,20.5685],[3.2439,50.6698,24.7438],[3.2421,50.6667,25.9261],[3.2451,50.6514,27.115],[3.2488,50.6464,34.1255],[3.2444,50.6409,44.106],[3.2587,50.6282,27.8911],[3.2561,50.622,28.8515],[3.2695,50.612,31.5073],[3.271,50.6055,38.2404],[3.2783,50.5942,55.6926],[3.2762,50.5817,49.919],[3.2817,50.5763,47.6358],[3.2781,50.5668,58.9853],[3.2845,50.5619,50.7243],[3.276,50.5585,53.6962],[3.2816,50.5528,54.8362],[3.2797,50.5399,44.1763],[3.2865,50.5276,32.3597],[3.3209,50.5173,26.3259],[3.3289,50.5081,25.6827],[3.3603,50.5037,24.8249],[3.3773,50.491,20.9899],[3.3901,50.4968,21.5696],[3.4056,50.4988,19.8679],[3.4356,50.5091,24.1871],[3.4394,50.5072,24.5455],[3.4501,50.5072,15.3748],[3.4524,50.5125,15.5123]]]]}
,"properties": {"GID_3": "BEL.3.2.7_1","GID_0": "BEL","country": "Belgium","GID_1": "BEL.3_1","state": "Wallonie","NL_NAME_1": "NA","GID_2": "BEL.3.2_1","county": "Hainaut","NL_NAME_2": "NA","city": "Tournai","VARNAME_3": "Doornik","NL_NAME_3": "NA","TYPE_3": "Arrondissement","ENGTYPE_3": "Arrondissement","CC_3": "NA","HASC_3": "BE.HT.TR","name": "Tournai.city","area_km2": 594.5294,"hist_schema_id": "Elevation0-9000","hist_area_km2": {"-75": 0.2422,"-50": 0.4172,"-25": 0.7,"0": 12.4166,"25": 286.0086,"50": 249.0194,"75": 42.1649,"100": 2.3652,"125": 0.927,"150": 0.2683}}}