{"type":"Feature","properties":{"GID_3":"BEL.2.4.1_1","GID_0":"BEL","country":"Belgium","GID_1":"BEL.2_1","state":"Vlaanderen","NL_NAME_1":"NA","GID_2":"BEL.2.4_1","county":"VlaamsBrabant","NL_NAME_2":"NA","city":"Halle-Vilvoorde","VARNAME_3":"Hal-Vilvorde","NL_NAME_3":"NA","TYPE_3":"Arrondissement","ENGTYPE_3":"Arrondissement","CC_3":"NA","HASC_3":"BE.VB.HV","name":"Halle-Vilvoorde.city"},
"geometry":{"type": "MultiPolygon","coordinates": [[[[3.924,50.7326,23.1077],[3.884,50.7369,23.04],[3.8805,50.7263,41.0923],[3.8815,50.713,59.8288],[3.9075,50.687,51.3395],[3.9653,50.6829,73.0105],[3.9912,50.6906,50.0778],[4.0262,50.6914,57.0772],[4.0584,50.6972,62.8722],[4.0791,50.7071,61.8176],[4.0919,50.7096,87.2882],[4.1076,50.7099,77.8959],[4.1176,50.7182,69.7927],[4.1258,50.7206,59.8072],[4.1505,50.7196,51.566],[4.1726,50.7061,69.5767],[4.2053,50.7031,50.4635],[4.2349,50.6915,77.2254],[4.2621,50.6941,94.9094],[4.273,50.6981,118.2602],[4.3037,50.6964,130.0003],[4.316,50.7121,112.8186],[4.3276,50.7176,102.8807],[4.331,50.723,104.2133],[4.3315,50.7292,113.5914],[4.3442,50.7241,113.5732],[4.3612,50.7076,110.1702],[4.3697,50.7142,99.8829],[4.3718,50.7245,115.4095],[4.3749,50.7278,117.4484],[4.4087,50.7339,121.2791],[4.4213,50.7339,127.0884],[4.4349,50.7293,87.3494],[4.443,50.7379,140.2199],[4.454,50.7459,113.7131],[4.4608,50.75,114.7569],[4.469,50.7524,114.28],[4.4851,50.7532,100.5558],[4.4848,50.7461,85.8545],[4.4869,50.7397,65.9674],[4.4953,50.7294,69.4848],[4.5018,50.7284,82.0192],[4.5132,50.728,74.7954],[4.5224,50.7295,57.6108],[4.5439,50.7404,88.4866],[4.5715,50.7424,79.2257],[4.5732,50.7487,91.426],[4.578,50.7541,74.0526],[4.5833,50.7568,98.2462],[4.593,50.7585,56.8787],[4.6075,50.7651,56.5573],[4.6115,50.7673,40.4202],[4.6129,50.7701,42.3049],[4.6076,50.7746,47.7967],[4.5972,50.7763,94.01],[4.58,50.7839,59.2197],[4.5754,50.7872,46.1122],[4.5689,50.7959,93.0067],[4.5656,50.7974,95.1625],[4.5035,50.7974,120.9045],[4.4937,50.7929,117.838],[4.4797,50.79,111.6109],[4.4615,50.7897,117.3903],[4.4545,50.7878,125.279],[4.4545,50.7829,125.5747],[4.4326,50.7798,137.0966],[4.4131,50.7725,129.842],[4.4034,50.7744,144.7276],[4.3747,50.7671,117.8457],[4.3721,50.768,114.9862],[4.371,50.7713,106.83],[4.368,50.7724,95.1028],[4.321,50.7761,56.7207],[4.3237,50.7858,33.5724],[4.3226,50.7891,31.6082],[4.3084,50.8007,23.2761],[4.3002,50.8019,22.5443],[4.2989,50.8071,21.7294],[4.2768,50.8092,26.0936],[4.269,50.8125,30.7641],[4.2578,50.8133,44.8674],[4.2536,50.818,46.8945],[4.2443,50.8198,48.6246],[4.2439,50.8224,48.2797],[4.2527,50.8284,29.658],[4.2568,50.8358,62.7756],[4.2699,50.8374,43.1396],[4.2834,50.8415,57.2925],[4.287,50.8555,66.2652],[4.281,50.8602,47.7098],[4.2799,50.8644,39.6625],[4.295,50.8755,31.1934],[4.3043,50.8803,30.5363],[4.2982,50.887,83.7792],[4.2992,50.8888,92.7393],[4.3023,50.8896,77.3029],[4.3044,50.8948,56.7835],[4.3219,50.894,75.3346],[4.342,50.901,77.9535],[4.3587,50.9006,68.9096],[4.3721,50.8981,49.3555],[4.3927,50.9083,56.8159],[4.4055,50.9103,22.8626],[4.4218,50.9097,12.0861],[4.4269,50.9033,16.6601],[4.4286,50.896,25.3594],[4.4317,50.8928,31.561],[4.4285,50.8878,47.461],[4.4358,50.8788,53.4564],[4.4349,50.8769,55.6098],[4.4254,50.8728,57.6457],[4.4231,50.8661,67.4922],[4.4239,50.8612,76.1864],[4.4318,50.8603,76.8373],[4.44,50.8568,54.2388],[4.4531,50.848,70.8739],[4.4576,50.8425,58.4798],[4.4593,50.8379,69.4699],[4.4595,50.8294,84.5803],[4.4557,50.8181,123.2591],[4.482,50.8177,120.1487],[4.4909,50.8211,83.7345],[4.4919,50.8279,101.6743],[4.5116,50.8354,93.8588],[4.5267,50.8359,81.8952],[4.5304,50.8374,81.5963],[4.5316,50.8577,72.7174],[4.534,50.8599,68.8524],[4.5402,50.8604,83.432],[4.5398,50.8633,75.2805],[4.5326,50.8728,65.1922],[4.5308,50.8782,52.8038],[4.524,50.8837,54.8038],[4.5213,50.8914,58.3255],[4.5394,50.9022,40.8196],[4.5422,50.9116,31.0652],[4.5583,50.9148,31.3659],[4.5769,50.9152,23.8093],[4.5858,50.9178,18.5233],[4.592,50.9238,16.8883],[4.5955,50.9312,13.7436],[4.601,50.9337,14.0559],[4.6109,50.9339,15.0288],[4.6183,50.9373,16.6379],[4.6304,50.9475,13.8132],[4.6273,50.9521,19.6708],[4.6167,50.9592,12.661],[4.613,50.964,11.6784],[4.6013,50.9636,14.2951],[4.5757,50.959,12.5692],[4.5568,50.9692,9.4811],[4.5277,50.9698,19.5835],[4.5289,50.9808,10.3285],[4.5328,50.9877,9.5935],[4.5335,51.0085,7.0558],[4.5195,51.0142,5.3067],[4.5007,51.0164,8.1793],[4.4923,51.002,6.4262],[4.4851,50.9989,8.6641],[4.4554,51.0042,8.4343],[4.4187,50.9998,8.5084],[4.3984,51.006,7.079],[4.3867,51.0074,7.3385],[4.3869,51.025,6.7371],[4.3819,51.0289,5.6382],[4.3636,51.0277,4.9192],[4.3217,51.034,6.6168],[4.3071,51.0418,7.5037],[4.2926,51.0453,8.019],[4.2782,51.0458,8.3255],[4.2539,51.0417,10.7377],[4.2439,51.0433,6.1795],[4.2387,51.0245,8.2646],[4.2373,51.0079,14.6156],[4.2328,51.0012,13.4762],[4.2259,50.9949,16.6111],[4.2107,50.9876,26.0665],[4.1884,50.9896,15.2655],[4.1701,50.9953,13.2401],[4.15,50.9743,13.9061],[4.1524,50.9661,23.4564],[4.166,50.9527,42.052],[4.1698,50.943,49.9184],[4.1604,50.9353,71.056],[4.1497,50.9202,55.7247],[4.12,50.933,31.0643],[4.1066,50.9345,23.0682],[4.0993,50.932,34.7059],[4.0977,50.9164,57.6235],[4.0953,50.9116,47.855],[4.0892,50.9064,33.9041],[4.0807,50.9042,24.836],[4.0819,50.8922,10.2546],[4.0902,50.8808,8.4936],[4.0824,50.8733,10.9731],[4.074,50.8591,16.5353],[4.0589,50.8472,10.7048],[4.0545,50.8404,23.0095],[4.0551,50.8363,28.1907],[4.0569,50.8345,17.8832],[4.0765,50.8323,28.0889],[4.0803,50.829,41.9773],[4.0806,50.8127,77.845],[4.0737,50.8038,50.5631],[4.0501,50.7848,42.3953],[4.0456,50.7793,47.8053],[4.0256,50.7741,50.023],[4.0083,50.7745,45.3188],[3.9845,50.771,34.0992],[3.9758,50.7734,42.6587],[3.9684,50.7776,60.8144],[3.9604,50.7783,74.1592],[3.9435,50.7733,98.3303],[3.9355,50.7681,94.145],[3.9297,50.7613,67.937],[3.9284,50.7523,32.5109],[3.9337,50.7449,26.7125],[3.9435,50.7414,28.7912],[3.9485,50.7375,29.0964],[3.924,50.7326,23.1077]]]]}}