{"type": "Feature","bbox": [2.5554,50.6829,5.8961,51.5038],"geometry": {"type": "MultiPolygon","coordinates": [[[[4.1258,50.7206,59.8072],[4.1505,50.7196,51.566],[4.1726,50.7061,69.5767],[4.2053,50.7031,50.4635],[4.2349,50.6915,77.2254],[4.2621,50.6941,94.9094],[4.273,50.6981,118.2602],[4.3037,50.6964,130.0003],[4.316,50.7121,112.8186],[4.3276,50.7176,102.8807],[4.331,50.723,104.2133],[4.3315,50.7292,113.5914],[4.3442,50.7241,113.5732],[4.3612,50.7076,110.1702],[4.3697,50.7142,99.8829],[4.3718,50.7245,115.4095],[4.3749,50.7278,117.4484],[4.4087,50.7339,121.2791],[4.4213,50.7339,127.0884],[4.4349,50.7293,87.3494],[4.443,50.7379,140.2199],[4.454,50.7459,113.7131],[4.4608,50.75,114.7569],[4.469,50.7524,114.28],[4.4851,50.7532,100.5558],[4.4857,50.7418,77.9725],[4.4953,50.7294,69.4848],[4.5075,50.728,72.819],[4.5224,50.7295,57.6108],[4.5439,50.7404,88.4866],[4.5715,50.7424,79.2257],[4.5756,50.7518,85.2263],[4.5804,50.7556,77.7581],[4.5867,50.7575,78.1642],[4.593,50.7585,56.8787],[4.606,50.7514,87.0435],[4.6149,50.7496,91.1835],[4.6463,50.7498,96.319],[4.6494,50.7523,98.3853],[4.6502,50.7555,34.6551],[4.6495,50.76,34.7771],[4.6417,50.776,28.0515],[4.6419,50.7842,32.7185],[4.6444,50.7914,26.0],[4.6827,50.7876,60.9688],[4.709,50.787,86.0477],[4.7314,50.7972,88.0322],[4.7474,50.8018,86.9669],[4.7603,50.8031,90.1561],[4.7678,50.8026,116.4027],[4.794,50.796,102.1151],[4.8048,50.7891,92.8976],[4.8071,50.7822,93.576],[4.8111,50.7783,98.9723],[4.8295,50.7717,83.9793],[4.8356,50.7661,95.5119],[4.8411,50.7638,93.7827],[4.8594,50.7583,94.2697],[4.8617,50.7555,92.6914],[4.8642,50.7469,67.6568],[4.8715,50.7426,65.1227],[4.8801,50.7424,65.2756],[4.9014,50.7471,82.5894],[4.9275,50.7459,80.1929],[4.9557,50.7537,77.3979],[4.9727,50.756,78.5947],[4.9778,50.7588,69.0133],[4.9804,50.7631,57.7514],[4.9934,50.765,48.0678],[5.0037,50.7645,58.2107],[5.0129,50.7593,66.8703],[5.0214,50.75,81.304],[5.0257,50.7476,89.513],[5.0397,50.7447,87.9888],[5.0477,50.7399,96.3309],[5.0537,50.7315,94.213],[5.055,50.7256,96.781],[5.0533,50.7224,103.6083],[5.0645,50.7136,110.9373],[5.0757,50.7088,114.4105],[5.0884,50.7074,117.4737],[5.0992,50.7094,122.2931],[5.1174,50.7178,114.8657],[5.1299,50.7137,117.4191],[5.1425,50.7056,132.5104],[5.1552,50.6921,136.2053],[5.174,50.701,124.285],[5.1777,50.7067,126.8999],[5.18,50.7168,128.7575],[5.1831,50.7192,118.843],[5.2098,50.7222,115.2495],[5.2294,50.7221,122.4945],[5.2471,50.7174,125.2636],[5.2599,50.7169,127.5369],[5.2855,50.724,109.3612],[5.3143,50.7199,103.3588],[5.3239,50.7276,123.6822],[5.3374,50.7334,119.5844],[5.3638,50.7411,124.2965],[5.3949,50.7447,116.9633],[5.4047,50.7452,111.4257],[5.4087,50.7427,117.1887],[5.4102,50.7365,97.7151],[5.4098,50.7223,129.1996],[5.413,50.7182,120.7164],[5.4359,50.7127,135.5901],[5.4539,50.7152,137.2373],[5.4691,50.7238,135.2106],[5.4946,50.7259,127.8909],[5.5005,50.7316,131.6532],[5.5323,50.7397,95.2778],[5.5332,50.7465,93.9164],[5.5382,50.755,82.1642],[5.5523,50.7621,135.7858],[5.5674,50.7624,138.0226],[5.5988,50.7676,119.3815],[5.6305,50.7753,113.7701],[5.6582,50.7909,97.3436],[5.678,50.8046,55.7926],[5.691,50.8092,78.6487],[5.6725,50.8196,56.6431],[5.6605,50.822,108.7224],[5.6525,50.8296,75.1283],[5.6497,50.8369,75.0483],[5.6475,50.852,80.9188],[5.6479,50.8601,64.9497],[5.652,50.8725,61.2828],[5.6702,50.8803,51.5073],[5.682,50.8804,38.2577],[5.6877,50.8821,45.3145],[5.7035,50.9061,41.6655],[5.7072,50.9079,36.5],[5.7235,50.9091,37.4636],[5.7284,50.9154,40.3532],[5.7322,50.9245,41.5276],[5.7573,50.953,35.0893],[5.7572,50.9564,48.4326],[5.7519,50.9594,35.4461],[5.7377,50.9562,36.0015],[5.731,50.9564,31.7297],[5.725,50.96,34.7887],[5.7258,50.964,35.087],[5.7631,50.9924,35.7343],[5.7707,51.0112,32.9203],[5.7673,51.0113,31.2555],[5.7678,51.0139,28.74],[5.7745,51.0252,27.7774],[5.7699,51.0298,32.8056],[5.7636,51.0327,31.3411],[5.7641,51.0375,28.8628],[5.7827,51.0651,30.8198],[5.7963,51.0621,29.3094],[5.8019,51.0639,29.9411],[5.7998,51.0728,27.4673],[5.8061,51.0808,27.9568],[5.8007,51.0891,27.2114],[5.8032,51.0936,28.1689],[5.8113,51.0959,23.7332],[5.8229,51.0946,21.0],[5.8347,51.1004,22.3507],[5.8364,51.1042,22.0082],[5.8331,51.1092,27.2633],[5.8193,51.1121,26.0683],[5.8157,51.1149,23.2186],[5.8171,51.1208,24.4393],[5.825,51.1293,21.0052],[5.8436,51.135,19.9277],[5.8588,51.146,21.4094],[5.8433,51.154,19.3049],[5.8341,51.1685,28.9936],[5.828,51.1687,30.3163],[5.8228,51.1653,31.4673],[5.8217,51.1626,35.2276],[5.7827,51.1599,34.9656],[5.7861,51.1655,35.9247],[5.7806,51.1696,30.6948],[5.7841,51.1746,29.6668],[5.7817,51.1777,30.0391],[5.7827,51.1813,33.4963],[5.7631,51.1876,30.167],[5.7492,51.19,31.6249],[5.7227,51.182,32.7135],[5.7096,51.1813,33.2393],[5.6554,51.1864,32.5194],[5.6516,51.1999,45.8926],[5.5769,51.2169,36.5165],[5.5603,51.2288,35.1029],[5.5515,51.2665,33.5871],[5.5129,51.293,37.4633],[5.4961,51.2977,29.4008],[5.4895,51.2974,29.0236],[5.4807,51.288,29.521],[5.4478,51.2788,29.6432],[5.4416,51.2739,31.0634],[5.433,51.2713,31.2696],[5.4207,51.2611,32.1665],[5.3576,51.2729,40.8883],[5.3341,51.2638,38.2019],[5.2794,51.2646,42.8639],[5.2649,51.2669,40.9104],[5.2405,51.2619,54.282],[5.2302,51.2671,39.378],[5.2284,51.2731,47.6062],[5.2376,51.2879,38.5858],[5.2457,51.3053,47.5187],[5.233,51.3131,47.3623],[5.21,51.3235,44.7398],[5.1813,51.3206,43.6819],[5.1775,51.3186,31.7271],[5.1367,51.3155,25.7428],[5.1224,51.3601,32.0165],[5.0758,51.3951,30.6394],[5.0766,51.4047,29.8586],[5.0975,51.4285,27.1793],[5.0948,51.4489,36.3655],[5.0821,51.4669,25.8367],[5.051,51.4715,29.1039],[5.0372,51.4854,21.6659],[5.0224,51.4757,19.3689],[5.0179,51.4707,21.3936],[5.0149,51.4642,30.1115],[5.017,51.4551,27.8467],[5.0066,51.4391,33.2198],[4.971,51.42,28.1225],[4.945,51.4019,26.9483],[4.9361,51.3975,26.2743],[4.9257,51.3986,22.9401],[4.8847,51.4156,18.1874],[4.8329,51.4093,20.7135],[4.7975,51.4095,16.6044],[4.7826,51.4154,14.9042],[4.7733,51.4289,10.8792],[4.786,51.4319,13.5361],[4.8107,51.4255,12.9823],[4.8349,51.4224,21.7689],[4.8292,51.4396,15.9063],[4.8399,51.4581,18.4875],[4.8386,51.4798,12.0724],[4.8049,51.4971,7.3113],[4.7793,51.5038,4.9479],[4.7521,51.4975,6.2413],[4.7369,51.4866,6.657],[4.7236,51.4702,10.253],[4.7193,51.4675,8.1508],[4.7121,51.4658,7.7052],[4.7075,51.4558,15.5682],[4.6788,51.4445,10.01],[4.6774,51.438,11.2595],[4.6791,51.4254,12.21],[4.6628,51.4273,11.2872],[4.6613,51.4247,12.3103],[4.6406,51.424,12.8627],[4.6326,51.4268,13.3967],[4.6143,51.4277,12.9928],[4.5909,51.431399999999996,12.9036],[4.5372,51.4236,12.7742],[4.5304,51.4471,15.7996],[4.552,51.4721,13.3655],[4.5378,51.4848,31.0711],[4.4933,51.4801,10.5179],[4.4786,51.481,10.1028],[4.4668,51.4765,9.0758],[4.4428,51.4711,10.3121],[4.409,51.4588,11.6778],[4.3954,51.4484,12.6184],[4.3923,51.4172,35.1475],[4.3999,51.4036,34.645],[4.4246,51.386,31.2596],[4.4275,51.3762,35.8365],[4.4227,51.3678,26.0966],[4.3967,51.36,13.1075],[4.3464,51.3607,22.019],[4.3374,51.3813,4.1403],[4.2807,51.3803,0.9561],[4.277,51.3769,3.1103],[4.2212,51.3761,0.0],[4.216,51.3702,0.0],[4.2222,51.3657,0.0],[4.2234,51.3592,0.0],[4.2306,51.3575,0.0],[4.2371,51.3513,0.0],[4.2177,51.3375,2.065],[4.1835,51.3055,1.5441],[4.1044,51.2679,1.5729],[4.057,51.248,8.3892],[3.9997,51.2413,2.9839],[3.9625,51.216,1.062],[3.9242,51.2105,0.5088],[3.9021,51.1989,1.8501],[3.8842,51.2011,2.0788],[3.8763,51.2135,0.3274],[3.808,51.2049,5.5273],[3.7887,51.2152,0.734],[3.7895,51.2411,0.7353],[3.791,51.2462,5.9654],[3.7993,51.2576,0.5356],[3.778,51.2644,1.1439],[3.7708,51.2634,0.6143],[3.7648,51.2651,0.8162],[3.762,51.2702,0.7908],[3.7554,51.2739,1.0432],[3.7349,51.2741,0.9382],[3.7259,51.2726,1.5268],[3.7137,51.2745,1.3615],[3.6939,51.2834,1.082],[3.6669,51.2929,0.9937],[3.6432,51.2916,1.2717],[3.5919,51.3076,1.1592],[3.5834,51.302,1.4819],[3.5792,51.2918,1.2636],[3.5736,51.2925,1.5103],[3.561,51.2984,2.5153],[3.5559,51.2978,1.2313],[3.5524,51.292,1.9517],[3.5435,51.2932,1.4162],[3.5387,51.2904,1.5221],[3.5266,51.2917,1.5709],[3.514,51.2889,1.3346],[3.525,51.2488,0.9076],[3.5057,51.2467,1.327],[3.4562,51.2448,0.9663],[3.4409,51.246,3.9249],[3.4301,51.2502,1.1364],[3.4235,51.2609,0.9889],[3.4062,51.2639,0.8425],[3.3943,51.2746,1.0097],[3.3826,51.2773,1.1682],[3.3843,51.2885,1.5087],[3.3768,51.2919,1.0596],[3.3718,51.316,1.2605],[3.377,51.3247,1.2391],[3.387,51.3306,1.4228],[3.3867,51.3361,1.6802],[3.3826,51.3421,1.3778],[3.372,51.349,0.5144],[3.3728,51.3573,2.6418],[3.3608,51.3676,0.9058],[3.2869,51.3537,3.8245],[3.2747,51.3482,2.3454],[3.2592,51.3457,0.0],[3.2519,51.3424,1.4978],[3.2414,51.3424,0.0],[3.2303,51.3401,3.367],[3.2269,51.3407,5.2011],[3.2264,51.3424,4.4496],[3.2258,51.3468,2.0218],[3.2275,51.3504,5.8924],[3.2242,51.3593,0.0],[3.1975,51.3635,0.0],[3.1981,51.3624,0.0],[3.2231,51.3587,0.7495],[3.2108,51.3551,0.0],[3.2097,51.3521,0.0],[3.2114,51.3504,0.0],[3.2119,51.3543,0.0],[3.2169,51.3551,0.0],[3.2181,51.3532,0.0],[3.2158,51.3518,0.0],[3.2192,51.3515,0.0],[3.2242,51.3468,2.0218],[3.2225,51.3449,1.4116],[3.2186,51.3446,0.5784],[3.2231,51.344,1.4116],[3.2225,51.341,3.6237],[3.2181,51.3398,3.9165],[3.2164,51.3421,0.0],[3.2147,51.3421,0.0],[3.2147,51.3404,0.8113],[3.2119,51.3415,0.0],[3.2142,51.3368,3.2029],[3.2031,51.3418,0.0],[3.2025,51.3401,0.0],[3.2081,51.3368,6.2157],[3.1997,51.339,0.0],[3.1992,51.3351,8.3134],[3.1958,51.3332,0.0],[3.1992,51.3321,3.4318],[3.1947,51.3299,5.5328],[3.1908,51.3307,6.0072],[3.1936,51.3318,3.8264],[3.1936,51.334,3.1655],[3.1958,51.3351,0.0],[3.1947,51.3382,0.0],[3.1958,51.3401,0.0],[3.1919,51.3407,0.6655],[3.1908,51.3376,0.9912],[3.1881,51.3396,1.4506],[3.1964,51.3446,1.986],[3.2014,51.3457,1.1261],[3.2031,51.3479,0.0],[3.1958,51.3493,2.9411],[3.1958,51.3479,4.7097],[3.1925,51.3474,3.8318],[3.1947,51.3499,2.9411],[3.1931,51.3504,9.8525],[3.1892,51.3474,3.8318],[3.1825,51.3462,0.0],[3.1803,51.3438,0.261],[3.1753,51.3446,3.7273],[3.1742,51.3471,7.3908],[3.1842,51.3532,5.5613],[3.1842,51.3551,7.6042],[3.1931,51.3543,0.0],[3.1908,51.356,0.6022],[3.1831,51.3571,0.0],[3.1758,51.3529,1.5986],[3.1775,51.3554,0.0],[3.1753,51.3551,0.0],[3.1819,51.3599,0.0],[3.1881,51.3601,0.0],[3.1825,51.3613,0.0],[3.1736,51.3549,0.7281],[3.1697,51.3543,0.0],[3.1681,51.3518,0.0],[3.1747,51.3382,0.728],[3.1814,51.3329,2.1174],[3.1814,51.3301,4.8472],[3.1214,51.3154,1.8574],[3.1008,51.3093,2.0076],[3.1003,51.3076,5.0547],[3.0769,51.3021,0.0],[3.0686,51.2954,7.8681],[3.0642,51.2946,0.0],[3.0614,51.2918,11.1512],[3.0281,51.2782,2.3969],[3.0236,51.2751,10.3812],[2.9325,51.2388,2.8048],[2.9242,51.2379,0.0],[2.9153,51.2346,4.7952],[2.9036,51.2271,0.0],[2.8958,51.2249,1.8416],[2.7842,51.1751,6.2024],[2.7414,51.1582,6.4534],[2.7258,51.1543,2.6941],[2.6975,51.1415,10.0082],[2.6436,51.126,0.0],[2.5897,51.1035,13.273],[2.5554,51.0919,5.6584],[2.5706,51.0445,-1.5964],[2.58,51.003,-1.0156],[2.5974,50.9925,1.1859],[2.6065,50.9889,3.4822],[2.6297,50.9493,12.1618],[2.6301,50.9458,9.2841],[2.59,50.9191,9.5928],[2.5921,50.9159,7.5663],[2.6067,50.9127,2.2374],[2.6047,50.9064,3.7909],[2.6089,50.8963,3.6453],[2.6073,50.8726,7.8796],[2.6114,50.8636,8.8754],[2.5992,50.8533,11.9396],[2.5991,50.8498,11.842],[2.6146,50.8477,13.5559],[2.617,50.8409,15.0793],[2.6248,50.8361,16.6548],[2.635,50.8128,42.6626],[2.6541,50.8133,39.8887],[2.6702,50.821,35.9065],[2.6821,50.8139,38.9935],[2.7198,50.8121,36.4963],[2.7236,50.8095,39.9],[2.725,50.7957,74.3183],[2.7386,50.7806,118.1354],[2.7543,50.7746,70.451],[2.761,50.7693,57.9753],[2.7595,50.7625,47.7588],[2.782,50.7477,50.8889],[2.7912,50.7275,18.719],[2.8133,50.7169,17.6943],[2.8486,50.7218,17.7665],[2.8702,50.7029,16.6873],[2.8733,50.7113,17.6977],[2.8745,50.7107,17.3743],[2.8721,50.7286,17.1225],[2.869,50.7327,17.7606],[2.8525,50.7422,18.6779],[2.8521,50.7472,33.3368],[2.8548,50.7501,32.9615],[2.867,50.7572,38.1524],[2.8964,50.7527,20.6916],[2.9073,50.7539,19.4608],[2.9209,50.7597,27.4061],[2.9387,50.7721,23.3809],[2.9431,50.7872,29.4374],[2.9538,50.7975,21.3167],[2.9797,50.7997,20.4509],[3.0069,50.8046,20.2753],[3.0132,50.8002,18.1279],[3.0367,50.7716,15.7021],[3.0407,50.7756,12.5636],[3.0587,50.7807,14.9732],[3.0807,50.7729,14.8409],[3.0902,50.7744,12.7427],[3.1027,50.7809,13.1901],[3.1122,50.793,12.0554],[3.1258,50.7878,15.8845],[3.1471,50.7899,16.5551],[3.1616,50.7723,29.8683],[3.1814,50.752,46.8669],[3.204,50.7526,50.5425],[3.217,50.76,52.218],[3.2354,50.7596,41.4355],[3.2671,50.7549,29.016],[3.2887,50.7575,20.1139],[3.2991,50.7568,30.76],[3.3051,50.7522,44.7175],[3.3133,50.7413,29.6566],[3.3194,50.7266,16.3389],[3.3519,50.713,16.9536],[3.3584,50.7119,11.7978],[3.3658,50.712,9.396],[3.3748,50.7195,8.4216],[3.388,50.7274,10.0067],[3.4077,50.7336,14.8345],[3.4225,50.7409,11.764099999999999],[3.4518,50.7511,13.3056],[3.4558,50.7594,13.4051],[3.467,50.7666,13.6883],[3.4932,50.7587,152.2042],[3.5187,50.7586,104.0495],[3.5456,50.7607,84.1337],[3.5516,50.7586,66.1979],[3.5592,50.7533,39.7354],[3.5467,50.7363,18.0682],[3.5784,50.729,19.43],[3.6154,50.7311,32.0035],[3.6476,50.7228,101.9229],[3.6617,50.7339,89.2063],[3.6647,50.7436,79.446],[3.6759,50.7665,119.1426],[3.6899,50.7671,110.6372],[3.7149,50.7653,115.7339],[3.736,50.7675,110.1484],[3.7467,50.7666,127.0302],[3.7653,50.7497,76.898],[3.7809,50.744,51.7182],[3.8007,50.7448,40.1654],[3.828,50.7382,27.5045],[3.8378,50.7398,30.1433],[3.8528,50.7474,19.0761],[3.8691,50.7476,52.7831],[3.8751,50.745,25.7568],[3.884,50.7369,23.04],[3.8805,50.7263,41.0923],[3.8803,50.719,51.229],[3.8815,50.713,59.8288],[3.8839,50.7097,59.3003],[3.9075,50.687,51.3395],[3.9175,50.6859,54.1121],[3.9653,50.6829,73.0105],[3.9912,50.6906,50.0778],[4.0312,50.6922,51.8227],[4.0617,50.698,63.7557],[4.0791,50.7071,61.8176],[4.0872,50.7089,54.9984],[4.1076,50.7099,77.8959],[4.1176,50.7182,69.7927],[4.1258,50.7206,59.8072]],
[[4.2797,50.8633,42.3243],[4.2814,50.8661,40.8503],[4.2917,50.8734,39.851],[4.3043,50.8803,30.5363],[4.2982,50.887,83.7792],[4.2992,50.8888,92.7393],[4.3023,50.8896,77.3029],[4.3044,50.8948,56.7835],[4.3219,50.894,75.3346],[4.342,50.901,77.9535],[4.3587,50.9006,68.9096],[4.3721,50.8981,49.3555],[4.3984,50.91,45.9229],[4.4218,50.9097,12.0861],[4.4283,50.9005,25.0751],[4.4286,50.896,25.3594],[4.4316,50.8933,31.561],[4.4285,50.8878,47.461],[4.4358,50.8788,53.4564],[4.4349,50.8769,55.6098],[4.4254,50.8728,57.6457],[4.4231,50.8661,67.4922],[4.4239,50.8612,76.1864],[4.4318,50.8603,76.8373],[4.4467,50.8528,41.9085],[4.4531,50.848,70.8739],[4.4593,50.8379,69.4699],[4.4595,50.8294,84.5803],[4.4563,50.8193,122.1044],[4.4483,50.8174,118.0119],[4.4437,50.8108,64.2905],[4.4468,50.8066,90.5439],[4.4715,50.7964,117.2612],[4.4719,50.7939,123.663],[4.4545,50.7878,125.279],[4.4545,50.7829,125.5747],[4.4326,50.7798,137.0966],[4.4131,50.7725,129.842],[4.4034,50.7744,144.7276],[4.3765,50.7671,117.8457],[4.3723,50.7677,114.9862],[4.3715,50.7708,106.83],[4.368,50.7724,95.1028],[4.321,50.7761,56.7207],[4.3237,50.7858,33.5724],[4.3226,50.7891,31.6082],[4.3084,50.8007,23.2761],[4.3002,50.8019,22.5443],[4.2989,50.8071,21.7294],[4.2768,50.8092,26.0936],[4.269,50.8125,30.7641],[4.2578,50.8133,44.8674],[4.2536,50.818,46.8945],[4.2438,50.8203,51.4543],[4.2454,50.8243,42.2559],[4.2538,50.8296,31.6397],[4.2568,50.8358,62.7756],[4.2699,50.8374,43.1396],[4.2834,50.8415,57.2925],[4.287,50.8555,66.2652],[4.281,50.8602,47.7098],[4.2797,50.8633,42.3243]]],
[[[3.3686,51.3668,0.9899],[3.3625,51.3682,4.1448],[3.3742,51.3601,1.7718],[3.3732,51.3645,1.8788],[3.3686,51.3668,0.9899]]],
[[[5.7707,50.7373,115.3934],[5.7872,50.7349,154.0656],[5.7948,50.7299,221.2493],[5.8053,50.718,240.5521],[5.8265,50.7164,251.5262],[5.8565,50.7112,216.7065],[5.8871,50.712,281.6675],[5.8876,50.726,232.5411],[5.8848,50.7395,186.0926],[5.8961,50.7596,198.0834],[5.8812,50.7693,222.9394],[5.8559,50.7612,205.5526],[5.8326,50.764,200.6945],[5.8134,50.7601,176.8328],[5.7934,50.7698,163.73],[5.7907,50.7695,168.0404],[5.7832,50.7799,170.1001],[5.7734,50.785,130.4875],[5.7614,50.7795,134.2718],[5.7546,50.7785,131.0968],[5.7324,50.7627,70.4192],[5.7068,50.7628,57.0076],[5.6954,50.7583,52.1722],[5.6924,50.7603,51.2281],[5.6931,50.7554,53.61],[5.6992,50.7464,64.5058],[5.7065,50.7412,101.1079],[5.7204,50.7409,98.4198],[5.7395,50.745,95.9623],[5.7707,50.7373,115.3934]]],
[[[4.9532,51.4445,26.1225],[4.9676,51.4485,25.6379],[4.9631,51.4544,24.8775],[4.9437,51.4504,26.5621],[4.9374,51.4515,25.6962],[4.9309,51.4501,26.7573],[4.9279,51.4477,27.8681],[4.9271,51.4379,27.6306],[4.929,51.4322,29.0182],[4.9452,51.4289,36.8697],[4.9521,51.4312,28.1677],[4.9512,51.44,27.7772],[4.9532,51.4445,26.1225]]]]}
,"properties": {"GID_1": "BEL.2_1","GID_0": "BEL","country": "Belgium","state": "Vlaanderen","VARNAME_1": "Flandres","NL_NAME_1": "NA","TYPE_1": "Gewest","ENGTYPE_1": "Region","CC_1": "NA","HASC_1": "NA","ISO_1": "NA","name": "Vlaanderen.state","area_km2": 13654.18,"hist_schema_id": "Elevation0-9000","hist_area_km2": {"-25": 0.17,"0": 4510.02,"25": 5158.8,"50": 2197.89,"75": 1119.69,"100": 495.46,"125": 117.92,"150": 20.24,"175": 7.2,"200": 7.84,"225": 8.67,"250": 6.09,"275": 4.03,"300": 0.16}}}