{"type": "Feature","bbox": [3.1698,50.8876,3.4532,51.1009],"geometry": {"type": "MultiPolygon","coordinates": [[[[3.305,50.9036,14.0374],[3.3149,50.9028,14.058],[3.3168,50.8993,14.8144],[3.3331,50.8876,11.7351],[3.3394,50.8884,7.0996],[3.3442,50.8925,8.2794],[3.3569,50.8954,10.7181],[3.3811,50.8963,7.0692],[3.3962,50.8994,14.8804],[3.4177,50.9122,7.9676],[3.4318,50.9115,12.3388],[3.4334,50.917,12.942],[3.4318,50.9228,5.5769],[3.4448,50.9304,5.9831],[3.4532,50.9409,5.5076],[3.4393,50.9509,10.8219],[3.4362,50.955,10.9425],[3.4367,50.959,10.9645],[3.4463,50.9689,8.3547],[3.4462,50.9754,7.9153],[3.4409,50.9825,10.7597],[3.4401,50.986,10.799],[3.4409,50.9889,11.038],[3.449,50.997,11.56],[3.4517,51.0048,14.4871],[3.4523,51.0175,10.1122],[3.4451,51.0254,15.3485],[3.435,51.0324,14.4234],[3.4445,51.0432,12.3945],[3.4467,51.0478,9.0977],[3.4465,51.055,13.0821],[3.4422,51.0602,12.4565],[3.379,51.0842,37.7833],[3.3619,51.0925,18.2159],[3.3411,51.0941,22.8591],[3.341,51.1009,18.0201],[3.3347,51.1009,17.9751],[3.3189,51.0981,29.2889],[3.3018,51.0987,24.2966],[3.2877,51.09,29.7043],[3.2535,51.089,14.1933],[3.2398,51.0804,14.5241],[3.2335,51.0661,19.8381],[3.2245,51.06,26.6622],[3.1852,51.0559,18.0838],[3.1698,51.0524,19.4855],[3.1698,51.0363,26.7183],[3.1789,51.022,39.7756],[3.1873,51.0165,42.5886],[3.1858,51.0106,45.8271],[3.1701,50.9989,33.2046],[3.1702,50.992,25.4583],[3.1772,50.9897,26.8622],[3.1791,50.9856,27.6406],[3.1785,50.9762,26.1772],[3.1707,50.9632,24.0628],[3.1719,50.953,19.1433],[3.1751,50.9496,17.8577],[3.1896,50.952,14.868],[3.2175,50.9447,22.7831],[3.2339,50.9443,19.2694],[3.2529,50.957,20.2197],[3.2615,50.9515,18.6495],[3.2643,50.9423,16.2477],[3.2785,50.9362,13.1667],[3.3014,50.9218,13.33],[3.3045,50.9171,16.2482],[3.2987,50.9135,17.3582],[3.298,50.9075,18.6301],[3.2996,50.9027,17.3358],[3.305,50.9036,14.0374]]]]}
,"properties": {"GID_3": "BEL.2.5.7_1","GID_0": "BEL","country": "Belgium","GID_1": "BEL.2_1","state": "Vlaanderen","NL_NAME_1": "NA","GID_2": "BEL.2.5_1","county": "West-Vlaanderen","NL_NAME_2": "NA","city": "Tielt","VARNAME_3": "NA","NL_NAME_3": "NA","TYPE_3": "Arrondissement","ENGTYPE_3": "Arrondissement","CC_3": "NA","HASC_3": "BE.WV.TL","name": "Tielt.city","area_km2": 331.8426,"hist_schema_id": "Elevation0-9000","hist_area_km2": {"0": 47.9132,"25": 262.6677,"50": 21.2617}}}