{"type": "Feature","bbox": [2.8521,50.6933,3.3194,50.8046],"geometry": {"type": "MultiPolygon","coordinates": [[[[3.2284,50.7599,43.3448],[3.217,50.76,52.218],[3.2071,50.7537,44.4551],[3.2005,50.752,56.7984],[3.1814,50.752,46.8669],[3.1843,50.749,43.4511],[3.1882,50.7402,34.9972],[3.1963,50.737,32.2834],[3.199,50.734,31.8892],[3.1922,50.7249,27.2387],[3.2109,50.7128,29.7658],[3.2485,50.7095,38.1609],[3.2497,50.7083,35.4619],[3.2823,50.7176,24.2594],[3.3032,50.7158,17.8316],[3.3194,50.7266,16.3389],[3.3133,50.7413,29.6566],[3.3051,50.7522,44.7175],[3.2991,50.7568,30.76],[3.2887,50.7575,20.1139],[3.2671,50.7549,29.016],[3.2284,50.7599,43.3448]]],
[[[2.934,50.7681,32.4674],[2.9176,50.758,25.2761],[2.9043,50.753,23.8752],[2.8964,50.7527,20.6916],[2.867,50.7572,38.1524],[2.8548,50.7501,32.9615],[2.8521,50.7472,33.3368],[2.8525,50.7422,18.6779],[2.869,50.7327,17.7606],[2.8721,50.7286,17.1225],[2.8745,50.7107,17.3743],[2.8733,50.7113,17.6977],[2.8713,50.7031,16.6873],[2.8843,50.7059,17.6229],[2.9004,50.6933,16.9539],[2.9099,50.6944,17.7455],[2.9122,50.7035,12.5134],[2.9223,50.7028,13.1158],[2.9301,50.7117,14.53],[2.9303,50.7253,11.9734],[2.9436,50.7338,10.4681],[2.9377,50.7426,11.707],[2.9401,50.7454,10.4726],[2.9571,50.7528,13.3708],[2.972,50.7503,13.8197],[2.9833,50.7572,11.6806],[3.0099,50.7681,13.883],[3.0153,50.7736,11.3979],[3.0353,50.7701,16.6449],[3.0367,50.7716,15.7021],[3.0132,50.8002,18.1279],[3.0069,50.8046,20.2753],[2.9797,50.7997,20.4509],[2.9538,50.7975,21.3167],[2.9431,50.7872,29.4374],[2.9405,50.7756,19.6496],[2.934,50.7681,32.4674]]]]}
,"properties": {"GID_3": "BEL.3.2.3_1","GID_0": "BEL","country": "Belgium","GID_1": "BEL.3_1","state": "Wallonie","NL_NAME_1": "NA","GID_2": "BEL.3.2_1","county": "Hainaut","NL_NAME_2": "NA","city": "Moeskroen","VARNAME_3": "Mouscron","NL_NAME_3": "NA","TYPE_3": "Arrondissement","ENGTYPE_3": "Arrondissement","CC_3": "NA","HASC_3": "BE.HT.MC","name": "Moeskroen.city","area_km2": 97.53358,"hist_schema_id": "Elevation0-9000","hist_area_km2": {"0": 2.49618,"25": 82.64026,"50": 11.99467,"75": 0.40246}}}