{"type": "Feature","bbox": [4.9946,50.6921,5.6397,51.143],"geometry": {"type": "MultiPolygon","coordinates": [[[[5.1096,50.763,83.5936],[5.1051,50.7585,90.103],[5.1068,50.7413,101.2062],[5.1132,50.7316,108.4907],[5.1174,50.7178,114.8657],[5.1299,50.7137,117.4191],[5.1425,50.7056,132.5104],[5.1552,50.6921,136.2053],[5.174,50.701,124.285],[5.1777,50.7067,126.8999],[5.18,50.7168,128.7575],[5.1831,50.7192,118.843],[5.2098,50.7222,115.2495],[5.2294,50.7221,122.4945],[5.23,50.7421,100.1233],[5.234,50.7473,101.0012],[5.2584,50.7511,80.5092],[5.2639,50.7541,79.7946],[5.2659,50.7733,94.6603],[5.2777,50.7793,74.1267],[5.2785,50.784,69.8668],[5.2779,50.786,62.7834],[5.2726,50.7883,71.6982],[5.251,50.795,79.6825],[5.2488,50.798,69.8554],[5.2501,50.8178,48.894],[5.2704,50.8312,50.8638],[5.2715,50.8359,53.7751],[5.2699,50.8405,47.3492],[5.2516,50.8555,63.1677],[5.2428,50.8698,74.8447],[5.2424,50.874,60.2546],[5.2465,50.8807,48.5893],[5.2458,50.8944,51.6739],[5.2495,50.8978,47.727],[5.2656,50.901,36.5873],[5.2789,50.9006,33.3833],[5.297,50.8945,35.3535],[5.3007,50.8906,36.8722],[5.3091,50.8876,33.3379],[5.324,50.8858,33.119],[5.335,50.8791,41.9269],[5.3462,50.8748,47.3478],[5.3599,50.878,38.7218],[5.3664,50.8773,37.5133],[5.3782,50.8724,41.7862],[5.4179,50.8718,45.5771],[5.4444,50.875,57.0852],[5.4502,50.8777,51.9209],[5.4515,50.8796,51.4733],[5.4475,50.8885,47.1382],[5.4481,50.8968,41.2277],[5.4581,50.9088,36.5573],[5.4712,50.9171,44.9668],[5.4833,50.9172,43.599],[5.4908,50.9151,51.951],[5.5093,50.9142,51.586],[5.5242,50.9114,57.8939],[5.5275,50.9067,51.598],[5.5339,50.9034,55.6818],[5.5786,50.9024,84.6696],[5.5822,50.901,74.1017],[5.5859,50.8957,95.5692],[5.6033,50.9003,111.8509],[5.6052,50.9051,97.0112],[5.6061,50.9377,109.9781],[5.6025,50.9398,107.3358],[5.6013,50.9467,99.8931],[5.5927,50.9644,101.4975],[5.5876,50.9676,97.0621],[5.5805,50.969,92.5978],[5.5813,50.972,102.0032],[5.5895,50.9782,92.2314],[5.5904,50.9946,93.6786],[5.593,50.9975,89.0226],[5.6385,50.9966,90.4744],[5.6386,51.0057,90.6234],[5.6355,51.0114,106.1201],[5.6389,51.0163,102.9613],[5.6397,51.0247,96.5505],[5.6256,51.0323,84.6434],[5.6091,51.0384,65.2496],[5.5902,51.0256,77.4784],[5.5819,51.0228,79.2873],[5.5631,51.0257,86.6275],[5.527,51.0264,99.8309],[5.5106,51.0301,83.5078],[5.5024,51.0221,83.6351],[5.4925,51.0202,78.3176],[5.4856,51.0143,78.979],[5.4755,51.0107,80.2401],[5.4272,51.0111,76.1305],[5.4114,51.0086,75.9313],[5.3518,51.0101,44.4254],[5.3418,51.0137,51.0655],[5.3419,51.0294,38.2868],[5.3308,51.0377,45.7636],[5.3296,51.0404,49.8365],[5.33,51.0499,71.1468],[5.3338,51.0553,67.5666],[5.3349,51.0623,73.513],[5.3341,51.0676,63.9061],[5.3304,51.0697,65.5402],[5.3307,51.0737,72.4952],[5.3394,51.0887,63.827],[5.3399,51.0971,67.0312],[5.3222,51.0974,64.7768],[5.3072,51.1006,72.5623],[5.2909,51.1105,56.7126],[5.2844,51.1126,56.9235],[5.2827,51.1324,52.7468],[5.2699,51.1408,43.6334],[5.2582,51.143,43.5866],[5.2177,51.1392,35.7959],[5.2091,51.1327,37.885],[5.202,51.1216,42.7381],[5.146,51.1231,27.4406],[5.1316,51.1145,32.7553],[5.1251,51.1069,25.7204],[5.1014,51.0875,21.8914],[5.0775,51.0838,21.8049],[5.0566,51.0775,20.4],[5.033,51.0766,17.6678],[5.026,51.0749,19.8821],[5.0183,51.07,19.9194],[4.9999,51.0504,38.22],[4.9946,51.0414,24.962],[5.0168,51.034,49.0903],[5.0304,51.0258,19.5707],[5.0671,51.0249,21.217],[5.0888,51.0312,22.1696],[5.0907,51.0341,27.96],[5.0911,51.0454,24.5286],[5.0937,51.0503,25.8093],[5.0998,51.0519,27.1676],[5.1224,51.0515,21.9302],[5.136,51.0491,21.8547],[5.1486,51.0415,25.541],[5.1597,51.033,36.9586],[5.1662,51.0245,51.2083],[5.1492,51.016,48.2387],[5.13,51.0088,53.0249],[5.1264,51.0048,32.2397],[5.1251,50.9968,36.1261],[5.1088,50.9933,37.5525],[5.0792,50.9823,17.6357],[5.0771,50.9774,17.5522],[5.0843,50.9661,18.0314],[5.0829,50.959,40.1845],[5.0777,50.954,52.6128],[5.0625,50.9473,51.7319],[5.0521,50.9446,69.3498],[5.0502,50.9388,74.9146],[5.0494,50.9312,47.6852],[5.0548,50.9248,51.3875],[5.0651,50.9191,29.3322],[5.0786,50.9182,32.3475],[5.0887,50.9061,45.7217],[5.112,50.9119,29.6221],[5.1391,50.9118,22.0362],[5.1573,50.9093,27.1196],[5.1897,50.908,49.3875],[5.192,50.9022,48.9466],[5.1925,50.8903,53.9391],[5.1908,50.8858,53.4299],[5.1823,50.8795,36.58],[5.1634,50.8723,27.7295],[5.1587,50.8671,27.7828],[5.1566,50.8557,29.4895],[5.1444,50.8363,35.5681],[5.1392,50.8244,40.3939],[5.1389,50.8174,43.4308],[5.1424,50.8058,62.3881],[5.1402,50.7971,55.6748],[5.1332,50.7919,61.5078],[5.1067,50.7873,65.7526],[5.1147,50.7755,73.2125],[5.1146,50.77,83.1733],[5.1096,50.763,83.5936]]]]}
,"properties": {"GID_3": "BEL.2.2.1_1","GID_0": "BEL","country": "Belgium","GID_1": "BEL.2_1","state": "Vlaanderen","NL_NAME_1": "NA","GID_2": "BEL.2.2_1","county": "Limburg","NL_NAME_2": "NA","city": "Hasselt","VARNAME_3": "NA","NL_NAME_3": "NA","TYPE_3": "Arrondissement","ENGTYPE_3": "Arrondissement","CC_3": "NA","HASC_3": "BE.LI.HS","name": "Hasselt.city","area_km2": 866.6003,"hist_schema_id": "Elevation0-9000","hist_area_km2": {"0": 0.0133,"25": 315.6147,"50": 314.0988,"75": 129.7479,"100": 93.2919,"125": 13.4327,"150": 0.3876,"175": 0.0133}}}