{"type":"Feature","properties":{"GID_3":"BEL.2.3.5_1","GID_0":"BEL","country":"Belgium","GID_1":"BEL.2_1","state":"Vlaanderen","NL_NAME_1":"NA","GID_2":"BEL.2.3_1","county":"Oost-Vlaanderen","NL_NAME_2":"NA","city":"Oudenaarde","VARNAME_3":"Audenarde","NL_NAME_3":"NA","TYPE_3":"Arrondissement","ENGTYPE_3":"Arrondissement","CC_3":"NA","HASC_3":"BE.OV.OD","name":"Oudenaarde.city"},
"geometry":{"type": "MultiPolygon","coordinates": [[[[3.8208,50.7648,31.8514],[3.8228,50.7842,47.6354],[3.8341,50.7788,49.0984],[3.8406,50.7727,49.4195],[3.8496,50.7714,33.0762],[3.8589,50.7722,37.5813],[3.877,50.7779,20.0113],[3.8857,50.7833,18.3337],[3.887,50.794,23.7417],[3.8832,50.8011,37.3936],[3.8816,50.814,26.8041],[3.8788,50.8174,29.3239],[3.8778,50.8221,47.1883],[3.8729,50.8257,41.9821],[3.8673,50.8286,45.1803],[3.8547,50.8294,58.7039],[3.8455,50.8241,50.1778],[3.8271,50.8227,40.1723],[3.7999,50.811,52.0132],[3.7875,50.8194,51.2625],[3.7764,50.8368,60.0919],[3.7706,50.8396,39.2825],[3.7593,50.84,38.6547],[3.7601,50.8537,31.6067],[3.7525,50.8658,42.5334],[3.7516,50.8702,28.8256],[3.7516,50.8904,49.8516],[3.7556,50.8978,59.0772],[3.7559,50.9089,46.4509],[3.7373,50.9056,30.5693],[3.7062,50.9109,39.1206],[3.6776,50.9108,5.4826],[3.6586,50.9083,9.1672],[3.6366,50.9207,7.6141],[3.6308,50.9226,7.4882],[3.6283,50.9284,8.9337],[3.6148,50.9345,7.7421],[3.6007,50.9348,6.8744],[3.5917,50.93,7.5556],[3.5701,50.9301,10.1086],[3.5562,50.9386,10.7866],[3.5494,50.9454,10.2588],[3.545,50.9477,10.534],[3.5364,50.9486,10.8059],[3.5266,50.9481,9.6668],[3.5171,50.9449,10.6407],[3.4954,50.9258,11.9095],[3.4923,50.9195,13.4643],[3.4745,50.9088,11.6064],[3.4785,50.8967,24.3127],[3.4791,50.8871,16.1001],[3.4691,50.8615,44.8817],[3.4958,50.855,37.2119],[3.501,50.8489,42.9592],[3.5094,50.8296,59.6365],[3.512,50.8114,16.5347],[3.5192,50.8105,15.5948],[3.5286,50.8049,9.5553],[3.5179,50.795,14.8948],[3.4941,50.7848,12.135],[3.467,50.7666,13.6883],[3.4932,50.7587,152.2042],[3.5187,50.7586,104.0495],[3.5456,50.7607,84.1337],[3.5516,50.7586,66.1979],[3.5592,50.7533,39.7354],[3.5467,50.7363,18.0682],[3.5784,50.729,19.43],[3.6154,50.7311,32.0035],[3.6476,50.7228,101.9229],[3.6617,50.7339,89.2063],[3.6647,50.7436,79.446],[3.6759,50.7665,119.1426],[3.6899,50.7671,110.6372],[3.7149,50.7653,115.7339],[3.736,50.7675,110.1484],[3.7467,50.7666,127.0302],[3.7677,50.7487,64.4245],[3.7809,50.744,51.7182],[3.7953,50.7453,40.0551],[3.8086,50.7433,44.5456],[3.8168,50.7519,48.3408],[3.8181,50.7613,44.074],[3.8208,50.7648,31.8514]]]]}}