{"type": "Feature","id": "2","bbox": [2.84219,49.93357,4.61598,50.81161],"geometry": {"type": "MultiPolygon","coordinates": [[[[3.704,50.78211,96.9348],[3.67532,50.77193,120.4412],[3.63465,50.72185,99.8518],[3.60664,50.7342,30.5702],[3.54055,50.73493,16.5447],[3.54055,50.73494,16.5447],[3.53399,50.76642,108.2604],[3.53398,50.76642,108.2604],[3.49414,50.75888,138.5951],[3.45761,50.76851,9.8519],[3.41275,50.74741,15.7726],[3.36743,50.7173,10.3246],[3.36345,50.70966,9.4532],[3.35363,50.71164,17.3288],[3.3478,50.71193,15.3466],[3.32315,50.72345,16.218],[3.32315,50.72346,16.218],[3.32459,50.73715,15.1161],[3.32458,50.73716,15.1161],[3.3033,50.75642,37.2914],[3.26082,50.75234,37.9214],[3.21969,50.76727,44.9098],[3.17507,50.75272,45.5757],[3.16282,50.74993,34.0253],[3.17668,50.73411,41.4865],[3.18898,50.7151,32.3167],[3.19694,50.70921,26.4054],[3.211,50.70797,26.3148],[3.22443,50.70517,33.2776],[3.23239,50.69592,26.771],[3.24376,50.6721,24.5698],[3.22981,50.65541,33.3238],[3.23787,50.62647,28.1402],[3.26433,50.5702,44.4069],[3.26588,50.53831,50.9303],[3.27105,50.52694,38.8402],[3.28676,50.51408,43.0346],[3.29988,50.50746,29.6506],[3.3436,50.49294,27.6197],[3.36107,50.48979,24.0774],[3.38535,50.49165,20.6731],[3.42918,50.50183,21.9014],[3.44271,50.50849,22.5089],[3.45264,50.51485,15.856],[3.46287,50.51914,20.6591],[3.47713,50.51986,26.4519],[3.4915,50.51707,28.332],[3.49801,50.51185,23.518],[3.49646,50.50379,17.7926],[3.48674,50.49268,22.6235],[3.49915,50.48679,15.6092],[3.56374,50.48653,36.6819],[3.58637,50.48348,47.5134],[3.60829,50.47651,38.1574],[3.62813,50.46436,14.9126],[3.64436,50.4455,17.6343],[3.65283,50.40685,30.4093],[3.65293,50.36018,53.2219],[3.66172,50.31931,95.9258],[3.69686,50.29822,121.3331],[3.70079,50.30468,117.5452],[3.70223,50.30525,118.2347],[3.70389,50.30432,118.2347],[3.70843,50.30634,117.2453],[3.71112,50.30933,118.3731],[3.71546,50.31765,115.9799],[3.73345,50.33724,74.1337],[3.74151,50.34313,107.5825],[3.75505,50.34633,117.7667],[3.79866,50.34845,132.8014],[3.84021,50.3452,140.1456],[3.86088,50.33848,147.1428],[3.87804,50.33078,149.4118],[3.89592,50.3253,168.3354],[3.91855,50.32546,170.3849],[3.98211,50.34261,129.7407],[4.0033,50.34406,120.0475],[4.02273,50.33812,118.2698],[4.05591,50.31455,136.1944],[4.0772,50.30665,141.2534],[4.09787,50.29481,129.0849],[4.12526,50.25714,195.3515],[4.14365,50.25161,168.0635],[4.15099,50.25626,197.8579],[4.14975,50.26313,145.152],[4.15027,50.26954,141.5787],[4.16277,50.27295,203.3033],[4.17177,50.27089,177.1767],[4.1852,50.26546,148.9131],[4.1976,50.25848,168.2556],[4.2037,50.25197,223.0738],[4.20132,50.24153,184.9799],[4.19151,50.2343,184.5121],[4.16794,50.22247,210.8742],[4.1573,50.2127,191.6256],[4.15275,50.20453,177.9766],[4.14737,50.18634,243.4532],[4.12815,50.14624,212.2536],[4.12577,50.12816,229.5217],[4.13993,50.12356,231.8626],[4.15988,50.1294,228.5355],[4.17063,50.13048,216.1236],[4.18055,50.12723,224.6843],[4.1974,50.08408,196.4771],[4.20339,50.07467,190.1142],[4.21032,50.06671,204.9698],[4.21001,50.06015,225.0778],[4.18603,50.05245,231.6315],[4.16288,50.0418,224.3781],[4.14458,50.0308,242.8248],[4.13735,50.02506,263.9028],[4.13228,50.01757,255.833],[4.12815,50.00579,243.7564],[4.1329,50.00449,250.6118],[4.13838,49.9892,264.2411],[4.13962,49.97452,254.7113],[4.13236,49.97495,248.6428],[4.13166,49.97499,248.6428],[4.18768,49.9555,272.5987],[4.20112,49.95302,276.5195],[4.21595,49.95441,299.2298],[4.21595,49.95441,299.2298],[4.2776,49.96016,296.5385],[4.42765,49.93357,345.6754],[4.42772,49.93367,345.6754],[4.43056,49.93778,338.7061],[4.444,49.95897,353.5173],[4.41475,49.99731,328.9705],[4.40674,50.04932,246.991],[4.39056,50.05297,210.518],[4.38617,50.0693,206.17],[4.38535,50.10934,260.8933],[4.39837,50.12642,224.2715],[4.36008,50.16934,268.949],[4.39656,50.18735,211.4959],[4.38845,50.20169,223.0515],[4.40054,50.23373,206.1053],[4.38622,50.24076,232.6613],[4.36514,50.24373,209.2488],[4.34664,50.23004,230.0155],[4.33894,50.22978,244.6879],[4.30246,50.2436,215.3231],[4.28597,50.25797,203.4575],[4.32571,50.27662,170.3777],[4.35925,50.27807,184.7689],[4.37217,50.29311,194.197],[4.39015,50.29254,148.8974],[4.39832,50.31122,147.3039],[4.45376,50.30623,236.7561],[4.47418,50.32879,234.6212],[4.50198,50.33044,216.272],[4.52027,50.31543,216.9274],[4.58787,50.32248,257.3631],[4.58156,50.36003,229.1125],[4.60585,50.38574,173.8715],[4.58513,50.40121,141.9134],[4.60109,50.40429,199.7855],[4.61598,50.42519,152.7915],[4.57267,50.44178,95.513],[4.58213,50.44788,144.886],[4.57247,50.45493,174.3249],[4.586,50.45646,167.9233],[4.59934,50.47984,142.6629],[4.58699,50.49061,152.4933],[4.59479,50.49986,142.0665],[4.55893,50.49413,142.6238],[4.57675,50.54343,156.9205],[4.51655,50.52717,144.1759],[4.50188,50.53139,156.6162],[4.50306,50.54069,158.8495],[4.47009,50.52973,151.79],[4.47288,50.55441,147.5005],[4.46808,50.55955,138.0117],[4.42297,50.55934,163.93],[4.41253,50.56627,153.2594],[4.35584,50.56239,155.722],[4.33083,50.54456,153.6348],[4.33362,50.57001,161.76],[4.30411,50.56813,131.614],[4.27894,50.59301,117.0429],[4.24649,50.59733,75.9243],[4.25197,50.6182,116.5083],[4.19859,50.62678,134.661],[4.20365,50.64771,113.1405],[4.18432,50.66388,65.5012],[4.17332,50.66109,78.2169],[4.14185,50.63358,102.5196],[4.11864,50.63133,86.8019],[4.10112,50.63603,80.2506],[4.09136,50.65365,66.4607],[4.09022,50.6906,63.8325],[4.0942,50.70347,71.6807],[4.11244,50.70688,65.7613],[4.09975,50.70714,83.6987],[4.09974,50.70712,83.6987],[4.07271,50.71291,44.8314],[4.0585,50.69601,60.1272],[4.05147,50.70283,57.1601],[4.02801,50.69503,46.0951],[4.009,50.69898,52.6331],[3.98884,50.68873,49.494],[3.92823,50.68981,59.9583],[3.90693,50.69467,45.6391],[3.89278,50.7064,54.133],[3.89277,50.70641,54.133],[3.88797,50.71756,49.2151],[3.895,50.73415,28.1068],[3.89499,50.73416,28.1068],[3.8844,50.75138,35.3317],[3.8844,50.75138,35.3317],[3.82802,50.7435,33.6791],[3.81469,50.7519,51.2847],[3.77464,50.74896,56.3557],[3.77463,50.74897,56.3557],[3.7578,50.78032,58.5351],[3.75779,50.78032,58.5351],[3.71454,50.76864,128.9085],[3.704,50.78211,96.9348]]],
[[[2.97143,50.75783,16.644],[3.02382,50.76826,13.7473],[3.02296,50.77162,12.2767],[3.01443,50.80513,20.4598],[3.01442,50.80513,20.4598],[2.99882,50.81161,19.2643],[2.94064,50.79668,26.6412],[2.93971,50.79224,33.5933],[2.93971,50.79223,33.5933],[2.96021,50.7768,17.6421],[2.96022,50.77678,17.6421],[2.92245,50.76696,37.8362],[2.91811,50.75771,25.2761],[2.88963,50.75415,20.8955],[2.87542,50.76247,37.8614],[2.86881,50.76123,46.1297],[2.84219,50.75084,37.5191],[2.8625,50.70955,17.2544],[2.86673,50.70009,16.4333],[2.87128,50.69877,13.5],[2.88688,50.69665,17.415],[2.90011,50.70311,16.7834],[2.93019,50.73623,17.4022],[2.94838,50.74869,12.0334],[2.97143,50.75783,16.644]]]]}
,"properties": {"ISO3166-1-Alpha-3": "BEL","country": "Belgium","fill": "#F0F","name": "Hainaut","area_km2": 3967.137,"hist_schema_id": "Elevation0-9000","hist_area_km2": {"-75": 0.336,"-50": 0.699,"-25": 1.009,"0": 19.329,"25": 678.293,"50": 775.858,"75": 488.511,"100": 374.525,"125": 332.951,"150": 366.188,"175": 230.794,"200": 156.074,"225": 166.847,"250": 174.944,"275": 88.897,"300": 55.814,"325": 38.856,"350": 15.917,"375": 1.296}}}