{"type":"Feature","properties":{"GID_2":"BEL.3.2_1","GID_0":"BEL","country":"Belgium","GID_1":"BEL.3_1","state":"Wallonie","NL_NAME_1":"NA","county":"Hainaut","VARNAME_2":"Henegouwen|Hennegau","NL_NAME_2":"NA","TYPE_2":"Province","ENGTYPE_2":"Provincie","CC_2":"NA","HASC_2":"BE.HT","name":"Hainaut.county"},
"geometry":{"type": "MultiPolygon","coordinates": [[[[4.4099,50.0531,244.5068],[4.4013,50.0697,223.3765],[4.4005,50.0757,197.9295],[4.4006,50.0957,281.1444],[4.3987,50.104,262.7501],[4.4037,50.1123,230.2892],[4.4052,50.119,225.4202],[4.3915,50.1436,301.3512],[4.3777,50.1524,276.7617],[4.3754,50.1591,266.9633],[4.3787,50.1654,234.21],[4.3989,50.1761,246.0739],[4.4049,50.1818,252.8648],[4.4063,50.2109,258.6809],[4.41,50.2223,185.8974],[4.4107,50.233,206.8646],[4.384,50.2433,223.7818],[4.3755,50.2444,220.1947],[4.3665,50.2417,216.1087],[4.3609,50.2346,242.3133],[4.3549,50.2306,233.3579],[4.3487,50.2292,234.7567],[4.3417,50.2297,244.6879],[4.311,50.2409,238.8655],[4.3052,50.2454,222.2983],[4.3042,50.2516,193.8399],[4.3091,50.2574,178.4161],[4.336,50.2692,181.6638],[4.3624,50.2737,176.7253],[4.3767,50.2826,164.5951],[4.4022,50.2905,171.0281],[4.4059,50.2939,189.7891],[4.4116,50.3044,206.3883],[4.4162,50.3069,180.3183],[4.4265,50.3072,197.4188],[4.4601,50.3019,224.6974],[4.47,50.3031,233.9456],[4.4752,50.3073,237.8635],[4.4856,50.3257,218.2746],[4.5048,50.3251,215.6176],[4.5148,50.3214,201.5261],[4.5247,50.311,231.6361],[4.5358,50.3102,229.4227],[4.5751,50.317,258.4373],[4.5953,50.318,224.6551],[4.6008,50.3293,206.2397],[4.6005,50.3353,214.8867],[4.5972,50.3445,220.77],[4.5967,50.3532,235.8303],[4.5979,50.3618,223.0702],[4.6044,50.3738,171.7646],[4.6054,50.3784,161.1895],[4.6033,50.3913,191.7301],[4.6183,50.4147,128.6745],[4.6198,50.4218,120.6159],[4.6189,50.4265,113.9976],[4.6137,50.4308,93.7851],[4.5844,50.4345,93.7092],[4.5881,50.441,119.0376],[4.588,50.4475,136.64],[4.591,50.4579,175.8119],[4.6015,50.475,151.5661],[4.6029,50.4828,140.9538],[4.6015,50.4852,154.0945],[4.5918,50.4915,153.4984],[4.5844,50.4915,152.4933],[4.5779,50.4879,159.9259],[4.5699,50.4869,153.2978],[4.5633,50.4878,147.6027],[4.5597,50.4913,143.6265],[4.5594,50.5018,141.7605],[4.5611,50.5101,133.1126],[4.5667,50.5199,151.7933],[4.5827,50.5367,146.9552],[4.5586,50.5356,148.7042],[4.5227,50.5268,147.0619],[4.512,50.5259,146.0772],[4.5031,50.5344,151.5397],[4.4993,50.5358,157.5711],[4.4934,50.5355,152.7387],[4.483,50.5321,147.9678],[4.4759,50.533,153.4283],[4.4666,50.5482,145.8154],[4.4417,50.5586,155.6693],[4.4219,50.5609,163.7052],[4.3765,50.5582,151.5728],[4.357,50.5543,150.5019],[4.3449,50.5541,158.7801],[4.3365,50.5617,149.2784],[4.312,50.5703,139.7646],[4.286,50.588,102.3734],[4.2602,50.5938,91.9259],[4.2582,50.5965,95.6224],[4.2578,50.6018,103.4733],[4.2606,50.6145,138.7243],[4.232,50.6175,82.7737],[4.2125,50.6237,95.4278],[4.21,50.6301,111.3842],[4.2139,50.6426,113.6786],[4.2135,50.6469,109.9429],[4.2014,50.6594,102.3492],[4.1812,50.6578,62.0046],[4.1604,50.6437,83.9048],[4.1526,50.6302,104.8316],[4.1459,50.6267,107.2656],[4.1274,50.6252,85.9986],[4.1104,50.63,91.4107],[4.1064,50.6332,98.0981],[4.0909,50.6533,66.4607],[4.0889,50.665,70.6153],[4.0963,50.6745,75.7538],[4.0936,50.6862,61.2487],[4.0942,50.6938,64.3732],[4.1076,50.7099,77.8959],[4.0919,50.7096,87.2882],[4.0791,50.7071,61.8176],[4.0584,50.6972,62.8722],[4.0262,50.6914,57.0772],[3.9912,50.6906,50.0778],[3.9653,50.6829,73.0105],[3.9075,50.687,51.3395],[3.8815,50.713,59.8288],[3.8805,50.7263,41.0923],[3.884,50.7369,23.04],[3.8723,50.7465,43.4359],[3.864,50.7484,49.5799],[3.8557,50.7481,15.642],[3.8312,50.7382,26.2869],[3.8007,50.7448,40.1654],[3.7809,50.744,51.7182],[3.7653,50.7497,76.898],[3.7492,50.7655,127.0302],[3.7416,50.7674,124.2673],[3.7149,50.7653,115.7339],[3.6899,50.7671,110.6372],[3.6759,50.7665,119.1426],[3.6647,50.7436,79.446],[3.6617,50.7339,89.2063],[3.6476,50.7228,101.9229],[3.6154,50.7311,32.0035],[3.5784,50.729,19.43],[3.5467,50.7363,18.0682],[3.5592,50.7533,39.7354],[3.5516,50.7586,66.1979],[3.5456,50.7607,84.1337],[3.5187,50.7586,104.0495],[3.4932,50.7587,152.2042],[3.467,50.7666,13.6883],[3.4558,50.7594,13.4051],[3.4518,50.7511,13.3056],[3.4225,50.7409,11.764099999999999],[3.4077,50.7336,14.8345],[3.388,50.7274,10.0067],[3.3748,50.7195,8.4216],[3.3658,50.712,9.396],[3.3519,50.713,16.9536],[3.3194,50.7266,16.3389],[3.3133,50.7413,29.6566],[3.3051,50.7522,44.7175],[3.2991,50.7568,30.76],[3.2887,50.7575,20.1139],[3.2671,50.7549,29.016],[3.2354,50.7596,41.4355],[3.217,50.76,52.218],[3.204,50.7526,50.5425],[3.1814,50.752,46.8669],[3.1843,50.749,43.4511],[3.1882,50.7402,34.9972],[3.1963,50.737,32.2834],[3.199,50.734,31.8892],[3.1922,50.7249,27.2387],[3.2109,50.7128,29.7658],[3.2485,50.7095,38.1609],[3.2599,50.6987,20.0904],[3.2591,50.6918,17.0926],[3.2537,50.6911,18.5657],[3.2618,50.676,20.5685],[3.2439,50.6698,24.7438],[3.2421,50.6667,25.9261],[3.2451,50.6514,27.115],[3.2488,50.6464,34.1255],[3.2444,50.6409,44.106],[3.2587,50.6282,27.8911],[3.2561,50.622,28.8515],[3.2695,50.612,31.5073],[3.271,50.6055,38.2404],[3.2783,50.5942,55.6926],[3.2762,50.5817,49.919],[3.2817,50.5763,47.6358],[3.2781,50.5668,58.9853],[3.2845,50.5619,50.7243],[3.276,50.5585,53.6962],[3.2816,50.5528,54.8362],[3.2797,50.5399,44.1763],[3.2865,50.5276,32.3597],[3.3209,50.5173,26.3259],[3.3289,50.5081,25.6827],[3.3603,50.5037,24.8249],[3.3773,50.491,20.9899],[3.3901,50.4968,21.5696],[3.4056,50.4988,19.8679],[3.4356,50.5091,24.1871],[3.4394,50.5072,24.5455],[3.4501,50.5072,15.3748],[3.4561,50.5208,16.5026],[3.47,50.5315,29.3364],[3.4749,50.5332,40.2598],[3.5064,50.5283,45.9224],[3.5158,50.5247,28.9746],[3.5181,50.5215,27.5656],[3.5172,50.518,28.8904],[3.4989,50.5011,18.4964],[3.4976,50.4977,18.699],[3.4989,50.4907,18.4282],[3.5023,50.488,16.0322],[3.5215,50.4946,17.0166],[3.5686,50.5001,27.3358],[3.5833,50.491,49.5445],[3.6079,50.4965,49.3446],[3.6294,50.4814,22.1037],[3.6436,50.4632,14.7495],[3.6539,50.4626,17.5603],[3.661,50.4576,22.0689],[3.6604,50.4445,17.8209],[3.6688,50.4365,17.2016],[3.6734,50.4096,25.2578],[3.673,50.3891,38.7661],[3.6578,50.3706,40.1034],[3.6665,50.3623,66.3992],[3.6652,50.349,84.601],[3.6758,50.3415,84.114],[3.6737,50.3349,89.4579],[3.6849,50.3276,97.6364],[3.6908,50.3182,110.1371],[3.7104,50.3032,117.3156],[3.7168,50.3079,123.1149],[3.7144,50.3168,113.5299],[3.7266,50.3108,129.2016],[3.7317,50.3119,121.9336],[3.7298,50.3269,116.7312],[3.7345,50.3323,91.9135],[3.7351,50.3393,92.7278],[3.7428,50.3481,110.2977],[3.7636,50.3481,120.9946],[3.7655,50.3512,114.7044],[3.781,50.3533,119.6159],[3.7966,50.3514,125.3198],[3.8057,50.3546,129.5221],[3.8142,50.3513,133.5436],[3.8117,50.3449,138.4082],[3.8218,50.3459,144.4577],[3.825,50.3521,134.8558],[3.8401,50.3539,142.2258],[3.8576,50.3479,142.6898],[3.8707,50.3387,146.3346],[3.8858,50.3395,146.4478],[3.8889,50.3333,151.0125],[3.8861,50.3271,153.2586],[3.9009,50.3275,153.0533],[3.9198,50.3322,145.6775],[3.9618,50.3481,127.9138],[3.9671,50.3475,124.5542],[3.9674,50.3406,136.8548],[3.9721,50.3465,128.4691],[3.9869,50.3425,125.4094],[3.9932,50.3477,126.3582],[4.0137,50.3513,117.6004],[4.0252,50.3579,96.944],[4.0376,50.3429,131.9761],[4.0522,50.3387,139.2015],[4.0771,50.3205,129.6174],[4.0792,50.3097,140.866],[4.0993,50.3121,149.5099],[4.1084,50.3039,138.3184],[4.1184,50.3023,125.0089],[4.1251,50.2895,160.67],[4.124,50.2728,196.7854],[4.1338,50.274,189.843],[4.1384,50.2616,195.231],[4.135,50.2591,185.6456],[4.1637,50.2573,199.4855],[4.1668,50.2671,185.1234],[4.1521,50.277,157.2552],[4.1604,50.2859,123.858],[4.17,50.2856,163.0486],[4.1796,50.2768,190.957],[4.1845,50.2752,180.2316],[4.206,50.2725,156.9631],[4.2208,50.2543,212.4096],[4.2046,50.2406,184.9799],[4.1991,50.2405,191.0354],[4.1834,50.2321,187.8262],[4.1659,50.2151,213.4968],[4.1509,50.2134,174.005],[4.1605,50.1982,198.5065],[4.1562,50.1928,192.2935],[4.1566,50.1861,232.6197],[4.15,50.1766,224.2756],[4.1551,50.1671,235.6712],[4.1532,50.1604,244.8603],[4.1406,50.1537,231.8432],[4.1269,50.1349,201.8114],[4.1461,50.129,225.7326],[4.1631,50.1351,238.1415],[4.1952,50.1346,254.5394],[4.2034,50.1153,253.069],[4.1977,50.1094,210.3812],[4.2046,50.1045,219.4951],[4.2054,50.098,185.6782],[4.2275,50.0797,230.6951],[4.2301,50.0698,208.1386],[4.2243,50.0644,230.7048],[4.201,50.0569,206.5429],[4.1906,50.0494,230.9502],[4.1711,50.047,212.2032],[4.1608,50.0475,206.7163],[4.1373,50.0218,262.5289],[4.1354,50.0152,238.7917],[4.1472,50.004,240.6641],[4.161,49.9998,264.0563],[4.1624,49.9966,267.703],[4.1563,49.9872,249.0317],[4.141,49.9788,222.3545],[4.1541,49.9751,238.3083],[4.1739,49.976,237.2541],[4.1954,49.9674,278.0077],[4.1974,49.9545,247.9582],[4.2331,49.9578,267.1489],[4.2582,49.964,275.7705],[4.2905,49.9642,282.8343],[4.3106,49.9686,298.3957],[4.3193,49.9644,305.0765],[4.3352,49.9627,332.8809],[4.3494,49.9522,319.0283],[4.3808,49.9537,317.3796],[4.3885,49.9489,309.3497],[4.4192,49.9464,317.8789],[4.4458,49.9372,323.2583],[4.4509,49.9386,332.1631],[4.4498,49.961,360.6711],[4.4447,49.9671,354.9995],[4.4317,49.9744,352.7427],[4.4262,49.982,336.4959],[4.4254,50.0085,268.6365],[4.4222,50.0188,322.213],[4.4211,50.0328,260.2136],[4.4164,50.0448,248.577],[4.4099,50.0531,244.5068]]],
[[[2.9457,50.7909,27.1702],[2.9417,50.7838,32.1482],[2.9387,50.7721,23.3809],[2.9176,50.758,25.2761],[2.9012,50.7526,21.3441],[2.867,50.7572,38.1524],[2.8585,50.7527,27.6209],[2.8521,50.7472,33.3368],[2.8517,50.7442,19.3304],[2.8542,50.7404,18.1314],[2.8653,50.7351,17.585],[2.8721,50.7286,17.1225],[2.8745,50.7107,17.3743],[2.8733,50.7113,17.6977],[2.8713,50.7031,16.6873],[2.8843,50.7059,17.6229],[2.9004,50.6933,16.9539],[2.9099,50.6944,17.7455],[2.9122,50.7035,12.5134],[2.9223,50.7028,13.1158],[2.9301,50.7117,14.53],[2.9303,50.7253,11.9734],[2.9436,50.7338,10.4681],[2.9377,50.7426,11.707],[2.9401,50.7454,10.4726],[2.9571,50.7528,13.3708],[2.972,50.7503,13.8197],[2.9833,50.7572,11.6806],[3.0099,50.7681,13.883],[3.0153,50.7736,11.3979],[3.0353,50.7701,16.6449],[3.0367,50.7716,15.7021],[3.0132,50.8002,18.1279],[3.0069,50.8046,20.2753],[2.9797,50.7997,20.4509],[2.9538,50.7975,21.3167],[2.9457,50.7909,27.1702]]]]}}