{"type": "Feature","bbox": [4.3038,49.9386,4.8027,50.3261],"geometry": {"type": "MultiPolygon","coordinates": [[[[4.4498,49.961,360.6711],[4.4509,49.9386,332.1631],[4.4798,49.9471,339.6704],[4.5113,49.9468,353.6516],[4.5242,49.9513,322.4811],[4.5408,49.9682,295.6771],[4.5615,49.9698,310.5062],[4.5702,49.9736,315.284],[4.576,49.9811,356.6417],[4.596,49.986,287.0939],[4.6332,49.9875,247.5712],[4.668,49.9963,197.8829],[4.6946,49.9965,166.2699],[4.6861,50.0049,340.6713],[4.6885,50.0114,377.9953],[4.6866,50.0278,273.5967],[4.6964,50.0431,238.4021],[4.697,50.0593,206.4916],[4.6868,50.0577,262.6832],[4.6819,50.0676,309.6806],[4.7028,50.0957,211.5087],[4.7134,50.097,209.9759],[4.7152,50.1,221.525],[4.7513,50.1117,201.6531],[4.751,50.1213,226.2127],[4.756,50.1216,228.7812],[4.7652,50.1374,189.2553],[4.787,50.145,142.8718],[4.7794,50.1477,145.6115],[4.7693,50.1544,193.2984],[4.769,50.1606,205.1943],[4.782,50.1689,209.7294],[4.793,50.1707,189.0428],[4.8027,50.1773,228.0518],[4.8024,50.1822,223.7749],[4.7956,50.1878,254.2278],[4.7933,50.1937,239.3707],[4.787,50.1979,240.6462],[4.786,50.2111,235.098],[4.7822,50.2192,243.462],[4.7724,50.2196,233.7135],[4.763,50.2226,292.5469],[4.7574,50.2316,273.755],[4.7568,50.2454,246.7652],[4.7652,50.2569,274.2764],[4.7661,50.2647,260.8004],[4.7649,50.2699,269.8184],[4.7576,50.2729,288.0514],[4.7475,50.2687,273.0265],[4.7086,50.2686,262.9375],[4.6904,50.2614,304.9858],[4.6743,50.2582,280.2317],[4.6612,50.2585,292.065],[4.655,50.2619,303.2305],[4.6522,50.2661,294.9832],[4.6442,50.2713,276.8047],[4.6183,50.2725,270.2106],[4.6082,50.276,269.9795],[4.6058,50.2818,274.6983],[4.5988,50.2907,260.5215],[4.598,50.3024,263.2684],[4.5944,50.3086,266.8948],[4.5953,50.318,224.6551],[4.5751,50.317,258.4373],[4.5406,50.3103,227.165],[4.5247,50.311,231.6361],[4.5148,50.3214,201.5261],[4.5048,50.3251,215.6176],[4.4931,50.3261,218.1367],[4.4856,50.3257,218.2746],[4.4752,50.3073,237.8635],[4.47,50.3031,233.9456],[4.4601,50.3019,224.6974],[4.4265,50.3072,197.4188],[4.4162,50.3069,180.3183],[4.4116,50.3044,206.3883],[4.4059,50.2939,189.7891],[4.4022,50.2905,171.0281],[4.3767,50.2826,164.5951],[4.3624,50.2737,176.7253],[4.336,50.2692,181.6638],[4.3068,50.2554,193.4202],[4.3038,50.2496,197.1242],[4.3073,50.2435,219.1219],[4.3184,50.2372,239.11],[4.3417,50.2297,244.6879],[4.3487,50.2292,234.7567],[4.3549,50.2306,233.3579],[4.3609,50.2346,242.3133],[4.3665,50.2417,216.1087],[4.3755,50.2444,220.1947],[4.384,50.2433,223.7818],[4.4107,50.233,206.8646],[4.41,50.2223,185.8974],[4.4063,50.2109,258.6809],[4.4049,50.1818,252.8648],[4.3989,50.1761,246.0739],[4.3787,50.1654,234.21],[4.3763,50.1625,242.9632],[4.3758,50.1556,281.3801],[4.381,50.1497,290.9066],[4.3915,50.1436,301.3512],[4.4052,50.119,225.4202],[4.4037,50.1123,230.2892],[4.3987,50.104,262.7501],[4.4006,50.0957,281.1444],[4.4013,50.0697,223.3765],[4.4099,50.0531,244.5068],[4.4164,50.0448,248.577],[4.4211,50.0328,260.2136],[4.4222,50.0188,322.213],[4.4254,50.0085,268.6365],[4.4262,49.982,336.4959],[4.4317,49.9744,352.7427],[4.4447,49.9671,354.9995],[4.4498,49.961,360.6711]]]]}
,"properties": {"GID_3": "BEL.3.5.3_1","GID_0": "BEL","country": "Belgium","GID_1": "BEL.3_1","state": "Wallonie","NL_NAME_1": "NA","GID_2": "BEL.3.5_1","county": "Namur","NL_NAME_2": "NA","city": "Philippeville","VARNAME_3": "NA","NL_NAME_3": "NA","TYPE_3": "Arrondissement","ENGTYPE_3": "Arrondissement","CC_3": "NA","HASC_3": "BE.NA.PV","name": "Philippeville.city","area_km2": 872.0836,"hist_schema_id": "Elevation0-9000","hist_area_km2": {"125": 2.6116,"150": 24.8644,"175": 97.9595,"200": 121.1893,"225": 146.1803,"250": 157.253,"275": 133.3883,"300": 68.3658,"325": 45.8543,"350": 42.6314,"375": 28.2968,"400": 3.4889}}}