{"type":"Feature","properties":{"GID_3":"BEL.2.3.2_1","GID_0":"BEL","country":"Belgium","GID_1":"BEL.2_1","state":"Vlaanderen","NL_NAME_1":"NA","GID_2":"BEL.2.3_1","county":"Oost-Vlaanderen","NL_NAME_2":"NA","city":"Dendermonde","VARNAME_3":"Termonde","NL_NAME_3":"NA","TYPE_3":"Arrondissement","ENGTYPE_3":"Arrondissement","CC_3":"NA","HASC_3":"BE.OV.DM","name":"Dendermonde.city"},
"geometry":{"type": "MultiPolygon","coordinates": [[[[3.9051,50.9787,26.2736],[3.9477,50.9796,14.8676],[3.9681,50.9874,7.601],[4.0046,50.9879,8.0432],[4.0336,50.9955,5.9293],[4.051,50.996,4.7046],[4.0597,50.9948,2.7721],[4.0668,50.9884,2.8624],[4.0749,50.9861,3.5498],[4.0761,50.9825,3.3294],[4.0894,50.9744,7.9039],[4.1113,50.9739,12.4765],[4.1309,50.9767,13.4198],[4.15,50.9743,13.9061],[4.1701,50.9953,13.2401],[4.1884,50.9896,15.2655],[4.2107,50.9876,26.0665],[4.2259,50.9949,16.6111],[4.2328,51.0012,13.4762],[4.2373,51.0079,14.6156],[4.2387,51.0245,8.2646],[4.2439,51.0433,6.1795],[4.2189,51.0383,4.7853],[4.1923,51.0384,0.4933],[4.1944,51.0493,1.881],[4.1942,51.0614,5.9705],[4.1878,51.0771,2.4808],[4.1783,51.0861,0.0],[4.1731,51.095,0.0],[4.1739,51.1008,3.2799],[4.1789,51.1067,0.1585],[4.1695,51.1123,12.8229],[4.1599,51.1154,13.3218],[4.1382,51.1165,13.0727],[4.1325,51.1193,22.011],[4.1234,51.1255,29.6929],[4.1224,51.1381,33.7947],[4.1162,51.143,23.6884],[4.1029,51.1429,22.4625],[4.0915,51.1362,17.241],[4.0843,51.1352,17.0986],[4.08,51.1359,17.1114],[4.0637,51.1457,10.3989],[4.0509,51.146,5.5528],[4.0329,51.1385,4.5341],[4.0213,51.1372,6.2379],[4.022,51.1031,3.8594],[4.0287,51.0943,4.6849],[4.0251,51.0896,8.2959],[4.0162,51.0841,5.1395],[3.9868,51.0803,3.3007],[3.9825,51.0779,3.0627],[3.9617,51.0777,3.5754],[3.9483,51.0751,4.2243],[3.9276,51.0756,3.984],[3.9175,51.0713,6.064],[3.9102,51.0648,3.9408],[3.8928,51.0593,4.3499],[3.8731,51.0585,4.5529],[3.8625,51.0561,7.699],[3.8425,51.056,4.7308],[3.8392,51.0545,5.4522],[3.838,51.0511,4.9802],[3.8385,51.0069,4.8939],[3.8376,51.0033,3.3132],[3.8339,51.0013,4.0969],[3.8346,50.9744,26.6587],[3.8407,50.9718,25.867],[3.8502,50.9705,19.4517],[3.8548,50.9678,18.2926],[3.8561,50.9614,25.8278],[3.8537,50.9554,31.1262],[3.868,50.9548,18.4215],[3.8769,50.9583,18.5934],[3.8838,50.9654,19.8388],[3.9051,50.9787,26.2736]]]]}}