{"type":"Feature","properties":{"GID_3":"BEL.2.1.2_1","GID_0":"BEL","country":"Belgium","GID_1":"BEL.2_1","state":"Vlaanderen","NL_NAME_1":"NA","GID_2":"BEL.2.1_1","county":"Antwerpen","NL_NAME_2":"NA","city":"Mechelen","VARNAME_3":"Malines","NL_NAME_3":"NA","TYPE_3":"Arrondissement","ENGTYPE_3":"Arrondissement","CC_3":"NA","HASC_3":"BE.AN.MH","name":"Mechelen.city"},
"geometry":{"type": "MultiPolygon","coordinates": [[[[4.4452,51.0788,7.2834],[4.427,51.08,5.0506],[4.4095,51.0852,8.0499],[4.3638,51.0857,13.0038],[4.3596,51.0865,5.056],[4.3572,51.0904,5.2771],[4.3432,51.098,10.5407],[4.3266,51.099,3.0833],[4.314,51.1118,6.0128],[4.3179,51.1276,0.0],[4.2939,51.1277,3.8462],[4.2614,51.1225,5.2862],[4.2306,51.1254,4.52],[4.2128,51.1249,11.5166],[4.2044,51.1218,6.8243],[4.1789,51.1067,0.1585],[4.1752,51.1029,3.1376],[4.1731,51.0974,0.0],[4.1748,51.0905,3.6861],[4.1878,51.0771,2.4808],[4.1942,51.0614,5.9705],[4.1944,51.0493,1.881],[4.1923,51.0384,0.4933],[4.2189,51.0383,4.7853],[4.2439,51.0433,6.1795],[4.2539,51.0417,10.7377],[4.2782,51.0458,8.3255],[4.2926,51.0453,8.019],[4.3071,51.0418,7.5037],[4.3217,51.034,6.6168],[4.3636,51.0277,4.9192],[4.3751,51.0294,5.9049],[4.3834,51.0285,5.5896],[4.3869,51.025,6.7371],[4.3867,51.0074,7.3385],[4.3984,51.006,7.079],[4.4187,50.9998,8.5084],[4.4554,51.0042,8.4343],[4.4783,50.9992,7.7756],[4.4883,50.9995,8.4443],[4.4951,51.0058,8.1338],[4.5007,51.0164,8.1793],[4.5195,51.0142,5.3067],[4.5335,51.0085,7.0558],[4.589,50.9964,9.8626],[4.6018,50.9981,8.0818],[4.6107,51.0074,14.7314],[4.6183,51.0127,10.1709],[4.6336,51.0187,11.6574],[4.6383,51.0239,8.6108],[4.6449,51.0248,9.4437],[4.6928,51.0245,10.7062],[4.6977,51.023,10.4723],[4.7047,51.0177,9.1006],[4.7073,51.0027,10.8936],[4.716,51.0063,19.9338],[4.7255,51.0146,11.6685],[4.7299,51.0206,11.5069],[4.74,51.0273,11.4492],[4.7647,51.0346,11.6892],[4.7708,51.0399,11.7583],[4.7828,51.0439,10.9198],[4.7836,51.051,11.0847],[4.7873,51.0565,10.4395],[4.7876,51.0659,17.3738],[4.786,51.0685,9.7045],[4.7757,51.0728,6.6258],[4.7751,51.0758,9.3139],[4.778,51.0775,12.2516],[4.7909,51.0785,13.5254],[4.8086,51.0888,8.8924],[4.8102,51.1054,12.379],[4.8094,51.1089,9.2126],[4.8029,51.1139,9.5059],[4.7963,51.1226,9.4413],[4.793,51.124,8.6719],[4.7742,51.1239,6.5229],[4.7654,51.1213,9.7371],[4.7632,51.12,7.5338],[4.7604,51.1138,7.2728],[4.7546,51.1108,18.9397],[4.7342,51.1111,3.9566],[4.728,51.1141,6.0338],[4.7212,51.1208,5.6584],[4.7157,51.1227,7.1121],[4.7142,51.1271,11.5882],[4.7151,51.1342,19.2688],[4.7231,51.1476,7.1377],[4.7243,51.1578,17.2654],[4.7226,51.1615,11.2427],[4.7062,51.181399999999996,7.5792],[4.6809,51.1821,6.8777],[4.6558,51.1763,3.5789],[4.6468,51.172,6.2808],[4.6342,51.1692,6.0635],[4.6043,51.1507,13.655],[4.6013,51.1503,15.8047],[4.5754,51.1508,6.838],[4.5625,51.159,7.0716],[4.5591,51.1682,7.2403],[4.5416,51.1632,11.3944],[4.5267,51.1517,11.211],[4.5262,51.1475,9.5371],[4.5298,51.1428,8.3085],[4.5299,51.1386,6.7362],[4.5205,51.1325,17.0129],[4.5195,51.1288,8.6894],[4.5011,51.1172,8.6938],[4.4975,51.1124,7.8202],[4.4758,51.1119,13.5859],[4.4698,51.1087,13.3673],[4.4649,51.1029,16.7811],[4.4617,51.0988,22.1739],[4.4719,51.0863,11.6075],[4.4731,51.0793,11.5734],[4.4617,51.0789,2.9201],[4.4556,51.0753,2.2637],[4.4452,51.0788,7.2834]]]]}}