{"type": "Feature","bbox": [4.1731,50.9964,5.2741,51.5038],"geometry": {"type": "MultiPolygon","coordinates": [[[[4.7708,51.0399,11.7583],[4.7828,51.0439,10.9198],[4.811,51.0349,10.5667],[4.8293,51.0186,14.0221],[4.8511,51.0184,15.8051],[4.8606,51.0193,21.2457],[4.8799,51.025,14.1981],[4.913,51.0408,22.8044],[4.9454,51.0466,15.9117],[4.9661,51.047,19.4095],[4.9946,51.0414,24.962],[4.9999,51.0504,38.22],[5.0218,51.0727,17.5904],[5.0293,51.076,17.4034],[5.0566,51.0775,20.4],[5.0775,51.0838,21.8049],[5.1014,51.0875,21.8914],[5.1251,51.1069,25.7204],[5.1316,51.1145,32.7553],[5.146,51.1231,27.4406],[5.202,51.1216,42.7381],[5.2091,51.1327,37.885],[5.2177,51.1392,35.7959],[5.2582,51.143,43.5866],[5.2706,51.1558,40.8786],[5.2741,51.1642,43.306399999999996],[5.2645,51.1878,44.9577],[5.257,51.1979,58.1329],[5.2467,51.205,44.6538],[5.2332,51.2109,39.0631],[5.2274,51.2197,38.5464],[5.2283,51.2461,48.3917],[5.2396,51.2623,46.7518],[5.2302,51.2671,39.378],[5.2284,51.2731,47.6062],[5.2376,51.2879,38.5858],[5.2457,51.3053,47.5187],[5.233,51.3131,47.3623],[5.21,51.3235,44.7398],[5.1813,51.3206,43.6819],[5.1775,51.3186,31.7271],[5.1367,51.3155,25.7428],[5.1224,51.3601,32.0165],[5.0758,51.3951,30.6394],[5.0766,51.4047,29.8586],[5.0975,51.4285,27.1793],[5.0948,51.4489,36.3655],[5.0821,51.4669,25.8367],[5.051,51.4715,29.1039],[5.0372,51.4854,21.6659],[5.0224,51.4757,19.3689],[5.0179,51.4707,21.3936],[5.0149,51.4642,30.1115],[5.017,51.4551,27.8467],[5.0066,51.4391,33.2198],[4.971,51.42,28.1225],[4.945,51.4019,26.9483],[4.9361,51.3975,26.2743],[4.9257,51.3986,22.9401],[4.8847,51.4156,18.1874],[4.8329,51.4093,20.7135],[4.7975,51.4095,16.6044],[4.7826,51.4154,14.9042],[4.7733,51.4289,10.8792],[4.786,51.4319,13.5361],[4.8107,51.4255,12.9823],[4.8349,51.4224,21.7689],[4.8292,51.4396,15.9063],[4.8399,51.4581,18.4875],[4.8386,51.4798,12.0724],[4.8049,51.4971,7.3113],[4.7793,51.5038,4.9479],[4.7521,51.4975,6.2413],[4.7369,51.4866,6.657],[4.7236,51.4702,10.253],[4.7193,51.4675,8.1508],[4.7121,51.4658,7.7052],[4.7075,51.4558,15.5682],[4.6788,51.4445,10.01],[4.6774,51.438,11.2595],[4.6791,51.4254,12.21],[4.6628,51.4273,11.2872],[4.6613,51.4247,12.3103],[4.6406,51.424,12.8627],[4.6326,51.4268,13.3967],[4.6143,51.4277,12.9928],[4.5909,51.431399999999996,12.9036],[4.5372,51.4236,12.7742],[4.5304,51.4471,15.7996],[4.552,51.4721,13.3655],[4.5378,51.4848,31.0711],[4.4933,51.4801,10.5179],[4.4786,51.481,10.1028],[4.4668,51.4765,9.0758],[4.4428,51.4711,10.3121],[4.409,51.4588,11.6778],[4.3954,51.4484,12.6184],[4.3923,51.4172,35.1475],[4.3999,51.4036,34.645],[4.4246,51.386,31.2596],[4.4275,51.3762,35.8365],[4.4216,51.3674,26.0966],[4.3967,51.36,13.1075],[4.3464,51.3607,22.019],[4.3374,51.3813,4.1403],[4.2807,51.3803,0.9561],[4.277,51.3769,3.1103],[4.2212,51.3761,0.0],[4.216,51.3702,0.0],[4.2222,51.3657,0.0],[4.2234,51.3592,0.0],[4.2306,51.3575,0.0],[4.2427,51.3516,0.0],[4.2666,51.3313,0.0],[4.2699,51.3261,0.0],[4.2713,51.3113,0.0],[4.2752,51.3028,0.0],[4.2803,51.2965,4.7592],[4.2997,51.2881,5.6588],[4.3046,51.2836,6.6567],[4.3044,51.2771,7.3731],[4.294,51.2626,0.0],[4.2974,51.2455,0.0],[4.302,51.2335,-0.0716],[4.32,51.2057,7.1781],[4.3271,51.1988,11.1908],[4.3261,51.1375,0.0],[4.3179,51.1276,0.0],[4.2939,51.1277,3.8462],[4.2614,51.1225,5.2862],[4.2306,51.1254,4.52],[4.2128,51.1249,11.5166],[4.2044,51.1218,6.8243],[4.1789,51.1067,0.1585],[4.1739,51.1008,3.2799],[4.1731,51.095,0.0],[4.1783,51.0861,0.0],[4.1878,51.0771,2.4808],[4.1942,51.0614,5.9705],[4.1944,51.0493,1.881],[4.1923,51.0384,0.4933],[4.2189,51.0383,4.7853],[4.2439,51.0433,6.1795],[4.2539,51.0417,10.7377],[4.2782,51.0458,8.3255],[4.2926,51.0453,8.019],[4.3071,51.0418,7.5037],[4.3217,51.034,6.6168],[4.3636,51.0277,4.9192],[4.3751,51.0294,5.9049],[4.3834,51.0285,5.5896],[4.3869,51.025,6.7371],[4.3867,51.0074,7.3385],[4.3984,51.006,7.079],[4.4187,50.9998,8.5084],[4.4554,51.0042,8.4343],[4.4783,50.9992,7.7756],[4.4883,50.9995,8.4443],[4.4951,51.0058,8.1338],[4.5007,51.0164,8.1793],[4.5195,51.0142,5.3067],[4.5335,51.0085,7.0558],[4.589,50.9964,9.8626],[4.6018,50.9981,8.0818],[4.6107,51.0074,14.7314],[4.6183,51.0127,10.1709],[4.6336,51.0187,11.6574],[4.6383,51.0239,8.6108],[4.6449,51.0248,9.4437],[4.6892,51.0249,10.6383],[4.6977,51.023,10.4723],[4.7047,51.0177,9.1006],[4.7073,51.0027,10.8936],[4.7179,51.0075,17.6769],[4.7299,51.0206,11.5069],[4.74,51.0273,11.4492],[4.7647,51.0346,11.6892],[4.7708,51.0399,11.7583]]],
[[[4.9619,51.4475,26.0277],[4.9676,51.4485,25.6379],[4.9631,51.4544,24.8775],[4.9437,51.4504,26.5621],[4.9374,51.4515,25.6962],[4.9309,51.4501,26.7573],[4.9279,51.4477,27.8681],[4.9271,51.4379,27.6306],[4.929,51.4322,29.0182],[4.9452,51.4289,36.8697],[4.9521,51.4312,28.1677],[4.9512,51.44,27.7772],[4.9532,51.4445,26.1225],[4.9619,51.4475,26.0277]]]]}
,"properties": {"GID_2": "BEL.2.1_1","GID_0": "BEL","country": "Belgium","GID_1": "BEL.2_1","state": "Vlaanderen","NL_NAME_1": "NA","county": "Antwerpen","VARNAME_2": "Amberes|Antuérpia|Antwerp|Anvers","NL_NAME_2": "NA","TYPE_2": "Provincie","ENGTYPE_2": "Province","CC_2": "NA","HASC_2": "BE.AN","name": "Antwerpen.county","area_km2": 2856.552,"hist_schema_id": "Elevation0-9000","hist_area_km2": {"0": 992.288,"25": 1747.746,"50": 116.492,"75": 0.027}}}