{"type": "Feature","id": "3480","bbox": [4.182,50.99211,5.26043,51.49624],"geometry": {"type": "Polygon","coordinates": [[[4.82268,51.41368,21.1347],[4.81545,51.43107,17.114],[4.81989,51.44621,15.2201],[4.82609,51.46056,19.4487],[4.82392,51.47564,11.6012],[4.81359,51.48412,11.3337],[4.79684,51.49102,12.7995],[4.77865,51.49536,10.5095],[4.76418,51.49624,5.2361],[4.73121,51.48562,6.0386],[4.65391,51.42622,11.553],[4.64357,51.42141,11.8138],[4.63014,51.41821,13.9494],[4.61463,51.41756,14.1257],[4.5827,51.4226,14.8902],[4.55386,51.41929,15.1875],[4.54063,51.42007,13.9635],[4.52151,51.42864,14.4663],[4.52337,51.43841,14.8602],[4.53185,51.45087,14.1673],[4.53319,51.46758,27.3733],[4.52523,51.47593,13.7446],[4.51262,51.47738,13.1525],[4.48306,51.47433,9.281],[4.42942,51.46198,16.2285],[4.37713,51.44288,15.0219],[4.38922,51.43459,16.18],[4.38715,51.42746,18.2106],[4.38064,51.41965,30.7689],[4.37992,51.40952,30.6942],[4.38767,51.40053,33.455],[4.4101,51.38379,25.4332],[4.4162,51.37397,22.1591],[4.41123,51.35674,15.5938],[4.39222,51.35041,10.7667],[4.34561,51.35229,8.0034],[4.32628,51.35643,5.0895],[4.2901,51.36875,4.3767],[4.28112,51.36895,4.9908],[4.26107,51.36938,6.2084],[4.26108,51.36937,6.2084],[4.27565,51.3581,9.2324],[4.28305,51.35008,9.3702],[4.28614,51.33967,6.1715],[4.28541,51.31802,5.6989],[4.28932,51.30915,6.0124],[4.29713,51.30516,5.871],[4.33082,51.29609,1.0],[4.31642,51.27684,0.0],[4.30836,51.27123,0.0],[4.29672,51.26756,7.3492],[4.29865,51.26957,5.7007],[4.29501,51.26788,7.3492],[4.28861,51.25785,-0.1359],[4.30985,51.21491,6.6299],[4.30111,51.2114,8.3894],[4.32535,51.18943,5.7424],[4.33062,51.17682,0.1037],[4.33305,51.16969,6.8797],[4.32855,51.14778,0.6947],[4.316,51.13218,-0.5139],[4.2762,51.12396,2.8616],[4.23569,51.12396,4.2623],[4.21585,51.12153,0.0],[4.19797,51.11362,0.7989],[4.18536,51.10427,0.0],[4.182,51.09988,3.1262],[4.18334,51.09564,1.1484],[4.18458,51.0867,0.9563],[4.18753,51.0774,2.4808],[4.19332,51.06608,5.5268],[4.19642,51.05451,4.713],[4.1914,51.04461,3.7801],[4.18913,51.04386,3.7801],[4.20127,51.0372,5.1809],[4.21228,51.03407,6.2838],[4.23187,51.04427,4.1264],[4.24034,51.03807,5.862],[4.2746,51.04368,19.5135],[4.29889,51.04102,7.6414],[4.34819,51.02701,5.536],[4.34142,51.01994,11.6345],[4.34793,51.01792,8.5003],[4.37909,51.0311,5.5572],[4.36953,51.01593,8.9213],[4.38824,51.01229,8.0209],[4.3931,50.99746,8.5001],[4.45382,51.00681,2.8747],[4.47614,50.99239,10.2603],[4.49428,51.00973,10.6974],[4.52802,50.99343,13.8771],[4.54616,51.00412,4.7231],[4.57805,50.99229,4.6285],[4.59339,50.99211,15.9889],[4.60647,51.01249,20.3587],[4.67938,51.02484,9.6001],[4.70626,51.01559,9.8109],[4.69494,50.99978,17.2519],[4.7339,51.02735,12.3035],[4.75602,51.02438,10.5192],[4.78868,51.04009,10.0916],[4.80573,51.01652,12.078],[4.81855,51.01107,28.8047],[4.87059,51.02469,16.2089],[4.88283,51.02087,20.7695],[4.90971,51.0359,13.899],[4.94831,51.04572,16.3676],[4.96707,51.04647,24.9613],[4.98092,51.03601,22.2901],[5.0097,51.06143,19.9375],[5.0098,51.07513,14.8449],[5.08985,51.0852,24.5352],[5.13026,51.11755,36.4686],[5.18039,51.11921,33.7933],[5.20302,51.14001,32.8021],[5.23537,51.13404,37.7325],[5.26043,51.14807,42.0079],[5.25718,51.18848,40.1223],[5.21651,51.21248,43.4591],[5.22741,51.25067,49.5676],[5.23946,51.25693,48.435],[5.23299,51.25592,49.3605],[5.21542,51.25873,39.6501],[5.21491,51.29434,38.3201],[5.19734,51.30834,50.3695],[5.17884,51.3095,38.4328],[5.14018,51.30739,26.6465],[5.12292,51.31338,25.4246],[5.11806,51.31992,26.9375],[5.10783,51.34198,28.5816],[5.10256,51.35067,35.144],[5.06814,51.37454,32.6912],[5.06174,51.38425,37.8941],[5.06525,51.40591,28.8812],[5.07641,51.4219,28.7576],[5.07993,51.43854,31.0648],[5.06029,51.46198,29.9711],[5.03032,51.47443,21.0761],[5.02753,51.47681,19.4387],[5.01213,51.47433,18.9022],[5.00613,51.46831,19.9823],[5.00272,51.459,21.527],[4.9958,51.44671,24.9559],[4.98019,51.43053,25.5588],[4.95714,51.411,29.9561],[4.93193,51.39562,31.7047],[4.91033,51.3919,23.4758],[4.87167,51.40304,21.2998],[4.85327,51.40614,19.9922],[4.7833,51.40764,13.8096],[4.76212,51.41337,17.9615],[4.7678,51.42539,11.2271],[4.77907,51.42642,13.1796],[4.82268,51.41368,21.1347]]]}
,"properties": {"ISO3166-1-Alpha-3": "BEL","country": "Belgium","fill": "#F0F","name": "Antwerp","area_km2": 2758.806,"hist_schema_id": "Elevation0-9000","hist_area_km2": {"0": 970.483,"25": 1697.759,"50": 90.564}}}