{"type":"Feature","properties":{"GID_3":"BEL.2.5.2_1","GID_0":"BEL","country":"Belgium","GID_1":"BEL.2_1","state":"Vlaanderen","NL_NAME_1":"NA","GID_2":"BEL.2.5_1","county":"West-Vlaanderen","NL_NAME_2":"NA","city":"Diksmuide","VARNAME_3":"Dixmude","NL_NAME_3":"NA","TYPE_3":"Arrondissement","ENGTYPE_3":"Arrondissement","CC_3":"NA","HASC_3":"BE.WV.DK","name":"Diksmuide.city"},
"geometry":{"type": "MultiPolygon","coordinates": [[[[2.8559,50.9429,1.5005],[2.859,50.947,3.4923],[2.8698,50.947,5.5767],[2.8982,50.9369,11.3183],[2.9101,50.9364,15.172],[2.9165,50.9376,16.509],[2.9225,50.9439,11.9065],[2.9285,50.9472,11.0654],[2.9559,50.948,16.6372],[2.97,50.9508,17.3547],[2.9696,50.9719,17.4603],[2.9752,50.9788,21.6289],[2.9888,50.986,25.3199],[3.0218,50.9947,15.7152],[3.026,50.9995,20.4866],[3.0321,51.0027,23.9641],[3.0594,51.0042,21.5815],[3.0689,51.0113,14.9022],[3.0685,51.0255,13.0853],[3.0589,51.0431,9.8441],[3.0483,51.0552,14.9192],[3.0312,51.055,16.6066],[3.0253,51.0566,18.7392],[3.023,51.0682,25.3906],[3.014,51.0788,31.8112],[3.0032,51.0858,17.6902],[2.9982,51.0917,16.4066],[2.9975,51.0981,12.0928],[3.0007,51.1026,17.3327],[3.0007,51.1056,8.4212],[2.9912,51.1169,5.4829],[2.982,51.1228,2.6005],[2.9728,51.1181,4.4754],[2.951,51.1145,4.4091],[2.9459,51.1156,2.5872],[2.9429,51.1219,2.0385],[2.9333,51.1277,0.8728],[2.9232,51.128,0.9373],[2.9147,51.1257,0.2864],[2.9048,51.1252,0.8035],[2.9044,51.119,2.1636],[2.9008,51.1131,0.0036],[2.882,51.1067,1.4654],[2.8375,51.0986,0.3502],[2.8322,51.0948,0.3032],[2.788,51.0901,0.8903],[2.7827,51.0869,0.6904],[2.7836,51.0618,0.3683],[2.7795,51.053,0.5872],[2.7772,51.0508,0.804],[2.768,51.0492,0.3199],[2.7625,51.0459,0.0618],[2.7629,51.0362,1.1051],[2.771,51.0263,-0.1638],[2.7722,51.0161,1.3669],[2.761,51.0123,0.8618],[2.747,51.0108,1.7283],[2.7337,51.0054,1.99],[2.7268,50.9981,6.7969],[2.7132,50.989,6.9809],[2.7084,50.9831,7.3508],[2.7072,50.9789,8.1352],[2.7083,50.9715,5.7265],[2.7236,50.9537,1.3302],[2.7459,50.9532,1.3023],[2.7532,50.9441,1.4679],[2.7724,50.9295,6.0352],[2.774,50.9272,6.2937],[2.7742,50.9222,7.5427],[2.7701,50.914,10.2008],[2.7712,50.9113,11.4808],[2.7766,50.9083,11.8975],[2.783,50.9091,13.5631],[2.7898,50.9157,14.0937],[2.7986,50.9166,13.5337],[2.8079,50.9135,11.2545],[2.8139,50.907,7.5506],[2.8342,50.9203,7.0688],[2.8412,50.9301,3.6692],[2.8531,50.9349,3.8356],[2.8533,50.9402,1.1182],[2.8559,50.9429,1.5005]]]]}}