{"type":"Feature","properties":{"GID_3":"BEL.3.4.2_1","GID_0":"BEL","country":"Belgium","GID_1":"BEL.3_1","state":"Wallonie","NL_NAME_1":"NA","GID_2":"BEL.3.4_1","county":"Luxembourg","NL_NAME_2":"NA","city":"Bastogne","VARNAME_3":"Bastenaken","NL_NAME_3":"NA","TYPE_3":"Arrondissement","ENGTYPE_3":"Arrondissement","CC_3":"NA","HASC_3":"BE.LX.BS","name":"Bastogne.city"},
"geometry":{"type": "MultiPolygon","coordinates": [[[[5.738,49.8469,439.2464],[5.7533,49.8485,377.9243],[5.7533,49.8536,393.3828],[5.7501,49.855,353.367],[5.7577,49.8557,358.6077],[5.7596,49.8587,397.4016],[5.7581,49.8695,390.7152],[5.775,49.869,356.2335],[5.7827,49.8764,339.8646],[5.782,49.8777,354.1057],[5.7885,49.876,389.6309],[5.7861,49.8829,397.771],[5.7451,49.8984,457.1801],[5.7441,49.9026,460.592],[5.7537,49.9113,461.397],[5.7599,49.9122,468.3453],[5.7666,49.9199,475.8533],[5.7725,49.9323,464.5827],[5.7781,49.9384,465.0071],[5.7793,49.9444,462.8528],[5.7784,49.9505,510.3561],[5.781,49.9597,540.6682],[5.7915,49.9604,496.9426],[5.7953,49.9642,455.885],[5.8109,49.9609,466.8845],[5.8156,49.9648,413.1253],[5.8167,49.9726,441.9153],[5.8369,49.9755,492.9236],[5.8434,49.9799,493.9774],[5.8433,49.9871,485.2619],[5.8277,49.9995,424.6753],[5.8262,50.0067,438.2506],[5.828,50.0131,430.4149],[5.8458,50.0204,433.4294],[5.8554,50.0304,455.3535],[5.8617,50.0463,486.6349],[5.8591,50.0617,474.5388],[5.8639,50.0675,520.1879],[5.8749,50.0739,493.8015],[5.8898,50.0783,471.6114],[5.8942,50.0944,497.8678],[5.8994,50.1003,485.2053],[5.9023,50.1098,471.6363],[5.9541,50.1347,492.9764],[5.9676,50.1708,471.1031],[6.0249,50.1816,548.8131],[6.0265,50.1777,534.66],[6.0284,50.1778,534.66],[6.0331,50.1929,489.9733],[6.0233,50.2052,497.6485],[6.0187,50.2284,501.4828],[6.0112,50.2458,492.8778],[6.0155,50.2632,555.5248],[6.0172,50.2777,585.0793],[6.0211,50.2879,563.4598],[6.022,50.2975,558.8273],[6.0211,50.3033,531.9762],[6.0158,50.3088,471.0614],[5.9949,50.3193,545.3284],[5.9614,50.3308,539.6182],[5.9154,50.3304,357.3319],[5.905,50.3337,352.4312],[5.8931,50.3398,374.9164],[5.8828,50.3401,427.1424],[5.873,50.3344,491.3888],[5.8641,50.3235,548.1134],[5.8702,50.3126,484.5844],[5.871,50.308,498.6702],[5.8696,50.3023,472.1039],[5.8628,50.2918,426.4081],[5.8635,50.2888,427.692],[5.8678,50.2856,421.9119],[5.8866,50.2836,417.035],[5.8907,50.2817,440.7081],[5.892,50.2753,524.3915],[5.8871,50.2694,410.0782],[5.8583,50.2633,469.4736],[5.8286,50.2606,473.8938],[5.7973,50.2608,495.7863],[5.7762,50.2631,499.9235],[5.7573,50.2594,543.7961],[5.7291,50.2567,640.2709],[5.7283,50.2509,648.7458],[5.7205,50.2415,624.3823],[5.7201,50.2261,582.4507],[5.7209,50.2228,579.9834],[5.7272,50.2182,545.9131],[5.7398,50.2009,486.1631],[5.7402,50.1941,484.3679],[5.7388,50.1899,507.3295],[5.734,50.1847,472.0945],[5.7278,50.1837,458.6887],[5.7194,50.1848,430.8281],[5.7109,50.1894,481.1044],[5.6946,50.1895,496.1937],[5.6679,50.1735,440.9682],[5.6621,50.1666,386.6815],[5.6621,50.1562,368.9242],[5.6767,50.1429,326.7942],[5.6815,50.1334,295.355],[5.6813,50.1292,316.1001],[5.6775,50.1231,381.7178],[5.6769,50.1097,429.7381],[5.6617,50.1034,409.7672],[5.6098,50.0877,412.3539],[5.5911,50.084,410.4823],[5.5846,50.0802,421.0399],[5.5751,50.0774,395.3804],[5.5405,50.0713,363.3581],[5.5314,50.0662,443.4825],[5.4921,50.0669,512.8907],[5.4587,50.0615,481.0966],[5.4491,50.0586,455.6701],[5.4321,50.0504,485.4993],[5.4223,50.0416,555.6276],[5.4222,50.0337,590.3973],[5.4279,50.0274,582.6637],[5.4576,50.023,496.1412],[5.4728,50.0233,518.2667],[5.4918,50.0201,410.7407],[5.4966,50.0175,442.4406],[5.4981,50.015,483.09],[5.4976,50.0115,502.0004],[5.4899,50.0055,447.4182],[5.4888,50.0007,421.6891],[5.4896,49.9973,437.2234],[5.4983,49.9857,495.915],[5.5081,49.981,468.0638],[5.5109,49.9746,474.0847],[5.5245,49.9649,510.7273],[5.5277,49.9609,494.5681],[5.5538,49.9548,508.2484],[5.5458,49.944,529.2225],[5.5305,49.9339,527.8795],[5.5239,49.9148,511.4098],[5.5085,49.9047,533.7701],[5.5032,49.8974,490.3748],[5.5027,49.8946,495.5665],[5.5308,49.8743,501.0966],[5.5342,49.8693,484.7659],[5.581,49.8694,447.3796],[5.5911,49.8726,424.1605],[5.6243,49.8924,442.6545],[5.6527,49.8918,454.4993],[5.6507,49.8594,484.9286],[5.6432,49.8529,500.8776],[5.6407,49.847,439.0547],[5.6293,49.8341,471.0359],[5.6289,49.8293,483.2282],[5.6318,49.8274,473.5312],[5.6486,49.8245,478.8689],[5.6713,49.8236,456.2692],[5.6859,49.8204,481.6907],[5.7047,49.8097,502.5255],[5.7086,49.8124,506.9881],[5.71,49.8212,499.4615],[5.7191,49.8355,380.9235],[5.7252,49.8416,376.9507],[5.738,49.8469,439.2464]]]]}}