{"type":"Feature","properties":{"GID_3":"BEL.2.5.6_1","GID_0":"BEL","country":"Belgium","GID_1":"BEL.2_1","state":"Vlaanderen","NL_NAME_1":"NA","GID_2":"BEL.2.5_1","county":"West-Vlaanderen","NL_NAME_2":"NA","city":"Roeselare","VARNAME_3":"Roulers","NL_NAME_3":"NA","TYPE_3":"Arrondissement","ENGTYPE_3":"Arrondissement","CC_3":"NA","HASC_3":"BE.WV.RS","name":"Roeselare.city"},
"geometry":{"type": "MultiPolygon","coordinates": [[[[3.0955,50.8405,30.3176],[3.1083,50.8391,39.4253],[3.1216,50.8445,19.1845],[3.1315,50.8459,17.8435],[3.1494,50.8518,19.4087],[3.1614,50.8587,19.9823],[3.1833,50.8599,29.5774],[3.2107,50.8693,30.1276],[3.2112,50.8787,32.8747],[3.208,50.8803,28.4916],[3.2053,50.886,29.7007],[3.1954,50.8952,27.0778],[3.2122,50.8955,19.4187],[3.2292,50.9006,20.307],[3.2678,50.9008,23.1184],[3.2752,50.8975,31.288],[3.2873,50.8989,31.8279],[3.2996,50.9027,17.3358],[3.2981,50.9121,17.3582],[3.3045,50.9171,16.2482],[3.2967,50.9251,16.8538],[3.2785,50.9362,13.1667],[3.2643,50.9423,16.2477],[3.2615,50.9515,18.6495],[3.2529,50.957,20.2197],[3.2339,50.9443,19.2694],[3.2175,50.9447,22.7831],[3.1896,50.952,14.868],[3.1751,50.9496,17.8577],[3.1711,50.9542,19.813],[3.1705,50.9617,23.2372],[3.1785,50.9762,26.1772],[3.1791,50.9856,27.6406],[3.1772,50.9897,26.8622],[3.1702,50.992,25.4583],[3.1701,50.9989,33.2046],[3.1858,51.0106,45.8271],[3.1873,51.0165,42.5886],[3.1789,51.022,39.7756],[3.1698,51.0363,26.7183],[3.1698,51.0524,19.4855],[3.1687,51.056399999999996,16.2168],[3.1665,51.0583,16.013],[3.1441,51.0577,16.1561],[3.1371,51.0485,19.5276],[3.1224,51.0386,16.5609],[3.12,51.0293,20.9794],[3.1049,51.0223,18.4173],[3.0972,51.0146,17.1503],[3.0698,51.0142,11.1061],[3.068,51.0098,17.5894],[3.0594,51.0042,21.5815],[3.0321,51.0027,23.9641],[3.026,50.9995,20.4866],[3.0218,50.9947,15.7152],[3.0062,50.9915,12.7818],[2.9807,50.9826,39.9885],[2.9699,50.9733,16.7876],[2.97,50.9508,17.3547],[2.9908,50.9337,20.0489],[2.9932,50.9278,27.4158],[2.9992,50.9211,30.2838],[3.0111,50.9214,45.9751],[3.0326,50.9266,25.3693],[3.0621,50.9269,25.6521],[3.0612,50.9112,24.8638],[3.0566,50.9059,28.1815],[3.0375,50.8979,30.5862],[3.0363,50.8936,34.6901],[3.0376,50.8843,34.2331],[3.0447,50.8761,32.4429],[3.0467,50.8708,27.2804],[3.0532,50.8658,20.8536],[3.0558,50.8601,21.5617],[3.0619,50.8576,20.5228],[3.0667,50.8524,20.3869],[3.068,50.8477,24.1143],[3.0746,50.8471,25.6174],[3.0955,50.8405,30.3176]]]]}}