{"type": "Feature","bbox": [5.1496,49.4972,5.7295,49.7752],"geometry": {"type": "MultiPolygon","coordinates": [[[[5.693,49.5815,288.0519],[5.6936,49.5977,317.032],[5.7121,49.6039,315.3966],[5.7226,49.6042,343.472],[5.7236,49.6154,371.3149],[5.7295,49.6225,364.7324],[5.7258,49.6311,372.7648],[5.7041,49.637,374.2558],[5.694,49.6378,369.3088],[5.6943,49.652,378.6174],[5.69,49.6608,372.7898],[5.6836,49.6691,363.9384],[5.6823,49.6767,340.2719],[5.677,49.6864,348.257],[5.6905,49.6878,353.0414],[5.6977,49.6968,369.5027],[5.7056,49.7018,359.4219],[5.7045,49.7072,362.8593],[5.7005,49.7127,374.1306],[5.6895,49.721,407.9416],[5.6888,49.7266,422.5355],[5.7014,49.7427,429.464],[5.7035,49.7509,407.9864],[5.7104,49.7563,420.7338],[5.7153,49.765,438.7354],[5.7161,49.7712,432.0695],[5.7037,49.7739,472.6272],[5.6805,49.7745,475.7169],[5.6616,49.772,470.7106],[5.6223,49.7724,443.6919],[5.6074,49.7679,422.6754],[5.5945,49.767,468.3134],[5.5817,49.7628,467.7992],[5.5688,49.762,464.3908],[5.563,49.7584,462.993],[5.5569,49.7448,440.9162],[5.5524,49.7413,429.5731],[5.5347,49.7337,365.5515],[5.5254,49.7324,375.0265],[5.5062,49.7262,356.6699],[5.4987,49.7286,359.825],[5.4908,49.7338,405.249],[5.486,49.7403,413.4346],[5.4844,49.7458,434.3845],[5.4719,49.7577,436.5175],[5.4467,49.7742,438.0945],[5.4403,49.7752,415.8455],[5.4286,49.7747,413.3955],[5.4155,49.7676,378.3513],[5.2995,49.7686,383.5309],[5.2879,49.7654,424.1052],[5.2841,49.7616,423.8745],[5.2686,49.7554,283.362],[5.2604,49.7565,369.2686],[5.2453,49.7687,303.089],[5.2351,49.772,287.3829],[5.2259,49.7731,309.3734],[5.2082,49.7698,408.9246],[5.1762,49.7697,430.8786],[5.1733,49.765,380.7807],[5.1496,49.7494,405.5704],[5.1501,49.7463,385.2664],[5.1611,49.7327,365.4438],[5.1605,49.7251,295.3807],[5.154,49.7203,278.0215],[5.1527,49.7174,312.4324],[5.1609,49.7152,310.4608],[5.1654,49.7094,305.9087],[5.1662,49.6929,211.2072],[5.1905,49.6945,292.5553],[5.1997,49.6923,264.1251],[5.2087,49.6944,313.3702],[5.2156,49.6892,275.0088],[5.2311,49.6904,295.1234],[5.2462,49.6869,311.4771],[5.2684,49.696,359.5817],[5.2805,49.6891,344.0648],[5.2812,49.6857,356.2898],[5.2866,49.6818,332.1204],[5.3192,49.6637,269.459],[5.3326,49.6535,254.4562],[5.3206,49.6473,289.5803],[5.3049,49.6301,241.3066],[5.315,49.612,188.2853],[5.3401,49.6181,199.726],[5.3469,49.6308,207.0677],[5.3935,49.6171,223.2475],[5.431,49.5924,326.5468],[5.429,49.5892,299.9473],[5.4393,49.5698,234.2822],[5.4539,49.566,284.4413],[5.4462,49.5534,356.4803],[5.4414,49.5521,355.5471],[5.4653,49.5363,303.1937],[5.464,49.5262,190.4442],[5.4472,49.5179,189.7743],[5.4634,49.509,190.1341],[5.4663,49.4989,190.9207],[5.4709,49.4972,200.2625],[5.4848,49.5067,306.1758],[5.5007,49.5068,319.2208],[5.5315,49.5125,376.588],[5.5425,49.517,385.4477],[5.554,49.5279,386.7373],[5.5692,49.5273,378.2616],[5.5938,49.5214,374.3432],[5.6071,49.507,390.7649],[5.611,49.5059,391.9335],[5.6211,49.5207,389.7882],[5.618,49.5303,294.5009],[5.6328,49.5396,265.9855],[5.6329,49.5431,247.8405],[5.6452,49.5497,227.2441],[5.6608,49.5524,232.7398],[5.6692,49.5485,243.0845],[5.6891,49.5461,326.7223],[5.7013,49.5395,314.6817],[5.7123,49.5403,380.9413],[5.7127,49.5518,308.3492],[5.717,49.5594,249.508],[5.717,49.5696,291.5454],[5.7119,49.5761,254.8512],[5.6986,49.5778,267.3701],[5.693,49.5815,288.0519]]]]}
,"properties": {"GID_3": "BEL.3.4.5_1","GID_0": "BEL","country": "Belgium","GID_1": "BEL.3_1","state": "Wallonie","NL_NAME_1": "NA","GID_2": "BEL.3.4_1","county": "Luxembourg","NL_NAME_2": "NA","city": "Virton","VARNAME_3": "NA","NL_NAME_3": "NA","TYPE_3": "Arrondissement","ENGTYPE_3": "Arrondissement","CC_3": "NA","HASC_3": "BE.LX.VT","name": "Virton.city","area_km2": 740.0698,"hist_schema_id": "Elevation0-9000","hist_area_km2": {"175": 0.0412,"200": 14.0291,"225": 35.8167,"250": 52.0378,"275": 63.6265,"300": 71.2364,"325": 115.1612,"350": 179.4336,"375": 90.3025,"400": 46.6597,"425": 42.2212,"450": 20.2594,"475": 9.1624,"500": 0.0822}}}