{"type":"Feature","properties":{"GID_3":"BEL.3.5.1_1","GID_0":"BEL","country":"Belgium","GID_1":"BEL.3_1","state":"Wallonie","NL_NAME_1":"NA","GID_2":"BEL.3.5_1","county":"Namur","NL_NAME_2":"NA","city":"Dinant","VARNAME_3":"NA","NL_NAME_3":"NA","TYPE_3":"Arrondissement","ENGTYPE_3":"Arrondissement","CC_3":"NA","HASC_3":"BE.NA.DN","name":"Dinant.city"},
"geometry":{"type": "MultiPolygon","coordinates": [[[[4.9911,49.8206,217.6999],[4.99,49.829,330.3925],[4.9828,49.8383,209.1869],[4.9936,49.849,393.8468],[4.9999,49.8532,390.3541],[5.0262,49.8633,385.7189],[5.0345,49.8683,424.8214],[5.0468,49.872,415.6275],[5.0545,49.8917,411.9366],[5.0708,49.9024,444.5506],[5.105,49.9195,363.287],[5.1071,49.9225,372.1234],[5.1055,49.9329,382.5377],[5.108,49.9425,379.8904],[5.1068,49.9471,418.2194],[5.1029,49.9515,386.2993],[5.0898,49.9568,392.6642],[5.0849,49.9601,389.5333],[5.0752,49.9709,379.6124],[5.0634,49.9784,365.9104],[5.0528,49.9794,394.1553],[5.0371,49.9727,401.6071],[5.0259,49.9738,395.7855],[5.0214,49.9786,350.7269],[5.0135,49.9938,401.8746],[5.0015,50.0047,436.5223],[4.9939,50.0089,413.3931],[4.9864,50.0238,393.3458],[5.0003,50.0309,390.1193],[5.0113,50.033,392.9737],[5.0314,50.0481,304.9931],[5.0461,50.0536,342.0917],[5.0558,50.062,333.9264],[5.0599,50.07,310.1268],[5.0569,50.0813,219.8713],[5.0573,50.0995,211.8459],[5.0617,50.1155,170.4745],[5.0681,50.1198,177.2513],[5.0826,50.1232,177.7216],[5.0824,50.1002,190.8617],[5.0856,50.095,258.5046],[5.0931,50.0922,292.0121],[5.1328,50.0945,241.4967],[5.1397,50.0935,252.2916],[5.1523,50.0886,200.8407],[5.1756,50.0886,199.0877],[5.2525,50.1006,262.0037],[5.2713,50.1012,306.582],[5.2708,50.1109,256.2087],[5.2674,50.1211,270.2808],[5.2677,50.129,226.4998],[5.2714,50.1332,224.8508],[5.2879,50.1386,211.8362],[5.2893,50.1437,240.6068],[5.2868,50.1562,355.4094],[5.2779,50.1612,306.9824],[5.2616,50.1795,248.5857],[5.2578,50.1852,257.516],[5.2543,50.1958,276.1872],[5.2363,50.2097,228.2842],[5.2201,50.209,250.0266],[5.2142,50.2106,214.8512],[5.2106,50.2151,199.7272],[5.2121,50.2208,183.7025],[5.2233,50.224,191.6549],[5.2474,50.2256,265.265],[5.2681,50.2344,268.7505],[5.2863,50.2396,241.3289],[5.3158,50.2404,209.9671],[5.3285,50.2433,195.0929],[5.3616,50.2628,220.4495],[5.3927,50.2835,184.9933],[5.4205,50.2948,172.9931],[5.428,50.3068,195.69],[5.4191,50.3094,205.4602],[5.3962,50.3124,192.4614],[5.3761,50.3097,161.0388],[5.3597,50.3052,217.9189],[5.3533,50.3059,242.5821],[5.3496,50.3095,243.2111],[5.3505,50.3161,226.3059],[5.3547,50.3197,231.1136],[5.3782,50.3247,221.8708],[5.3924,50.3316,198.9813],[5.3953,50.3427,182.573],[5.4022,50.3486,216.6475],[5.4077,50.3599,288.6057],[5.4071,50.3702,331.2379],[5.3988,50.3814,250.1515],[5.3778,50.3835,284.0684],[5.3521,50.3813,310.7772],[5.3452,50.3794,298.6203],[5.3222,50.3651,289.7172],[5.3085,50.3638,299.5927],[5.3028,50.366,300.7467],[5.2924,50.3735,275.825],[5.2821,50.3919,245.3095],[5.2754,50.3973,245.3367],[5.2637,50.4013,274.0796],[5.2451,50.403,270.1817],[5.2285,50.4063,233.8403],[5.2215,50.4092,235.288],[5.2124,50.4094,267.4328],[5.205,50.406,261.5603],[5.1991,50.3979,237.7243],[5.1961,50.3962,248.0962],[5.1821,50.3963,297.2621],[5.1714,50.3989,284.3594],[5.1446,50.3994,262.8876],[5.1423,50.3924,291.8337],[5.1349,50.3837,291.7515],[5.1342,50.3775,295.7739],[5.1094,50.3726,277.7683],[5.0943,50.3725,300.8843],[5.0953,50.3616,291.8973],[5.094,50.3574,296.0042],[5.0757,50.3527,280.0143],[5.0699,50.3484,283.7755],[5.0623,50.3485,241.4923],[5.0486,50.3535,274.1454],[5.0399,50.3531,275.2025],[5.0304,50.3465,303.0804],[5.0298,50.3407,286.5333],[5.0313,50.3352,265.9648],[5.0153,50.3352,258.1143],[5.0061,50.3425,286.838],[4.9982,50.3434,281.9041],[4.9652,50.3433,286.7635],[4.9275,50.3359,124.9033],[4.9208,50.3359,164.491],[4.9145,50.3392,148.2492],[4.9077,50.3491,280.2801],[4.8988,50.3545,213.1787],[4.8871,50.3559,170.4362],[4.8653,50.3484,96.9026],[4.8534,50.3552,267.7055],[4.8322,50.3556,206.6671],[4.8041,50.3524,196.7045],[4.8018,50.3502,197.1417],[4.8005,50.3436,203.9539],[4.7984,50.3423,200.5219],[4.7886,50.3396,214.5214],[4.7647,50.3388,241.2132],[4.7555,50.336,249.1279],[4.7466,50.328,247.0322],[4.7367,50.3099,256.7095],[4.7361,50.2982,223.7322],[4.7369,50.2946,222.7975],[4.742,50.2882,274.3688],[4.7501,50.2831,263.9118],[4.7569,50.2819,255.2009],[4.7576,50.2729,288.0514],[4.7643,50.2704,268.0724],[4.7659,50.2678,271.0588],[4.7652,50.2569,274.2764],[4.7571,50.2468,232.849],[4.7574,50.2316,273.755],[4.763,50.2226,292.5469],[4.7724,50.2196,233.7135],[4.7822,50.2192,243.462],[4.786,50.2111,235.098],[4.787,50.1979,240.6462],[4.7933,50.1937,239.3707],[4.7956,50.1878,254.2278],[4.8031,50.1801,236.8984],[4.8019,50.176,196.3268],[4.7972,50.1728,200.0368],[4.782,50.1689,209.7294],[4.769,50.1606,205.1943],[4.7693,50.1544,193.2984],[4.7794,50.1477,145.6115],[4.787,50.145,142.8718],[4.7764,50.1404,180.5721],[4.8025,50.1511,125.6661],[4.8228,50.1676,110.0273],[4.8317,50.1551,94.125],[4.8749,50.1534,163.8111],[4.8846,50.1412,150.0025],[4.8954,50.1398,180.162],[4.8957,50.1363,180.1797],[4.8778,50.1284,199.0192],[4.8691,50.1198,178.9777],[4.8724,50.0922,258.8019],[4.8682,50.09,300.1486],[4.8635,50.0917,277.9423],[4.8598,50.0983,175.0533],[4.8501,50.1002,141.5533],[4.8402,50.093,156.1304],[4.8453,50.0838,297.8864],[4.8405,50.0828,314.3632],[4.8392,50.0697,348.3306],[4.8208,50.0653,194.1669],[4.8192,50.0607,191.5604],[4.828,50.0569,199.194],[4.8281,50.0499,195.7537],[4.8372,50.0463,200.0556],[4.8401,50.0403,207.1331],[4.8206,50.0237,259.7355],[4.8152,49.9925,328.1652],[4.806,49.9842,346.4964],[4.7956,49.9822,387.319],[4.79,49.9689,427.9976],[4.7909,49.9584,456.9937],[4.8452,49.9489,506.1786],[4.8584,49.9337,425.2626],[4.8787,49.9219,390.5428],[4.8852,49.9122,410.8647],[4.8829,49.8984,382.5775],[4.8619,49.8698,162.4204],[4.8515,49.8627,196.7241],[4.8551,49.849,245.6886],[4.8586,49.8426,278.7053],[4.8674,49.8386,358.1229],[4.8736,49.819,345.2142],[4.8551,49.7946,378.4996],[4.8617,49.7893,377.9038],[4.875,49.7932,377.7286],[4.8873,49.788,289.5873],[4.8976,49.7889,344.341],[4.9062,49.7856,402.7082],[4.9213,49.7885,403.7448],[4.9314,49.7867,422.2],[4.9356,49.7913,428.3034],[4.943,49.7907,427.4017],[4.9467,49.7971,345.253],[4.9557,49.8005,325.1731],[4.9796,49.8006,335.6483],[4.9815,49.8042,391.1201],[4.9784,49.8041,385.1042],[4.9795,49.8066,383.1354],[4.9874,49.8129,279.9168],[4.9911,49.8206,217.6999]]]]}}