{"type": "Feature","bbox": [4.216,51.0753,4.7882999999999996,51.4848],"geometry": {"type": "MultiPolygon","coordinates": [[[[4.5206,51.1312,9.4049],[4.5205,51.1325,17.0129],[4.5299,51.1386,6.7362],[4.5298,51.1428,8.3085],[4.5262,51.1475,9.5371],[4.5272,51.1523,12.3413],[4.5416,51.1632,11.3944],[4.55,51.1661,9.0775],[4.5591,51.1682,7.2403],[4.5625,51.159,7.0716],[4.5754,51.1508,6.838],[4.6013,51.1503,15.8047],[4.6043,51.1507,13.655],[4.6342,51.1692,6.0635],[4.6468,51.172,6.2808],[4.6558,51.1763,3.5789],[4.6809,51.1821,6.8777],[4.7062,51.181399999999996,7.5792],[4.7077,51.1922,17.4098],[4.7395,51.2106,9.8584],[4.7418,51.2177,13.5466],[4.7423,51.2447,24.7655],[4.7578,51.2451,16.548],[4.7675,51.2481,13.2649],[4.7729,51.2515,15.6746],[4.7739,51.2589,15.8213],[4.7858,51.2758,22.6642],[4.7882999999999996,51.284,17.7354],[4.7829,51.2908,18.7178],[4.7823,51.3112,26.6166],[4.7758,51.3137,28.725],[4.7725,51.3178,28.9776],[4.7668,51.3208,25.2486],[4.7439,51.3264,26.4184],[4.7216,51.3269,28.953],[4.722,51.3473,29.2931],[4.7264,51.3563,26.2809],[4.7268,51.376,25.8996],[4.7224,51.376,22.2901],[4.722,51.3877,21.9113],[4.7146,51.4003,18.7753],[4.7178,51.4054,17.2416],[4.7182,51.4089,15.6139],[4.7125,51.4167,14.4683],[4.6954,51.4245,13.943],[4.679,51.4296,11.6067],[4.6791,51.4254,12.21],[4.6628,51.4273,11.2872],[4.6613,51.4247,12.3103],[4.6548,51.4254,12.0619],[4.6474,51.4236,10.8159],[4.6406,51.424,12.8627],[4.6326,51.4268,13.3967],[4.6143,51.4277,12.9928],[4.5909,51.431399999999996,12.9036],[4.5372,51.4236,12.7742],[4.5304,51.4471,15.7996],[4.552,51.4721,13.3655],[4.5378,51.4848,31.0711],[4.4933,51.4801,10.5179],[4.4786,51.481,10.1028],[4.4668,51.4765,9.0758],[4.4428,51.4711,10.3121],[4.409,51.4588,11.6778],[4.3954,51.4484,12.6184],[4.3923,51.4172,35.1475],[4.3999,51.4036,34.645],[4.4246,51.386,31.2596],[4.4275,51.3762,35.8365],[4.4216,51.3674,26.0966],[4.3967,51.36,13.1075],[4.3464,51.3607,22.019],[4.3374,51.3813,4.1403],[4.2807,51.3803,0.9561],[4.277,51.3769,3.1103],[4.2212,51.3761,0.0],[4.216,51.3702,0.0],[4.2222,51.3657,0.0],[4.2234,51.3592,0.0],[4.2306,51.3575,0.0],[4.2427,51.3516,0.0],[4.2666,51.3313,0.0],[4.2699,51.3261,0.0],[4.2713,51.3113,0.0],[4.2752,51.3028,0.0],[4.2803,51.2965,4.7592],[4.2997,51.2881,5.6588],[4.3046,51.2836,6.6567],[4.3044,51.2771,7.3731],[4.294,51.2626,0.0],[4.2974,51.2455,0.0],[4.302,51.2335,-0.0716],[4.32,51.2057,7.1781],[4.3271,51.1988,11.1908],[4.3261,51.1375,0.0],[4.3179,51.1276,0.0],[4.314,51.1118,6.0128],[4.3266,51.099,3.0833],[4.3432,51.098,10.5407],[4.3572,51.0904,5.2771],[4.3596,51.0865,5.056],[4.4128,51.0848,8.0499],[4.427,51.08,5.0506],[4.4433,51.0792,13.668],[4.4556,51.0753,2.2637],[4.4617,51.0789,2.9201],[4.4731,51.0793,11.5734],[4.4719,51.0863,11.6075],[4.4617,51.0988,22.1739],[4.4698,51.1087,13.3673],[4.4774,51.1122,12.8173],[4.4975,51.1124,7.8202],[4.5011,51.1172,8.6938],[4.516,51.1263,7.4437],[4.5206,51.1312,9.4049]]]]}
,"properties": {"GID_3": "BEL.2.1.1_1","GID_0": "BEL","country": "Belgium","GID_1": "BEL.2_1","state": "Vlaanderen","NL_NAME_1": "NA","GID_2": "BEL.2.1_1","county": "Antwerpen","NL_NAME_2": "NA","city": "Antwerpen","VARNAME_3": "Anvers","NL_NAME_3": "NA","TYPE_3": "Arrondissement","ENGTYPE_3": "Arrondissement","CC_3": "NA","HASC_3": "BE.AN.AW","name": "Antwerpen.city","area_km2": 1022.8674,"hist_schema_id": "Elevation0-9000","hist_area_km2": {"0": 425.3168,"25": 585.6917,"50": 11.8589}}}