{"type": "Feature","id": "3482","bbox": [4.09022,50.52717,5.0191,50.80867],"geometry": {"type": "Polygon","coordinates": [[[5.0191,50.75193,77.4865],[4.98144,50.77094,67.9969],[4.93235,50.74629,79.292],[4.91721,50.7448,96.1869],[4.90455,50.75156,83.3677],[4.90455,50.75157,83.3677],[4.90806,50.76957,53.6855],[4.90805,50.76957,53.6855],[4.83261,50.76464,99.7228],[4.83262,50.76465,97.1934],[4.8369,50.77549,83.3776],[4.83689,50.77549,83.3776],[4.81293,50.77689,98.7024],[4.79153,50.79947,95.1196],[4.74962,50.80867,92.0144],[4.72285,50.80257,92.5072],[4.71417,50.78981,93.5361],[4.71416,50.78982,93.5361],[4.71024,50.7973,80.1639],[4.71024,50.7973,80.1639],[4.69267,50.79099,99.8169],[4.64048,50.79957,34.0772],[4.63635,50.774,31.9742],[4.63635,50.77399,31.9742],[4.65463,50.7584,36.2354],[4.65464,50.75839,36.2354],[4.63521,50.74407,90.4804],[4.60183,50.74293,85.4675],[4.60182,50.74295,85.4675],[4.59656,50.76469,44.4078],[4.59655,50.76469,44.4078],[4.57294,50.74836,91.426],[4.52917,50.74182,97.179],[4.52695,50.72945,75.1962],[4.49512,50.74107,81.3503],[4.49021,50.74609,86.1479],[4.49021,50.74609,86.1479],[4.49455,50.75761,103.1458],[4.49453,50.75761,103.1458],[4.48003,50.75895,96.038],[4.45801,50.75456,147.0431],[4.42173,50.73655,124.5717],[4.37368,50.73182,121.3874],[4.36789,50.71674,100.0886],[4.34903,50.71761,123.2296],[4.32991,50.73431,87.8898],[4.32262,50.72904,99.5857],[4.32262,50.72903,99.5857],[4.33325,50.71905,103.2031],[4.33326,50.71903,103.2031],[4.31141,50.7188,64.7848],[4.30877,50.70356,143.1678],[4.30185,50.69829,138.1413],[4.28722,50.69524,120.4577],[4.25957,50.70108,113.8298],[4.23999,50.69203,95.753],[4.20743,50.70909,53.6759],[4.18025,50.70873,76.5555],[4.1586,50.72785,70.469],[4.14904,50.73038,64.2119],[4.13912,50.72795,73.607],[4.13183,50.71694,54.3593],[4.10749,50.7172,67.1799],[4.09975,50.70714,83.6987],[4.11244,50.70688,65.7613],[4.0942,50.70347,71.6807],[4.09022,50.6906,63.8325],[4.09136,50.65365,66.4607],[4.10112,50.63603,80.2506],[4.11864,50.63133,86.8019],[4.14185,50.63358,102.5196],[4.17332,50.66109,78.2169],[4.18432,50.66388,65.5012],[4.20365,50.64771,113.1405],[4.19859,50.62678,134.661],[4.25197,50.6182,116.5083],[4.24649,50.59733,75.9243],[4.27894,50.59301,117.0429],[4.30411,50.56813,131.614],[4.33362,50.57001,161.76],[4.33083,50.54456,153.6348],[4.35584,50.56239,155.722],[4.41253,50.56627,153.2594],[4.42297,50.55934,163.93],[4.46808,50.55955,138.0117],[4.47288,50.55441,147.5005],[4.47009,50.52973,151.79],[4.50306,50.54069,158.8495],[4.50188,50.53139,156.6162],[4.51655,50.52717,144.1759],[4.57675,50.54343,156.9205],[4.57319,50.56043,151.512],[4.59014,50.56893,141.285],[4.60781,50.57048,149.7987],[4.64419,50.56224,151.759],[4.66662,50.56544,160.4128],[4.65504,50.59658,148.2868],[4.6661,50.60849,156.788],[4.67577,50.60854,153.8565],[4.70372,50.59606,160.1512],[4.70827,50.60709,158.2562],[4.73411,50.61167,164.8016],[4.74047,50.59156,153.8124],[4.78072,50.60161,161.8685],[4.79194,50.59097,169.9587],[4.78806,50.60262,165.9066],[4.79323,50.60567,158.675],[4.9004,50.62368,142.6197],[4.90144,50.62983,150.3877],[4.92795,50.62836,146.6314],[4.95084,50.64797,140.0798],[4.98257,50.64337,139.8314],[5.00179,50.66616,123.1882],[5.00076,50.69579,99.8608],[5.01657,50.70295,104.1375],[4.99197,50.72533,84.5272],[5.01585,50.73349,75.5004],[5.0191,50.75193,77.4865]]]}
,"properties": {"ISO3166-1-Alpha-3": "BEL","country": "Belgium","fill": "#FF0","name": "Walloon Brabant","area_km2": 1095.6792,"hist_schema_id": "Elevation0-9000","hist_area_km2": {"-75": 0.0672,"-50": 0.1747,"-25": 0.0672,"0": 0.2419,"25": 5.9283,"50": 77.383,"75": 163.2498,"100": 256.5344,"125": 331.2316,"150": 254.543,"175": 6.1504,"200": 0.1076}}}