{"type": "Feature","bbox": [4.0889,50.5259,5.0257,50.8028],"geometry": {"type": "MultiPolygon","coordinates": [[[[4.5455,50.533,155.8429],[4.5586,50.5356,148.7042],[4.5827,50.5367,146.9552],[4.5795,50.5513,154.4052],[4.6112,50.5654,153.1032],[4.6173,50.5651,151.5772],[4.6181,50.5623,152.9219],[4.6468,50.5603,158.9496],[4.662,50.5609,162.5814],[4.6752,50.5643,161.6667],[4.677,50.5689,156.3135],[4.6727,50.5794,161.1375],[4.6622,50.5931,145.8497],[4.6627,50.597,153.7318],[4.665,50.6,159.4696],[4.6752,50.5999,155.4973],[4.6917,50.5942,161.3325],[4.7021,50.5933,157.8283],[4.7102,50.5957,157.1434],[4.7231,50.6049,167.4544],[4.7349,50.6087,163.5574],[4.7463,50.5932,154.4107],[4.7502,50.5909,149.8445],[4.7564,50.5905,152.8013],[4.7761,50.5996,153.8915],[4.7907,50.6028,164.8742],[4.8237,50.6034,158.2686],[4.8488,50.6064,155.4602],[4.867,50.6058,144.7796],[4.8879,50.6088,148.6581],[4.8996,50.6127,144.0333],[4.9115,50.6205,139.9385],[4.9486,50.6262,135.6481],[4.9558,50.6355,143.9456],[4.9681,50.6446,136.3708],[4.9757,50.6448,143.0808],[4.9909,50.6413,136.7462],[5.0018,50.6488,141.0561],[5.012,50.6618,129.1738],[5.0141,50.6848,108.6093],[5.0196,50.6992,112.5822],[5.0177,50.7122,73.3135],[5.0148,50.7171,92.4359],[5.0153,50.7315,76.8672],[5.0257,50.7476,89.513],[5.0189,50.7518,77.4865],[5.0096,50.7619,63.0146],[4.9986,50.7652,45.323],[4.9804,50.7631,57.7514],[4.9778,50.7588,69.0133],[4.9727,50.756,78.5947],[4.9557,50.7537,77.3979],[4.9275,50.7459,80.1929],[4.9014,50.7471,82.5894],[4.8801,50.7424,65.2756],[4.8715,50.7426,65.1227],[4.8642,50.7469,67.6568],[4.8617,50.7555,92.6914],[4.8594,50.7583,94.2697],[4.8411,50.7638,93.7827],[4.8356,50.7661,95.5119],[4.8295,50.7717,83.9793],[4.8111,50.7783,98.9723],[4.8071,50.7822,93.576],[4.8048,50.7891,92.8976],[4.794,50.796,102.1151],[4.7678,50.8026,116.4027],[4.7526,50.8028,94.2984],[4.7241,50.7949,90.7339],[4.709,50.787,86.0477],[4.6827,50.7876,60.9688],[4.6444,50.7914,26.0],[4.6419,50.7842,32.7185],[4.6417,50.776,28.0515],[4.6495,50.76,34.7771],[4.6502,50.7555,34.6551],[4.6476,50.7505,92.5411],[4.6433,50.7492,98.0886],[4.6092,50.7504,90.3053],[4.593,50.7585,56.8787],[4.5867,50.7575,78.1642],[4.5804,50.7556,77.7581],[4.5756,50.7518,85.2263],[4.5715,50.7424,79.2257],[4.5439,50.7404,88.4866],[4.5224,50.7295,57.6108],[4.5075,50.728,72.819],[4.4953,50.7294,69.4848],[4.4857,50.7418,77.9725],[4.4851,50.7532,100.5558],[4.469,50.7524,114.28],[4.4608,50.75,114.7569],[4.454,50.7459,113.7131],[4.443,50.7379,140.2199],[4.4349,50.7293,87.3494],[4.4213,50.7339,127.0884],[4.4087,50.7339,121.2791],[4.3749,50.7278,117.4484],[4.3718,50.7245,115.4095],[4.3697,50.7142,99.8829],[4.3612,50.7076,110.1702],[4.3442,50.7241,113.5732],[4.3315,50.7292,113.5914],[4.331,50.723,104.2133],[4.3276,50.7176,102.8807],[4.316,50.7121,112.8186],[4.3037,50.6964,130.0003],[4.273,50.6981,118.2602],[4.2621,50.6941,94.9094],[4.2349,50.6915,77.2254],[4.2053,50.7031,50.4635],[4.1726,50.7061,69.5767],[4.1505,50.7196,51.566],[4.1258,50.7206,59.8072],[4.1138,50.7158,73.9143],[4.0985,50.7004,70.1958],[4.0942,50.6938,64.3732],[4.0936,50.6862,61.2487],[4.0963,50.6745,75.7538],[4.0889,50.665,70.6153],[4.0898,50.6555,59.1808],[4.1064,50.6332,98.0981],[4.1143,50.6282,86.6077],[4.1274,50.6252,85.9986],[4.1459,50.6267,107.2656],[4.1526,50.6302,104.8316],[4.1604,50.6437,83.9048],[4.1812,50.6578,62.0046],[4.2014,50.6594,102.3492],[4.2135,50.6469,109.9429],[4.2139,50.6426,113.6786],[4.21,50.6301,111.3842],[4.2125,50.6237,95.4278],[4.232,50.6175,82.7737],[4.2606,50.6145,138.7243],[4.2578,50.6018,103.4733],[4.2582,50.5965,95.6224],[4.2602,50.5938,91.9259],[4.286,50.588,102.3734],[4.312,50.5703,139.7646],[4.3365,50.5617,149.2784],[4.3449,50.5541,158.7801],[4.357,50.5543,150.5019],[4.3765,50.5582,151.5728],[4.4283,50.5607,163.5963],[4.4446,50.558,155.7836],[4.4666,50.5482,145.8154],[4.4741,50.5346,162.1771],[4.4786,50.5321,152.7727],[4.4993,50.5358,157.5711],[4.5031,50.5344,151.5397],[4.512,50.5259,146.0772],[4.5227,50.5268,147.0619],[4.5455,50.533,155.8429]]]]}
,"properties": {"GID_2": "BEL.3.1_1","GID_0": "BEL","country": "Belgium","GID_1": "BEL.3_1","state": "Wallonie","NL_NAME_1": "NA","county": "BrabantWallon","VARNAME_2": "WaalsBrabant|WalloonBrabant","NL_NAME_2": "NA","TYPE_2": "Province","ENGTYPE_2": "Provincie","CC_2": "NA","HASC_2": "BE.BW","name": "BrabantWallon.county","area_km2": 1101.4559,"hist_schema_id": "Elevation0-9000","hist_area_km2": {"-75": 0.0672,"-50": 0.1747,"-25": 0.0672,"0": 0.2419,"25": 4.1054,"50": 70.0045,"75": 154.1305,"100": 254.0483,"125": 328.8856,"150": 281.2918,"175": 8.3312,"200": 0.1076}}}