{"type":"Feature","properties":{"featurecla":"River","scalerank":8,"rivernum":821,"dissolve":"821River","name":"Schelde1","name_alt":"Steldt","note":null,"min_zoom":7.0,"strokeweig":0.2,"name_en":"Schelde","min_label":8.0},
"geometry":{"type": "LineString","coordinates": [[3.2877441406250232,50.23712799686912,67.2066],[3.3194824218750232,50.27924225468162,36.3866],[3.3368164062500232,50.29474518436912,31.9398],[3.3570800781250232,50.30646393436912,36.0177],[3.3817382812500232,50.31574127811912,31.3264],[3.406005859375,50.31952545780662,36.7769],[3.44921875,50.31549713749412,28.6408],[3.47119140625,50.31696198124412,27.0247],[3.4916015625000232,50.32746002811912,27.3744],[3.5060058593750232,50.34552643436912,21.5365],[3.5313964843750232,50.38580963749412,22.7868],[3.5816894531250232,50.431659246869117,24.9642],[3.5868164062500232,50.43891022343162,20.9428],[3.58349609375,50.444598699994117,24.1283],[3.572509765625,50.45307037968162,23.1704],[3.557373046875,50.46161530155662,17.6929],[3.45263671875,50.50092194218162,17.3383],[3.4381347656250232,50.509051824994117,24.9078],[3.4381347656250232,50.509051824994117,24.9078],[3.4381347656250232,50.509051824994117,24.9078],[3.4381347656250232,50.509051824994117,24.9078],[3.4381347656250232,50.509051824994117,24.9078],[3.4303222656250232,50.521356512494116,13.6507],[3.4293457031250232,50.53583405155662,16.9486],[3.435791015625,50.56635162968162,48.3121],[3.4347167968750232,50.57965729374412,25.8126],[3.426513671875,50.58734772343162,20.4975],[3.403564453125,50.599139715619117,13.8387],[3.3829589843750232,50.61749909061912,15.8328],[3.3670898437500232,50.63654205936912,13.3164],[3.3561035156250232,50.65814850468162,10.9204],[3.3502441406250232,50.684198309369116,11.2129],[3.3673339843750232,50.71735260624412,10.3246],[3.4127441406250232,50.74738190311912,15.7726],[3.5929199218750232,50.83222077030662,12.8919],[3.60595703125,50.84235260624412,15.3441],[3.6368652343750232,50.877948309369117,7.6306],[3.646484375,50.884295965619117,10.7721],[3.667236328125,50.89301178593162,6.9741],[3.6771484375000232,50.89960358280662,7.0859],[3.683349609375,50.910663153119117,6.1147],[3.6759277343750232,50.91730377811912,10.548],[3.6637207031250232,50.923456121869116,17.7826],[3.656005859375,50.93305084843162,8.0073],[3.6552734375,50.947381903119116,5.6598],[3.6605468750000232,50.95136139530662,5.8044],[3.6700683593750232,50.951922918744117,7.6294],[3.68212890625,50.956073309369117,4.0954],[3.7076660156250232,50.974237371869116,7.1326],[3.72802734375,50.99420807499412,4.5856],[3.7437988281250232,51.017352606244117,7.5126],[3.7552734375000232,51.04559967655662,5.8354],[3.7552734375000232,51.04559967655662,5.8354],[3.7552734375000232,51.04559967655662,5.8354],[3.7552734375000232,51.04559967655662,5.8354],[3.7552734375000232,51.04559967655662,5.8354],[3.7794433593750232,51.04254791874412,3.752],[3.793212890625,51.033710028119117,3.2662],[3.8048339843750232,51.02155182499412,7.543],[3.8229003906250232,51.008661199994116,5.0073],[3.83642578125,51.00348541874412,4.1279],[3.84716796875,51.00287506718162,3.5387],[3.873046875,51.00873444218162,5.3278],[3.9896484375000232,51.015008856244116,1.7467],[4.0107421875,51.01312897343162,3.2875],[4.0208984375000227,51.013544012494116,0.7203],[4.0326171875000227,51.01825592655662,1.4551],[4.0416503906250227,51.026483465619116,1.0059],[4.054931640625,51.045282293744116,3.2524],[4.06640625,51.05206940311912,2.9007],[4.079345703125,51.053827215619116,1.4069],[4.08935546875,51.051044012494117,1.9253],[4.098876953125,51.046502996869116,3.9805],[4.1103515625,51.04315827030662,0.7746]]}}