{"type": "Feature","bbox": [3.6436,50.3032,4.0866,50.6164],"geometry": {"type": "MultiPolygon","coordinates": [[[[3.8142,50.3513,133.5436],[3.8117,50.3449,138.4082],[3.8218,50.3459,144.4577],[3.825,50.3521,134.8558],[3.8401,50.3539,142.2258],[3.8576,50.3479,142.6898],[3.8707,50.3387,146.3346],[3.8858,50.3395,146.4478],[3.8889,50.3333,151.0125],[3.8861,50.3271,153.2586],[3.9009,50.3275,153.0533],[3.9198,50.3322,145.6775],[3.9618,50.3481,127.9138],[3.9671,50.3475,124.5542],[3.9674,50.3406,136.8548],[3.9721,50.3465,128.4691],[3.9869,50.3425,125.4094],[3.9932,50.3477,126.3582],[4.0137,50.3513,117.6004],[4.0252,50.3579,96.944],[4.0354,50.3458,122.7021],[4.0487,50.3635,123.8343],[4.0553,50.3684,118.6873],[4.0561,50.3711,109.0722],[4.0549,50.3772,90.9163],[4.0421,50.3929,70.48],[4.0388,50.3944,62.4555],[4.0394,50.4006,75.6427],[4.044,50.4094,70.4794],[4.0573,50.4264,90.0807],[4.0644,50.4306,85.3832],[4.0656,50.4421,70.4452],[4.0714,50.4437,80.2342],[4.0863,50.4436,65.4962],[4.0866,50.4766,89.2469],[4.0755,50.4769,70.3168],[4.062,50.4828,68.3324],[4.0488,50.4936,99.4558],[4.0473,50.4995,110.492],[4.0405,50.502,109.5472],[4.038,50.5078,106.7753],[4.0326,50.5116,98.6968],[4.0217,50.5145,90.6491],[3.9924,50.5148,100.3624],[3.9847,50.517,104.2776],[3.9984,50.5237,95.0194],[3.9996,50.526,96.7967],[3.9948,50.5352,103.4323],[3.9837,50.5499,100.9709],[3.982,50.556399999999996,94.9936],[3.9787,50.5611,92.4356],[3.9778,50.5784,95.0835],[3.9731,50.5871,91.9056],[3.9662,50.5926,82.5251],[3.9648,50.6005,75.6974],[3.9503,50.6099,89.5051],[3.9275,50.6155,63.7612],[3.9137,50.6164,71.0049],[3.9125,50.6008,84.7629],[3.9029,50.5917,62.7748],[3.8869,50.5814,63.1818],[3.8765,50.5803,70.5623],[3.865,50.5829,63.1369],[3.8452,50.5832,53.5651],[3.8432,50.5761,55.7498],[3.836,50.5674,56.5081],[3.8351,50.5562,63.0208],[3.8145,50.5488,59.5215],[3.7943,50.5442,68.5816],[3.7695,50.5318,77.8445],[3.7554,50.5307,78.9608],[3.746,50.5247,72.6461],[3.7447,50.5198,78.214],[3.7452,50.4488,20.1819],[3.7128,50.4522,19.601],[3.6815,50.4649,14.5],[3.6627,50.4652,16.7618],[3.6436,50.4633,14.7495],[3.6539,50.4626,17.5603],[3.661,50.4576,22.0689],[3.6604,50.4445,17.8209],[3.6688,50.4365,17.2016],[3.6734,50.4096,25.2578],[3.673,50.3891,38.7661],[3.6578,50.3706,40.1034],[3.6665,50.3623,66.3992],[3.6652,50.349,84.601],[3.6758,50.3415,84.114],[3.6737,50.3349,89.4579],[3.6849,50.3276,97.6364],[3.6908,50.3182,110.1371],[3.7104,50.3032,117.3156],[3.7168,50.3079,123.1149],[3.7144,50.3168,113.5299],[3.7266,50.3108,129.2016],[3.7317,50.3119,121.9336],[3.7298,50.3269,116.7312],[3.7345,50.3323,91.9135],[3.7351,50.3393,92.7278],[3.7428,50.3481,110.2977],[3.7636,50.3481,120.9946],[3.7655,50.3512,114.7044],[3.781,50.3533,119.6159],[3.7966,50.3514,125.3198],[3.8057,50.3546,129.5221],[3.8142,50.3513,133.5436]]]]}
,"properties": {"GID_3": "BEL.3.2.4_1","GID_0": "BEL","country": "Belgium","GID_1": "BEL.3_1","state": "Wallonie","NL_NAME_1": "NA","GID_2": "BEL.3.2_1","county": "Hainaut","NL_NAME_2": "NA","city": "Mons","VARNAME_3": "Bergen","NL_NAME_3": "NA","TYPE_3": "Arrondissement","ENGTYPE_3": "Arrondissement","CC_3": "NA","HASC_3": "BE.HT.MN","name": "Mons.city","area_km2": 610.2998,"hist_schema_id": "Elevation0-9000","hist_area_km2": {"25": 116.8789,"50": 122.7892,"75": 206.5351,"100": 89.8609,"125": 54.4857,"150": 19.5741,"175": 0.1759}}}