{"type":"Feature","properties":{"ISO3166-1-Alpha-3":"BEL","country":"Belgium","fill":"#FF0","id":"3","name":"Limburg"},
"geometry":{"type": "MultiPolygon","coordinates": [[[[5.78293,50.7567,103.3423],[5.76247,50.77101,101.3968],[5.75244,50.77344,132.6438],[5.74356,50.7691,123.4974],[5.73278,50.75885,82.9522],[5.7353,50.75637,85.6575],[5.75028,50.74686,104.8025],[5.77597,50.7512,111.3472],[5.81829,50.7156,250.7904],[5.85415,50.71885,280.6716],[5.87818,50.711,278.7183],[5.88692,50.71335,274.8593],[5.91017,50.73596,279.6305],[5.91016,50.73597,279.6305],[5.89129,50.75125,247.7372],[5.87988,50.75354,166.3597],[5.79317,50.75215,109.8921],[5.78293,50.7567,103.3423]]],
[[[5.5352,51.26204,32.55],[5.5167,51.27723,36.9178],[5.49324,51.28653,33.0078],[5.47163,51.28809,35.5322],[5.45189,51.28212,30.0355],[5.40993,51.26354,35.0146],[5.38906,51.25871,41.3039],[5.27072,51.26183,47.6168],[5.23946,51.25693,48.435],[5.22741,51.25067,49.5676],[5.21651,51.21248,43.4591],[5.25718,51.18848,40.1223],[5.26043,51.14807,42.0079],[5.23537,51.13404,37.7325],[5.20302,51.14001,32.8021],[5.18039,51.11921,33.7933],[5.13026,51.11755,36.4686],[5.08985,51.0852,24.5352],[5.0098,51.07513,14.8449],[5.0097,51.06143,19.9375],[4.98092,51.03601,22.2901],[5.00634,51.0404,23.1751],[5.02246,51.02066,30.0247],[5.04251,51.02557,31.4158],[5.06318,51.01745,19.7303],[5.08101,51.02448,22.1934],[5.08086,51.04955,31.2299],[5.10892,51.05187,34.192],[5.13119,51.04546,22.7348],[5.15827,51.0235,44.3909],[5.13295,51.01699,34.2098],[5.12778,51.02495,33.5066],[5.11796,51.02335,24.3378],[5.12437,50.99983,27.552],[5.08262,50.98774,19.1429],[5.08169,50.96565,20.1541],[5.04148,50.94309,68.728],[5.05466,50.92123,44.9374],[5.06122,50.91803,27.0567],[5.07781,50.92258,23.0128],[5.09455,50.91098,39.3936],[5.13315,50.92253,21.7868],[5.13662,50.91459,23.9917],[5.17165,50.91431,36.1538],[5.18623,50.9063,49.731],[5.17749,50.87863,35.968],[5.17269,50.87545,32.7387],[5.15321,50.87963,25.1738],[5.13651,50.85026,43.6947],[5.12949,50.81659,41.311],[5.1516,50.81163,52.882],[5.10639,50.78197,75.2105],[5.11455,50.76357,87.4016],[5.10112,50.74331,98.267],[5.12044,50.73602,91.774],[5.10112,50.70977,127.2447],[5.1011,50.70976,127.2447],[5.10113,50.70976,127.2447],[5.16774,50.69725,126.1147],[5.18045,50.70715,126.5893],[5.18044,50.70716,126.5893],[5.16939,50.72356,118.3607],[5.16939,50.72356,118.3607],[5.22892,50.71875,131.6157],[5.23616,50.72823,109.4247],[5.23616,50.72823,109.4247],[5.24338,50.71688,119.0502],[5.24339,50.71686,119.0502],[5.27558,50.72945,116.9974],[5.30737,50.71839,105.6514],[5.31227,50.72971,119.8426],[5.33212,50.74097,104.1003],[5.37821,50.75084,99.5198],[5.39175,50.74712,112.0207],[5.39175,50.74712,112.0207],[5.40409,50.7275,116.66],[5.4041,50.72748,116.66],[5.43098,50.72087,127.5156],[5.45325,50.72226,134.6256],[5.46115,50.73996,113.2357],[5.48084,50.7264,132.7669],[5.49681,50.72885,127.8968],[5.52384,50.74376,127.7199],[5.52193,50.76004,105.7852],[5.60848,50.77642,109.1326],[5.65743,50.80764,114.5353],[5.64072,50.81504,100.2731],[5.62449,50.83028,87.6264],[5.62232,50.85266,81.4372],[5.69446,50.90366,42.0025],[5.70604,50.90661,40.6409],[5.71761,50.90925,40.197],[5.72237,50.91167,39.6534],[5.73529,50.92397,40.8119],[5.75255,50.94723,38.3639],[5.76402,50.95942,60.447],[5.7543,50.96309,43.833],[5.74469,50.96325,39.6307],[5.72237,50.95942,31.3991],[5.76175,50.99916,33.9996],[5.77756,51.02355,34.7505],[5.76402,51.03518,31.5166],[5.7664,51.04844,26.7419],[5.77146,51.05812,26.8834],[5.77963,51.0613,28.6203],[5.7913,51.055,29.3454],[5.79885,51.06148,28.8429],[5.80433,51.06859,28.6763],[5.81177,51.08231,28.3392],[5.80898,51.08634,34.8855],[5.80743,51.08939,27.5961],[5.80495,51.09662,22.8694],[5.8159,51.09587,22.7488],[5.82665,51.09691,23.037],[5.83678,51.09949,25.9627],[5.84598,51.10339,29.5974],[5.82324,51.11874,25.2499],[5.82644,51.13016,21.0052],[5.8405,51.13892,19.5],[5.83802,51.14373,19.5],[5.82913,51.15647,23.1289],[5.81208,51.15732,28.8649],[5.78138,51.15241,28.5935],[5.76805,51.15946,28.6368],[5.74717,51.1776,31.2814],[5.73084,51.18375,30.4939],[5.71803,51.1846,31.2662],[5.67617,51.17918,38.1929],[5.65901,51.17907,35.9841],[5.64816,51.18396,32.5997],[5.63855,51.19091,40.5473],[5.62501,51.1969,34.9829],[5.56837,51.20765,37.1732],[5.55141,51.21677,39.3314],[5.54553,51.21992,36.592],[5.54233,51.24266,36.1749],[5.5352,51.26204,32.55]]]]}}