{"type":"Feature","properties":{"GID_2":"BEL.2.2_1","GID_0":"BEL","country":"Belgium","GID_1":"BEL.2_1","state":"Vlaanderen","NL_NAME_1":"NA","county":"Limburg","VARNAME_2":"Limbourg|Limburgo","NL_NAME_2":"NA","TYPE_2":"Provincie","ENGTYPE_2":"Province","CC_2":"NA","HASC_2":"BE.LI","name":"Limburg.county"},
"geometry":{"type": "MultiPolygon","coordinates": [[[[5.3822,50.7429,120.8693],[5.4047,50.7452,111.4257],[5.4079,50.7435,117.1887],[5.4102,50.7365,97.7151],[5.4098,50.7223,129.1996],[5.413,50.7182,120.7164],[5.4359,50.7127,135.5901],[5.4539,50.7152,137.2373],[5.4691,50.7238,135.2106],[5.4946,50.7259,127.8909],[5.5005,50.7316,131.6532],[5.5323,50.7397,95.2778],[5.5332,50.7465,93.9164],[5.5382,50.755,82.1642],[5.5523,50.7621,135.7858],[5.5674,50.7624,138.0226],[5.5988,50.7676,119.3815],[5.6305,50.7753,113.7701],[5.6582,50.7909,97.3436],[5.678,50.8046,55.7926],[5.691,50.8092,78.6487],[5.6725,50.8196,56.6431],[5.6605,50.822,108.7224],[5.6525,50.8296,75.1283],[5.6497,50.8369,75.0483],[5.6475,50.852,80.9188],[5.6479,50.8601,64.9497],[5.652,50.8725,61.2828],[5.6702,50.8803,51.5073],[5.682,50.8804,38.2577],[5.6877,50.8821,45.3145],[5.7035,50.9061,41.6655],[5.7072,50.9079,36.5],[5.7235,50.9091,37.4636],[5.7284,50.9154,40.3532],[5.7322,50.9245,41.5276],[5.7573,50.953,35.0893],[5.7572,50.9564,48.4326],[5.7519,50.9594,35.4461],[5.7377,50.9562,36.0015],[5.731,50.9564,31.7297],[5.725,50.96,34.7887],[5.7258,50.964,35.087],[5.7631,50.9924,35.7343],[5.7707,51.0112,32.9203],[5.7673,51.0113,31.2555],[5.7678,51.0139,28.74],[5.7745,51.0252,27.7774],[5.7699,51.0298,32.8056],[5.7636,51.0327,31.3411],[5.7641,51.0375,28.8628],[5.7827,51.0651,30.8198],[5.7963,51.0621,29.3094],[5.8019,51.0639,29.9411],[5.7998,51.0728,27.4673],[5.8061,51.0808,27.9568],[5.8007,51.0891,27.2114],[5.8032,51.0936,28.1689],[5.8113,51.0959,23.7332],[5.8229,51.0946,21.0],[5.8347,51.1004,22.3507],[5.8364,51.1042,22.0082],[5.8331,51.1092,27.2633],[5.8193,51.1121,26.0683],[5.8157,51.1149,23.2186],[5.8171,51.1208,24.4393],[5.825,51.1293,21.0052],[5.8436,51.135,19.9277],[5.8588,51.146,21.4094],[5.8433,51.154,19.3049],[5.8341,51.1685,28.9936],[5.828,51.1687,30.3163],[5.8228,51.1653,31.4673],[5.8217,51.1626,35.2276],[5.7827,51.1599,34.9656],[5.7861,51.1655,35.9247],[5.7806,51.1696,30.6948],[5.7841,51.1746,29.6668],[5.7817,51.1777,30.0391],[5.7827,51.1813,33.4963],[5.7631,51.1876,30.167],[5.7492,51.19,31.6249],[5.7227,51.182,32.7135],[5.7096,51.1813,33.2393],[5.6554,51.1864,32.5194],[5.6516,51.1999,45.8926],[5.5769,51.2169,36.5165],[5.5603,51.2288,35.1029],[5.5515,51.2665,33.5871],[5.5129,51.293,37.4633],[5.4961,51.2977,29.4008],[5.4895,51.2974,29.0236],[5.4807,51.288,29.521],[5.4478,51.2788,29.6432],[5.4416,51.2739,31.0634],[5.433,51.2713,31.2696],[5.4207,51.2611,32.1665],[5.3576,51.2729,40.8883],[5.3341,51.2638,38.2019],[5.2794,51.2646,42.8639],[5.2649,51.2669,40.9104],[5.2396,51.2623,46.7518],[5.2283,51.2461,48.3917],[5.2271,51.2271,45.3188],[5.2281,51.2173,38.6891],[5.2332,51.2109,39.0631],[5.2467,51.205,44.6538],[5.257,51.1979,58.1329],[5.2645,51.1878,44.9577],[5.2741,51.1642,43.306399999999996],[5.2706,51.1558,40.8786],[5.2582,51.143,43.5866],[5.2177,51.1392,35.7959],[5.2091,51.1327,37.885],[5.202,51.1216,42.7381],[5.146,51.1231,27.4406],[5.1316,51.1145,32.7553],[5.1251,51.1069,25.7204],[5.1014,51.0875,21.8914],[5.0775,51.0838,21.8049],[5.0566,51.0775,20.4],[5.033,51.0766,17.6678],[5.026,51.0749,19.8821],[5.0183,51.07,19.9194],[4.9999,51.0504,38.22],[4.9946,51.0414,24.962],[4.9968,51.0402,40.9782],[5.0168,51.034,49.0903],[5.0304,51.0258,19.5707],[5.0595,51.0247,38.3814],[5.0722,51.0256,26.5295],[5.0888,51.0312,22.1696],[5.0907,51.0341,27.96],[5.092,51.0485,25.1766],[5.0965,51.0514,27.1676],[5.1299,51.0508,22.081],[5.136,51.0491,21.8547],[5.1565,51.036,30.267],[5.1662,51.0245,51.2083],[5.1492,51.016,48.2387],[5.13,51.0088,53.0249],[5.1264,51.0048,32.2397],[5.1251,50.9968,36.1261],[5.1088,50.9933,37.5525],[5.0792,50.9823,17.6357],[5.0771,50.9774,17.5522],[5.0843,50.9661,18.0314],[5.0829,50.959,40.1845],[5.0777,50.954,52.6128],[5.0625,50.9473,51.7319],[5.0521,50.9446,69.3498],[5.0502,50.9388,74.9146],[5.0494,50.9312,47.6852],[5.0548,50.9248,51.3875],[5.0651,50.9191,29.3322],[5.0786,50.9182,32.3475],[5.0887,50.9061,45.7217],[5.112,50.9119,29.6221],[5.1391,50.9118,22.0362],[5.1573,50.9093,27.1196],[5.1897,50.908,49.3875],[5.192,50.9022,48.9466],[5.1925,50.8903,53.9391],[5.1908,50.8858,53.4299],[5.1823,50.8795,36.58],[5.1634,50.8723,27.7295],[5.1587,50.8671,27.7828],[5.1566,50.8557,29.4895],[5.1444,50.8363,35.5681],[5.1392,50.8244,40.3939],[5.1389,50.8174,43.4308],[5.1424,50.8058,62.3881],[5.1402,50.7971,55.6748],[5.1332,50.7919,61.5078],[5.1067,50.7873,65.7526],[5.1138,50.7775,73.7099],[5.115,50.7722,81.9083],[5.1131,50.7672,85.4109],[5.1051,50.7585,90.103],[5.1062,50.7448,94.5478],[5.1083,50.7381,100.7792],[5.1132,50.7316,108.4907],[5.1174,50.7178,114.8657],[5.1299,50.7137,117.4191],[5.1425,50.7056,132.5104],[5.1552,50.6921,136.2053],[5.174,50.701,124.285],[5.1777,50.7067,126.8999],[5.18,50.7168,128.7575],[5.1831,50.7192,118.843],[5.2098,50.7222,115.2495],[5.2294,50.7221,122.4945],[5.2471,50.7174,125.2636],[5.2599,50.7169,127.5369],[5.2855,50.724,109.3612],[5.3143,50.7199,103.3588],[5.3239,50.7276,123.6822],[5.3374,50.7334,119.5844],[5.3638,50.7411,124.2965],[5.3822,50.7429,120.8693]]],
[[[5.7849,50.7359,143.0174],[5.7948,50.7299,221.2493],[5.8053,50.718,240.5521],[5.8265,50.7164,251.5262],[5.8565,50.7112,216.7065],[5.8871,50.712,281.6675],[5.8876,50.726,232.5411],[5.8848,50.7395,186.0926],[5.8961,50.7596,198.0834],[5.8812,50.7693,222.9394],[5.8559,50.7612,205.5526],[5.8326,50.764,200.6945],[5.8134,50.7601,176.8328],[5.7934,50.7698,163.73],[5.7907,50.7695,168.0404],[5.7832,50.7799,170.1001],[5.7734,50.785,130.4875],[5.7614,50.7795,134.2718],[5.7546,50.7785,131.0968],[5.7324,50.7627,70.4192],[5.7068,50.7628,57.0076],[5.6954,50.7583,52.1722],[5.6924,50.7603,51.2281],[5.6931,50.7554,53.61],[5.6992,50.7464,64.5058],[5.7065,50.7412,101.1079],[5.7204,50.7409,98.4198],[5.7395,50.745,95.9623],[5.7651,50.738,107.7807],[5.7849,50.7359,143.0174]]]]}}