{"type":"Feature","properties":{"ISO3166-1-Alpha-3":"BEL","country":"Belgium","fill":"#00F","id":"3476","name":"Namur"},
"geometry":{"type": "Polygon","coordinates": [[[4.98257,50.64337,139.8314],[4.95084,50.64797,140.0798],[4.92795,50.62836,146.6314],[4.90144,50.62983,150.3877],[4.9004,50.62368,142.6197],[4.79323,50.60567,158.675],[4.78806,50.60262,165.9066],[4.79194,50.59097,169.9587],[4.78072,50.60161,161.8685],[4.74047,50.59156,153.8124],[4.73411,50.61167,164.8016],[4.70827,50.60709,158.2562],[4.70372,50.59606,160.1512],[4.67577,50.60854,153.8565],[4.6661,50.60849,156.788],[4.65504,50.59658,148.2868],[4.66662,50.56544,160.4128],[4.64419,50.56224,151.759],[4.60781,50.57048,149.7987],[4.59014,50.56893,141.285],[4.57319,50.56043,151.512],[4.57675,50.54343,156.9205],[4.55893,50.49413,142.6238],[4.59479,50.49986,142.0665],[4.58699,50.49061,152.4933],[4.59934,50.47984,142.6629],[4.586,50.45646,167.9233],[4.57247,50.45493,174.3249],[4.58213,50.44788,144.886],[4.57267,50.44178,95.513],[4.61598,50.42519,152.7915],[4.60109,50.40429,199.7855],[4.58513,50.40121,141.9134],[4.60585,50.38574,173.8715],[4.58156,50.36003,229.1125],[4.58787,50.32248,257.3631],[4.52027,50.31543,216.9274],[4.50198,50.33044,216.272],[4.47418,50.32879,234.6212],[4.45376,50.30623,236.7561],[4.39832,50.31122,147.3039],[4.39015,50.29254,148.8974],[4.37217,50.29311,194.197],[4.35925,50.27807,184.7689],[4.32571,50.27662,170.3777],[4.28597,50.25797,203.4575],[4.30246,50.2436,215.3231],[4.33894,50.22978,244.6879],[4.34664,50.23004,230.0155],[4.36514,50.24373,209.2488],[4.38622,50.24076,232.6613],[4.40054,50.23373,206.1053],[4.38845,50.20169,223.0515],[4.39656,50.18735,211.4959],[4.36008,50.16934,268.949],[4.39837,50.12642,224.2715],[4.38535,50.10934,260.8933],[4.38617,50.0693,206.17],[4.39056,50.05297,210.518],[4.40674,50.04932,246.991],[4.41475,49.99731,328.9705],[4.444,49.95897,353.5173],[4.43056,49.93778,338.7061],[4.42772,49.93367,345.6754],[4.42765,49.93357,345.6754],[4.43511,49.93225,344.8303],[4.46477,49.93561,349.9318],[4.60419,49.98021,323.8788],[4.64585,49.9845,258.7013],[4.6567,49.98909,280.6272],[4.6659,50.00052,244.8858],[4.67292,50.01638,372.0536],[4.68057,50.04832,307.2878],[4.67954,50.05519,319.3795],[4.67582,50.0602,332.9142],[4.67344,50.0662,315.5747],[4.67613,50.07607,306.7079],[4.68192,50.08392,267.196],[4.78858,50.15337,145.3026],[4.81555,50.16133,130.2574],[4.8201,50.14645,102.0283],[4.83136,50.1434,99.3773],[4.86268,50.14759,147.9427],[4.87188,50.13978,159.7812],[4.87053,50.12226,238.0669],[4.86516,50.10159,301.0435],[4.86289,50.08408,228.4283],[4.85214,50.09162,305.7917],[4.84604,50.09069,264.9571],[4.82723,50.06408,318.9329],[4.82609,50.05503,233.9535],[4.82764,50.04671,294.9383],[4.82671,50.03602,289.7451],[4.78827,49.97426,428.6031],[4.78392,49.9583,499.8698],[4.79726,49.94429,494.1246],[4.84459,49.93173,353.2889],[4.8602,49.91334,371.7878],[4.86196,49.90031,340.3065],[4.85937,49.89168,317.5584],[4.85431,49.88331,338.6797],[4.84893,49.87107,164.1855],[4.84563,49.86585,234.0917],[4.83674,49.85913,378.33],[4.83488,49.85303,405.5076],[4.83694,49.84802,359.3373],[4.84676,49.83753,328.6655],[4.84924,49.83158,364.2134],[4.84904,49.79417,320.3749],[4.85803,49.78657,341.0698],[4.88418,49.78415,278.8348],[4.9066,49.78647,402.7082],[4.95001,49.79639,370.834],[4.96837,49.79698,403.8915],[4.96851,49.79727,394.2375],[4.97177,49.80389,402.9987],[4.97627,49.82094,354.8876],[4.98918,49.82337,208.8146],[4.98066,49.84254,197.2788],[4.98495,49.85127,383.7226],[5.05993,49.8861,447.1703],[5.04324,49.89685,420.446],[5.06871,49.91241,409.6929],[5.11889,49.9253,357.4974],[5.09724,49.93928,434.5174],[5.10096,49.96155,382.2429],[5.07176,49.97129,375.2292],[5.06256,49.98478,367.9466],[5.02004,49.97928,357.3286],[5.00944,49.98271,360.6495],[4.99652,50.01535,398.2015],[4.97218,50.03064,400.3829],[4.99115,50.03033,350.9425],[4.99818,50.04583,305.2001],[5.00732,50.03968,403.3797],[5.01699,50.04183,337.667],[5.04965,50.06371,340.319],[5.06019,50.08061,238.0738],[5.05151,50.08632,223.103],[5.06623,50.12477,166.52],[5.07207,50.09676,214.5283],[5.09331,50.09201,295.1023],[5.187,50.09622,224.5131],[5.20829,50.09906,242.234],[5.23537,50.11131,239.7001],[5.26219,50.1096,264.1585],[5.26726,50.1203,271.0228],[5.24178,50.13554,295.3695],[5.27025,50.14144,240.6651],[5.27955,50.15947,345.4241],[5.24405,50.18601,285.1172],[5.24555,50.19621,274.4709],[5.23351,50.19626,188.4988],[5.24436,50.20619,200.4424],[5.20586,50.21991,190.6595],[5.22447,50.22825,195.8174],[5.25325,50.22706,265.5449],[5.25072,50.23885,217.531],[5.27304,50.24854,239.5969],[5.284,50.24923,216.341],[5.29449,50.24045,223.0328],[5.36518,50.2697,179.6545],[5.39267,50.28807,165.5421],[5.39366,50.30323,160.3837],[5.38337,50.31918,212.412],[5.36022,50.31814,188.5375],[5.34777,50.30665,248.2262],[5.34007,50.31184,258.2935],[5.39443,50.33775,202.2304],[5.38022,50.34964,233.5945],[5.4012,50.36757,312.3795],[5.39242,50.38047,283.518],[5.34994,50.38974,281.9415],[5.29511,50.36618,315.8572],[5.28126,50.37845,259.6833],[5.2824,50.39695,271.0295],[5.23279,50.40555,252.9517],[5.22049,50.41842,268.0051],[5.23609,50.43806,229.7024],[5.21759,50.46467,226.3381],[5.19594,50.47862,255.7903],[5.16209,50.46994,260.5792],[5.15103,50.48188,186.3639],[5.15605,50.49061,213.8281],[5.13626,50.48875,160.5034],[5.12928,50.50457,72.4592],[5.14282,50.51289,100.5757],[5.11905,50.50575,128.7672],[5.10535,50.50736,169.316],[5.09037,50.53092,188.5188],[5.03456,50.53288,199.6308],[5.05337,50.54193,213.2872],[5.02773,50.58994,162.282],[4.97911,50.61929,138.3191],[4.98257,50.64337,139.8314]]]}}