{"type": "Feature","bbox": [4.3041,49.7856,5.428,50.6448],"geometry": {"type": "MultiPolygon","coordinates": [[[[4.9892,49.8151,223.8045],[4.991,49.8254,195.4832],[4.99,49.829,330.3925],[4.9828,49.8383,209.1869],[4.9936,49.849,393.8468],[4.9999,49.8532,390.3541],[5.0262,49.8633,385.7189],[5.0345,49.8683,424.8214],[5.0468,49.872,415.6275],[5.0545,49.8917,411.9366],[5.0708,49.9024,444.5506],[5.105,49.9195,363.287],[5.1071,49.9225,372.1234],[5.1055,49.9329,382.5377],[5.108,49.9425,379.8904],[5.1068,49.9471,418.2194],[5.1029,49.9515,386.2993],[5.0898,49.9568,392.6642],[5.0849,49.9601,389.5333],[5.0752,49.9709,379.6124],[5.0634,49.9784,365.9104],[5.0528,49.9794,394.1553],[5.0371,49.9727,401.6071],[5.0259,49.9738,395.7855],[5.0214,49.9786,350.7269],[5.0135,49.9938,401.8746],[5.0015,50.0047,436.5223],[4.9939,50.0089,413.3931],[4.9864,50.0238,393.3458],[5.0003,50.0309,390.1193],[5.0113,50.033,392.9737],[5.0314,50.0481,304.9931],[5.0461,50.0536,342.0917],[5.0558,50.062,333.9264],[5.0599,50.07,310.1268],[5.0569,50.0813,219.8713],[5.0573,50.0995,211.8459],[5.0617,50.1155,170.4745],[5.0681,50.1198,177.2513],[5.0826,50.1232,177.7216],[5.0824,50.1002,190.8617],[5.0856,50.095,258.5046],[5.0931,50.0922,292.0121],[5.1328,50.0945,241.4967],[5.1397,50.0935,252.2916],[5.1523,50.0886,200.8407],[5.1756,50.0886,199.0877],[5.2525,50.1006,262.0037],[5.2713,50.1012,306.582],[5.2708,50.1109,256.2087],[5.2674,50.1211,270.2808],[5.2677,50.129,226.4998],[5.2714,50.1332,224.8508],[5.2879,50.1386,211.8362],[5.2893,50.1437,240.6068],[5.2868,50.1562,355.4094],[5.2779,50.1612,306.9824],[5.2616,50.1795,248.5857],[5.2578,50.1852,257.516],[5.2543,50.1958,276.1872],[5.2363,50.2097,228.2842],[5.2201,50.209,250.0266],[5.2142,50.2106,214.8512],[5.2106,50.2151,199.7272],[5.2121,50.2208,183.7025],[5.2233,50.224,191.6549],[5.2474,50.2256,265.265],[5.2681,50.2344,268.7505],[5.2863,50.2396,241.3289],[5.3158,50.2404,209.9671],[5.3285,50.2433,195.0929],[5.3616,50.2628,220.4495],[5.3927,50.2835,184.9933],[5.4205,50.2948,172.9931],[5.428,50.3068,195.69],[5.4191,50.3094,205.4602],[5.3962,50.3124,192.4614],[5.3761,50.3097,161.0388],[5.3597,50.3052,217.9189],[5.3533,50.3059,242.5821],[5.3496,50.3095,243.2111],[5.3505,50.3161,226.3059],[5.3547,50.3197,231.1136],[5.3782,50.3247,221.8708],[5.3924,50.3316,198.9813],[5.3953,50.3427,182.573],[5.4022,50.3486,216.6475],[5.4064,50.3555,273.7944],[5.4077,50.3599,288.6057],[5.4071,50.3702,331.2379],[5.3988,50.3814,250.1515],[5.3778,50.3835,284.0684],[5.349,50.3807,297.8491],[5.3222,50.3651,289.7172],[5.3154,50.3634,295.1285],[5.3054,50.3647,296.0634],[5.2924,50.3735,275.825],[5.2821,50.3919,245.3095],[5.2754,50.3973,245.3367],[5.2637,50.4013,274.0796],[5.2285,50.4063,233.8403],[5.2336,50.4198,250.1013],[5.242,50.431399999999996,232.0423],[5.2356,50.4412,246.9181],[5.2244,50.4494,200.2063],[5.2212,50.4546,220.0119],[5.2182,50.4653,226.3381],[5.2063,50.4775,253.1693],[5.1876,50.4695,258.8918],[5.1715,50.4686,254.3482],[5.1626,50.4791,254.8854],[5.1459,50.4943,179.8758],[5.1415,50.5004,189.9627],[5.115,50.5036,79.5625],[5.1106,50.5068,150.5022],[5.1041,50.5166,186.026],[5.1003,50.5182,173.6343],[5.0915,50.5187,154.9921],[5.0702,50.5141,169.728],[5.0292,50.51,211.9827],[5.0335,50.5239,210.8754],[5.0514,50.5437,206.8132],[5.056,50.5548,190.2627],[5.046,50.5626,183.2558],[5.0304,50.5851,168.6167],[5.0234,50.588,160.9998],[5.0049,50.6001,145.8333],[4.9858,50.6151,145.049],[4.9899,50.6274,133.6528],[4.9909,50.6413,136.7462],[4.9757,50.6448,143.0808],[4.9681,50.6446,136.3708],[4.9558,50.6355,143.9456],[4.9486,50.6262,135.6481],[4.9115,50.6205,139.9385],[4.8996,50.6127,144.0333],[4.8879,50.6088,148.6581],[4.867,50.6058,144.7796],[4.8488,50.6064,155.4602],[4.8237,50.6034,158.2686],[4.7907,50.6028,164.8742],[4.7761,50.5996,153.8915],[4.7564,50.5905,152.8013],[4.7502,50.5909,149.8445],[4.7463,50.5932,154.4107],[4.7349,50.6087,163.5574],[4.7231,50.6049,167.4544],[4.7102,50.5957,157.1434],[4.7021,50.5933,157.8283],[4.6917,50.5942,161.3325],[4.6752,50.5999,155.4973],[4.665,50.6,159.4696],[4.6627,50.597,153.7318],[4.6622,50.5931,145.8497],[4.6727,50.5794,161.1375],[4.677,50.5689,156.3135],[4.6752,50.5643,161.6667],[4.662,50.5609,162.5814],[4.6468,50.5603,158.9496],[4.6181,50.5623,152.9219],[4.6173,50.5651,151.5772],[4.6112,50.5654,153.1032],[4.5795,50.5513,154.4052],[4.5827,50.5367,146.9552],[4.5667,50.5199,151.7933],[4.56,50.5066,135.1002],[4.5592,50.4946,144.5018],[4.5619,50.4884,147.6027],[4.5749,50.4872,155.1121],[4.5844,50.4915,152.4933],[4.5918,50.4915,153.4984],[4.5987,50.4881,159.7395],[4.6029,50.4828,140.9538],[4.6015,50.475,151.5661],[4.591,50.4579,175.8119],[4.588,50.4475,136.64],[4.5881,50.441,119.0376],[4.5844,50.4345,93.7092],[4.6137,50.4308,93.7851],[4.6173,50.4285,95.3349],[4.6196,50.4242,123.5553],[4.6183,50.4147,128.6745],[4.6033,50.3913,191.7301],[4.6054,50.3784,161.1895],[4.6044,50.3738,171.7646],[4.5979,50.3618,223.0702],[4.5967,50.3532,235.8303],[4.5972,50.3445,220.77],[4.6005,50.3353,214.8867],[4.6008,50.3293,206.2397],[4.5953,50.318,224.6551],[4.5751,50.317,258.4373],[4.5358,50.3102,229.4227],[4.5247,50.311,231.6361],[4.5148,50.3214,201.5261],[4.5048,50.3251,215.6176],[4.4856,50.3257,218.2746],[4.4752,50.3073,237.8635],[4.47,50.3031,233.9456],[4.4601,50.3019,224.6974],[4.4265,50.3072,197.4188],[4.4162,50.3069,180.3183],[4.4116,50.3044,206.3883],[4.4059,50.2939,189.7891],[4.4022,50.2905,171.0281],[4.3767,50.2826,164.5951],[4.3624,50.2737,176.7253],[4.3407,50.2709,181.3271],[4.3199,50.2622,181.9758],[4.3068,50.2554,193.4202],[4.3042,50.2516,193.8399],[4.3041,50.2475,203.1204],[4.3073,50.2435,219.1219],[4.3153,50.2385,240.9592],[4.3457,50.2292,230.0155],[4.3549,50.2306,233.3579],[4.3609,50.2346,242.3133],[4.3665,50.2417,216.1087],[4.3755,50.2444,220.1947],[4.384,50.2433,223.7818],[4.4107,50.233,206.8646],[4.41,50.2223,185.8974],[4.4063,50.2109,258.6809],[4.4049,50.1818,252.8648],[4.3989,50.1761,246.0739],[4.3787,50.1654,234.21],[4.3763,50.1625,242.9632],[4.3758,50.1556,281.3801],[4.381,50.1497,290.9066],[4.3915,50.1436,301.3512],[4.4052,50.119,225.4202],[4.4037,50.1123,230.2892],[4.3987,50.104,262.7501],[4.4006,50.0957,281.1444],[4.4013,50.0697,223.3765],[4.4099,50.0531,244.5068],[4.4164,50.0448,248.577],[4.4211,50.0328,260.2136],[4.4222,50.0188,322.213],[4.4254,50.0085,268.6365],[4.4262,49.982,336.4959],[4.4317,49.9744,352.7427],[4.4447,49.9671,354.9995],[4.4498,49.961,360.6711],[4.4509,49.9386,332.1631],[4.4798,49.9471,339.6704],[4.5113,49.9468,353.6516],[4.5242,49.9513,322.4811],[4.5408,49.9682,295.6771],[4.5615,49.9698,310.5062],[4.5702,49.9736,315.284],[4.576,49.9811,356.6417],[4.596,49.986,287.0939],[4.6332,49.9875,247.5712],[4.668,49.9963,197.8829],[4.6946,49.9965,166.2699],[4.6861,50.0049,340.6713],[4.6885,50.0114,377.9953],[4.6866,50.0278,273.5967],[4.6964,50.0431,238.4021],[4.697,50.0593,206.4916],[4.6868,50.0577,262.6832],[4.6819,50.0676,309.6806],[4.7028,50.0957,211.5087],[4.7134,50.097,209.9759],[4.7152,50.1,221.525],[4.7513,50.1117,201.6531],[4.751,50.1213,226.2127],[4.756,50.1216,228.7812],[4.7652,50.1374,189.2553],[4.7797,50.1413,156.6085],[4.8025,50.1511,125.6661],[4.8228,50.1676,110.0273],[4.8317,50.1551,94.125],[4.8749,50.1534,163.8111],[4.8846,50.1412,150.0025],[4.8954,50.1398,180.162],[4.8957,50.1363,180.1797],[4.8778,50.1284,199.0192],[4.8691,50.1198,178.9777],[4.8724,50.0922,258.8019],[4.8682,50.09,300.1486],[4.8635,50.0917,277.9423],[4.8598,50.0983,175.0533],[4.8501,50.1002,141.5533],[4.8402,50.093,156.1304],[4.8453,50.0838,297.8864],[4.8405,50.0828,314.3632],[4.8392,50.0697,348.3306],[4.8208,50.0653,194.1669],[4.8192,50.0607,191.5604],[4.828,50.0569,199.194],[4.8281,50.0499,195.7537],[4.8372,50.0463,200.0556],[4.8401,50.0403,207.1331],[4.8206,50.0237,259.7355],[4.8152,49.9925,328.1652],[4.806,49.9842,346.4964],[4.7956,49.9822,387.319],[4.79,49.9689,427.9976],[4.7909,49.9584,456.9937],[4.8452,49.9489,506.1786],[4.8584,49.9337,425.2626],[4.8787,49.9219,390.5428],[4.8852,49.9122,410.8647],[4.8829,49.8984,382.5775],[4.8619,49.8698,162.4204],[4.8515,49.8627,196.7241],[4.8551,49.849,245.6886],[4.8586,49.8426,278.7053],[4.8674,49.8386,358.1229],[4.8736,49.819,345.2142],[4.8551,49.7946,378.4996],[4.8617,49.7893,377.9038],[4.875,49.7932,377.7286],[4.8873,49.788,289.5873],[4.8976,49.7889,344.341],[4.9062,49.7856,402.7082],[4.9213,49.7885,403.7448],[4.9314,49.7867,422.2],[4.9356,49.7913,428.3034],[4.943,49.7907,427.4017],[4.9467,49.7971,345.253],[4.9557,49.8005,325.1731],[4.9796,49.8006,335.6483],[4.9815,49.8042,391.1201],[4.9784,49.8041,385.1042],[4.9795,49.8066,383.1354],[4.9892,49.8151,223.8045]]]]}
,"properties": {"GID_2": "BEL.3.5_1","GID_0": "BEL","country": "Belgium","GID_1": "BEL.3_1","state": "Wallonie","NL_NAME_1": "NA","county": "Namur","VARNAME_2": "Namen","NL_NAME_2": "NA","TYPE_2": "Province","ENGTYPE_2": "Provincie","CC_2": "NA","HASC_2": "BE.NA","name": "Namur.county","area_km2": 3629.013,"hist_schema_id": "Elevation0-9000","hist_area_km2": {"50": 0.121,"75": 28.515,"100": 61.691,"125": 90.462,"150": 327.861,"175": 480.673,"200": 399.973,"225": 427.881,"250": 552.442,"275": 458.547,"300": 249.03,"325": 149.344,"350": 128.193,"375": 132.349,"400": 89.898,"425": 38.091,"450": 8.8,"475": 3.847,"500": 1.228,"525": 0.055}}}