{"type": "Feature","bbox": [2.5554,50.9129,2.8375,51.1637],"geometry": {"type": "MultiPolygon","coordinates": [[[[2.7626,51.0377,0.1425],[2.7625,51.0459,0.0618],[2.768,51.0492,0.3199],[2.778,51.0512,0.804],[2.783,51.0597,1.6477],[2.7827,51.0869,0.6904],[2.7906,51.091,0.6151],[2.8322,51.0948,0.3032],[2.8375,51.0986,0.3502],[2.8139,51.1175,0.7901],[2.8123,51.1381,0.0399],[2.8073,51.1447,0.9729],[2.8029,51.1458,0.1811],[2.7925,51.1433,0.4976],[2.7752,51.1437,1.1521],[2.767,51.1531,4.9636],[2.7552,51.1619,5.5614],[2.755,51.1637,4.9014],[2.7414,51.1582,6.4534],[2.7258,51.1543,2.6941],[2.6975,51.1415,10.0082],[2.6436,51.126,0.0],[2.5897,51.1035,13.273],[2.5554,51.0919,5.6584],[2.5706,51.0445,-1.5964],[2.58,51.003,-1.0156],[2.5974,50.9925,1.1859],[2.6065,50.9889,3.4822],[2.6297,50.9493,12.1618],[2.6301,50.9458,9.2841],[2.59,50.9191,9.5928],[2.5921,50.9159,7.5663],[2.6056,50.9129,2.5626],[2.6205,50.9181,2.1021],[2.65,50.9365,1.512],[2.656,50.9347,3.7025],[2.6569,50.9197,6.7791],[2.6623,50.9175,6.3686],[2.6687,50.9184,6.3811],[2.6804,50.9256,4.6958],[2.7001,50.9263,2.1639],[2.7077,50.9306,1.2001],[2.7236,50.9537,1.3302],[2.7083,50.9715,5.7265],[2.708,50.9825,7.3508],[2.7132,50.989,6.9809],[2.7383,51.008,-0.167],[2.7489,51.0112,1.7283],[2.761,51.0123,0.8618],[2.7722,51.0161,1.3669],[2.771,51.0263,-0.1638],[2.7626,51.0377,0.1425]]]]}
,"properties": {"GID_3": "BEL.2.5.8_1","GID_0": "BEL","country": "Belgium","GID_1": "BEL.2_1","state": "Vlaanderen","NL_NAME_1": "NA","GID_2": "BEL.2.5_1","county": "West-Vlaanderen","NL_NAME_2": "NA","city": "Veurne","VARNAME_3": "Furnes","NL_NAME_3": "NA","TYPE_3": "Arrondissement","ENGTYPE_3": "Arrondissement","CC_3": "NA","HASC_3": "BE.WV.VR","name": "Veurne.city","area_km2": 287.4017,"hist_schema_id": "Elevation0-9000","hist_area_km2": {"0": 277.7587,"25": 9.643}}}