{"type": "Feature","bbox": [5.0292,50.3635,5.7123,50.6289],"geometry": {"type": "MultiPolygon","coordinates": [[[[5.3372,50.5849,194.8087],[5.3346,50.5895,197.9922],[5.3346,50.5941,193.3444],[5.3428,50.604,181.8428],[5.3443,50.617,181.1091],[5.3309,50.6212,161.7328],[5.3036,50.622,159.8784],[5.2879,50.6289,172.0538],[5.2737,50.6177,173.9467],[5.2597,50.6119,177.542],[5.2169,50.6117,160.6428],[5.2051,50.6143,130.7957],[5.1919,50.6147,147.7955],[5.1875,50.6059,107.1123],[5.1875,50.595,106.662],[5.2077,50.5867,171.1224],[5.212,50.5831,187.5916],[5.2128,50.5796,188.3763],[5.2106,50.571,166.281],[5.1963,50.5657,161.8257],[5.1755,50.5676,147.2958],[5.1723,50.5731,124.6396],[5.162,50.5803,178.1093],[5.159,50.5846,162.9871],[5.1374,50.5984,168.7656],[5.0566,50.5996,165.0339],[5.0572,50.5929,167.4076],[5.0555,50.5896,166.872],[5.0452,50.5864,168.6049],[5.0304,50.5851,168.6167],[5.046,50.5626,183.2558],[5.056,50.5548,190.2627],[5.0514,50.5437,206.8132],[5.0335,50.5239,210.8754],[5.0292,50.51,211.9827],[5.0702,50.5141,169.728],[5.0915,50.5187,154.9921],[5.1003,50.5182,173.6343],[5.1041,50.5166,186.026],[5.1106,50.5068,150.5022],[5.115,50.5036,79.5625],[5.1415,50.5004,189.9627],[5.1459,50.4943,179.8758],[5.1626,50.4791,254.8854],[5.1715,50.4686,254.3482],[5.1876,50.4695,258.8918],[5.2063,50.4775,253.1693],[5.2182,50.4653,226.3381],[5.2212,50.4546,220.0119],[5.2244,50.4494,200.2063],[5.2356,50.4412,246.9181],[5.242,50.431399999999996,232.0423],[5.2336,50.4198,250.1013],[5.2285,50.4063,233.8403],[5.2637,50.4013,274.0796],[5.2754,50.3973,245.3367],[5.2821,50.3919,245.3095],[5.2924,50.3735,275.825],[5.3028,50.366,300.7467],[5.3085,50.3638,299.5927],[5.3222,50.3651,289.7172],[5.349,50.3807,297.8491],[5.3778,50.3835,284.0684],[5.3988,50.3814,250.1515],[5.4199,50.3919,267.1703],[5.4268,50.3968,270.8226],[5.4299,50.4034,231.6187],[5.429,50.4066,243.7014],[5.42,50.4175,285.1126],[5.4182,50.4275,249.2398],[5.4299,50.4257,235.867],[5.4465,50.417,240.6816],[5.4709,50.4083,200.3232],[5.4926,50.4111,236.9459],[5.5149,50.4218,185.3079],[5.5241,50.4107,223.4212],[5.5272,50.4001,199.4122],[5.5406,50.391,186.6897],[5.5509,50.3879,223.0085],[5.5623,50.3873,231.4549],[5.6009,50.3941,277.9747],[5.6088,50.3938,301.6482],[5.6304,50.38,387.0793],[5.6474,50.3641,424.4909],[5.6737,50.3635,466.3053],[5.6824,50.3671,449.5737],[5.7014,50.3707,353.0408],[5.7066,50.3737,355.1382],[5.712,50.383,394.6931],[5.7123,50.3927,384.0345],[5.7084,50.397,397.4913],[5.6686,50.3984,379.2455],[5.6546,50.4069,347.2954],[5.6373,50.43,339.6786],[5.636,50.4376,356.8521],[5.6327,50.443,290.7669],[5.6327,50.4565,235.843],[5.611,50.456,217.3499],[5.589,50.4621,247.3895],[5.5747,50.4597,190.997],[5.5467,50.46,221.86],[5.5472,50.4703,264.2449],[5.5509,50.4757,208.7182],[5.5518,50.4802,224.3582],[5.5516,50.4873,222.6258],[5.5489,50.4913,259.9191],[5.549,50.4942,211.7324],[5.5067,50.5135,255.6064],[5.503,50.5184,216.3829],[5.4878,50.518,185.2361],[5.473,50.5154,200.442],[5.4652,50.5205,223.1966],[5.4566,50.5233,248.6709],[5.4407,50.5258,262.6217],[5.4322,50.5326,255.1465],[5.433,50.5511,232.2361],[5.4374,50.5599,217.9693],[5.4305,50.5631,205.7945],[5.4237,50.5704,202.0758],[5.3948,50.5893,165.6307],[5.3878,50.5869,161.2744],[5.3848,50.5813,182.1619],[5.3783,50.5783,114.0412],[5.371,50.5693,98.6251],[5.3519,50.5629,61.8488],[5.3454,50.5712,186.3551],[5.3391,50.5761,180.1917],[5.3372,50.5849,194.8087]]]]}
,"properties": {"GID_3": "BEL.3.3.1_1","GID_0": "BEL","country": "Belgium","GID_1": "BEL.3_1","state": "Wallonie","NL_NAME_1": "NA","GID_2": "BEL.3.3_1","county": "Liège","NL_NAME_2": "NA","city": "Huy","VARNAME_3": "Hoei","NL_NAME_3": "NA","TYPE_3": "Arrondissement","ENGTYPE_3": "Arrondissement","CC_3": "NA","HASC_3": "BE.LG.HY","name": "Huy.city","area_km2": 650.3307,"hist_schema_id": "Elevation0-9000","hist_area_km2": {"50": 1.5356,"75": 24.6203,"100": 14.1628,"125": 28.4361,"150": 46.6214,"175": 98.948,"200": 69.5181,"225": 90.3332,"250": 133.9208,"275": 84.1838,"300": 27.7477,"325": 8.5794,"350": 5.2837,"375": 3.8931,"400": 3.0554,"425": 5.9489,"450": 2.7041,"475": 0.8248,"500": 0.0135}}}