{"type":"Feature","properties":{"GID_3":"BEL.2.3.1_1","GID_0":"BEL","country":"Belgium","GID_1":"BEL.2_1","state":"Vlaanderen","NL_NAME_1":"NA","GID_2":"BEL.2.3_1","county":"Oost-Vlaanderen","NL_NAME_2":"NA","city":"Aalst","VARNAME_3":"Alost","NL_NAME_3":"NA","TYPE_3":"Arrondissement","ENGTYPE_3":"Arrondissement","CC_3":"NA","HASC_3":"BE.OV.AL","name":"Aalst.city"},
"geometry":{"type": "MultiPolygon","coordinates": [[[[3.9877,50.7709,31.4805],[4.0083,50.7745,45.3188],[4.0256,50.7741,50.023],[4.0456,50.7793,47.8053],[4.0501,50.7848,42.3953],[4.0737,50.8038,50.5631],[4.0806,50.8127,77.845],[4.0803,50.829,41.9773],[4.0765,50.8323,28.0889],[4.0569,50.8345,17.8832],[4.0551,50.8363,28.1907],[4.0545,50.8404,23.0095],[4.0589,50.8472,10.7048],[4.074,50.8591,16.5353],[4.0824,50.8733,10.9731],[4.0902,50.8808,8.4936],[4.0819,50.8922,10.2546],[4.0807,50.9042,24.836],[4.0892,50.9064,33.9041],[4.0953,50.9116,47.855],[4.0977,50.9164,57.6235],[4.0982,50.9301,34.211],[4.1033,50.934,27.2416],[4.12,50.933,31.0643],[4.1497,50.9202,55.7247],[4.1604,50.9353,71.056],[4.1698,50.943,49.9184],[4.166,50.9527,42.052],[4.1524,50.9661,23.4564],[4.15,50.9743,13.9061],[4.1309,50.9767,13.4198],[4.1113,50.9739,12.4765],[4.0894,50.9744,7.9039],[4.0761,50.9825,3.3294],[4.0749,50.9861,3.5498],[4.0668,50.9884,2.8624],[4.0597,50.9948,2.7721],[4.051,50.996,4.7046],[4.0336,50.9955,5.9293],[4.0046,50.9879,8.0432],[3.9681,50.9874,7.601],[3.9477,50.9796,14.8676],[3.907,50.9792,14.7732],[3.8875,50.9679,16.1665],[3.8729,50.9559,18.7564],[3.8537,50.9554,31.1262],[3.8518,50.9515,32.2427],[3.851,50.9377,33.2018],[3.8403,50.9326,33.4011],[3.8355,50.9267,38.6058],[3.8285,50.9063,61.0201],[3.8233,50.9006,71.1075],[3.8059,50.9005,59.4877],[3.7886,50.9105,50.0603],[3.7702,50.9161,48.0202],[3.7577,50.9165,56.1228],[3.7556,50.8978,59.0772],[3.7516,50.8904,49.8516],[3.7516,50.8702,28.8256],[3.7525,50.8658,42.5334],[3.7601,50.8537,31.6067],[3.7593,50.84,38.6547],[3.7706,50.8396,39.2825],[3.7764,50.8368,60.0919],[3.7875,50.8194,51.2625],[3.7999,50.811,52.0132],[3.8271,50.8227,40.1723],[3.8455,50.8241,50.1778],[3.8547,50.8294,58.7039],[3.8673,50.8286,45.1803],[3.8729,50.8257,41.9821],[3.8778,50.8221,47.1883],[3.8788,50.8174,29.3239],[3.8821,50.8127,27.8214],[3.8832,50.8011,37.3936],[3.887,50.794,23.7417],[3.8857,50.7833,18.3337],[3.877,50.7779,20.0113],[3.8589,50.7722,37.5813],[3.8496,50.7714,33.0762],[3.8406,50.7727,49.4195],[3.8341,50.7788,49.0984],[3.8228,50.7842,47.6354],[3.8215,50.7669,31.5016],[3.8181,50.7613,44.074],[3.8168,50.7519,48.3408],[3.8086,50.7433,44.5456],[3.8246,50.7387,28.4949],[3.8312,50.7382,26.2869],[3.8378,50.7398,30.1433],[3.8528,50.7474,19.0761],[3.864,50.7484,49.5799],[3.8751,50.745,25.7568],[3.884,50.7369,23.04],[3.9152,50.7326,36.4019],[3.9271,50.7331,25.1338],[3.9485,50.7375,29.0964],[3.9435,50.7414,28.7912],[3.9337,50.7449,26.7125],[3.9284,50.7523,32.5109],[3.9297,50.7613,67.937],[3.9393,50.7708,91.9188],[3.9481,50.7754,90.4267],[3.9604,50.7783,74.1592],[3.9684,50.7776,60.8144],[3.9758,50.7734,42.6587],[3.9877,50.7709,31.4805]]]]}}