{"type":"Feature","properties":{"GID_3":"BEL.3.3.4_1","GID_0":"BEL","country":"Belgium","GID_1":"BEL.3_1","state":"Wallonie","NL_NAME_1":"NA","GID_2":"BEL.3.3_1","county":"Liège","NL_NAME_2":"NA","city":"Waremme","VARNAME_3":"Borgworm","NL_NAME_3":"NA","TYPE_3":"Arrondissement","ENGTYPE_3":"Arrondissement","CC_3":"NA","HASC_3":"BE.LG.WR","name":"Waremme.city"},
"geometry":{"type": "MultiPolygon","coordinates": [[[[5.3462,50.5701,207.2762],[5.3519,50.5629,61.8488],[5.3662,50.5667,60.0],[5.372,50.5702,75.4999],[5.3783,50.5783,114.0412],[5.3848,50.5813,182.1619],[5.3878,50.5869,161.2744],[5.3948,50.5893,165.6307],[5.3939,50.5945,174.5582],[5.3872,50.5982,140.8771],[5.3862,50.6057,151.4239],[5.3702,50.611,170.8466],[5.3589,50.6215,172.9383],[5.3647,50.6279,170.2548],[5.367,50.633,179.4958],[5.3753,50.6344,173.5535],[5.392,50.6317,167.0198],[5.4159,50.6389,175.4687],[5.4255,50.6401,181.7556],[5.439,50.6452,175.7599],[5.4514,50.6556,167.6764],[5.4456,50.6596,159.3753],[5.4289,50.6826,147.5067],[5.4284,50.6927,136.7739],[5.4322,50.6987,137.5866],[5.4337,50.7085,139.0131],[5.4359,50.7127,135.5901],[5.4119,50.7188,120.556],[5.4095,50.7253,130.5098],[5.4096,50.7408,109.518],[5.4047,50.7452,111.4257],[5.3638,50.7411,124.2965],[5.327,50.7293,129.5582],[5.3143,50.7199,103.3588],[5.2855,50.724,109.3612],[5.2599,50.7169,127.5369],[5.2471,50.7174,125.2636],[5.2294,50.7221,122.4945],[5.2098,50.7222,115.2495],[5.1831,50.7192,118.843],[5.18,50.7168,128.7575],[5.1777,50.7067,126.8999],[5.174,50.701,124.285],[5.1552,50.6921,136.2053],[5.1425,50.7056,132.5104],[5.1299,50.7137,117.4191],[5.1174,50.7178,114.8657],[5.0992,50.7094,122.2931],[5.0884,50.7074,117.4737],[5.0757,50.7088,114.4105],[5.0645,50.7136,110.9373],[5.0533,50.7224,103.6083],[5.0548,50.7276,98.2944],[5.0522,50.7346,101.4532],[5.0477,50.7399,96.3309],[5.0397,50.7447,87.9888],[5.0257,50.7476,89.513],[5.0153,50.7315,76.8672],[5.0148,50.7171,92.4359],[5.0177,50.7122,73.3135],[5.0196,50.6992,112.5822],[5.0141,50.6848,108.6093],[5.012,50.6618,129.1738],[5.0018,50.6488,141.0561],[4.9909,50.6413,136.7462],[4.9899,50.6274,133.6528],[4.9858,50.6151,145.049],[5.0049,50.6001,145.8333],[5.027,50.5862,166.4324],[5.0304,50.5851,168.6167],[5.0452,50.5864,168.6049],[5.0555,50.5896,166.872],[5.0572,50.5929,167.4076],[5.0566,50.5996,165.0339],[5.1353,50.5988,171.5043],[5.1429,50.5955,168.7969],[5.159,50.5846,162.9871],[5.162,50.5803,178.1093],[5.1723,50.5731,124.6396],[5.1755,50.5676,147.2958],[5.1963,50.5657,161.8257],[5.2106,50.571,166.281],[5.2128,50.5796,188.3763],[5.212,50.5831,187.5916],[5.2077,50.5867,171.1224],[5.1875,50.595,106.662],[5.1875,50.6059,107.1123],[5.1919,50.6147,147.7955],[5.2051,50.6143,130.7957],[5.2169,50.6117,160.6428],[5.2597,50.6119,177.542],[5.2737,50.6177,173.9467],[5.2879,50.6289,172.0538],[5.3036,50.622,159.8784],[5.3309,50.6212,161.7328],[5.3443,50.617,181.1091],[5.3428,50.604,181.8428],[5.3352,50.5954,195.2133],[5.3343,50.5919,198.7777],[5.3391,50.5761,180.1917],[5.3462,50.5701,207.2762]]]]}}