{"type":"Feature","properties":{"GID_3":"BEL.2.2.2_1","GID_0":"BEL","country":"Belgium","GID_1":"BEL.2_1","state":"Vlaanderen","NL_NAME_1":"NA","GID_2":"BEL.2.2_1","county":"Limburg","NL_NAME_2":"NA","city":"Maaseik","VARNAME_3":"NA","NL_NAME_3":"NA","TYPE_3":"Arrondissement","ENGTYPE_3":"Arrondissement","CC_3":"NA","HASC_3":"BE.LI.MS","name":"Maaseik.city"},
"geometry":{"type": "MultiPolygon","coordinates": [[[[5.6381,51.007,90.6234],[5.6385,50.9966,90.4744],[5.6563,50.9996,100.6337],[5.6749,51.0,35.0],[5.6837,51.0021,48.5326],[5.717,50.9988,36.1676],[5.7241,50.9994,33.542],[5.7382,51.0037,32.6397],[5.7668,51.0016,32.5886],[5.7707,51.0112,32.9203],[5.7673,51.0113,31.2555],[5.7678,51.0139,28.74],[5.7745,51.0252,27.7774],[5.7699,51.0298,32.8056],[5.7636,51.0327,31.3411],[5.7641,51.0375,28.8628],[5.7687,51.045,28.1406],[5.7827,51.0651,30.8198],[5.7963,51.0621,29.3094],[5.8019,51.0639,29.9411],[5.7998,51.0728,27.4673],[5.8061,51.0808,27.9568],[5.8007,51.0891,27.2114],[5.8032,51.0936,28.1689],[5.8113,51.0959,23.7332],[5.8229,51.0946,21.0],[5.8347,51.1004,22.3507],[5.8364,51.1042,22.0082],[5.8331,51.1092,27.2633],[5.8193,51.1121,26.0683],[5.8157,51.1149,23.2186],[5.8171,51.1208,24.4393],[5.8212,51.1257,21.566],[5.8297,51.1317,21.6971],[5.8436,51.135,19.9277],[5.8588,51.146,21.4094],[5.8433,51.154,19.3049],[5.8341,51.1685,28.9936],[5.828,51.1687,30.3163],[5.8228,51.1653,31.4673],[5.8217,51.1626,35.2276],[5.7827,51.1599,34.9656],[5.7861,51.1655,35.9247],[5.7806,51.1696,30.6948],[5.7841,51.1746,29.6668],[5.7817,51.1777,30.0391],[5.7827,51.1813,33.4963],[5.7631,51.1876,30.167],[5.7492,51.19,31.6249],[5.7227,51.182,32.7135],[5.7096,51.1813,33.2393],[5.6554,51.1864,32.5194],[5.6516,51.1999,45.8926],[5.5769,51.2169,36.5165],[5.5603,51.2288,35.1029],[5.5515,51.2665,33.5871],[5.5129,51.293,37.4633],[5.4961,51.2977,29.4008],[5.4895,51.2974,29.0236],[5.4807,51.288,29.521],[5.4478,51.2788,29.6432],[5.4416,51.2739,31.0634],[5.433,51.2713,31.2696],[5.4207,51.2611,32.1665],[5.3576,51.2729,40.8883],[5.3341,51.2638,38.2019],[5.2794,51.2646,42.8639],[5.2649,51.2669,40.9104],[5.2396,51.2623,46.7518],[5.2297,51.2491,49.8541],[5.2277,51.2426,45.8394],[5.2281,51.2173,38.6891],[5.2332,51.2109,39.0631],[5.2467,51.205,44.6538],[5.257,51.1979,58.1329],[5.2645,51.1878,44.9577],[5.2741,51.1642,43.306399999999996],[5.2706,51.1558,40.8786],[5.2582,51.143,43.5866],[5.2699,51.1408,43.6334],[5.2827,51.1324,52.7468],[5.2844,51.1126,56.9235],[5.2909,51.1105,56.7126],[5.3072,51.1006,72.5623],[5.3222,51.0974,64.7768],[5.3399,51.0971,67.0312],[5.3394,51.0887,63.827],[5.3307,51.0737,72.4952],[5.3304,51.0697,65.5402],[5.3341,51.0676,63.9061],[5.3349,51.0623,73.513],[5.3338,51.0553,67.5666],[5.33,51.0499,71.1468],[5.3294,51.0427,53.9336],[5.3308,51.0377,45.7636],[5.3419,51.0294,38.2868],[5.3418,51.0137,51.0655],[5.3527,51.0099,44.4254],[5.3609,51.0092,48.0711],[5.4114,51.0086,75.9313],[5.4272,51.0111,76.1305],[5.4755,51.0107,80.2401],[5.4856,51.0143,78.979],[5.4925,51.0202,78.3176],[5.5024,51.0221,83.6351],[5.5106,51.0301,83.5078],[5.527,51.0264,99.8309],[5.5631,51.0257,86.6275],[5.5819,51.0228,79.2873],[5.5902,51.0256,77.4784],[5.6091,51.0384,65.2496],[5.639,51.0256,90.8396],[5.6389,51.0163,102.9613],[5.6355,51.0114,106.1201],[5.6381,51.007,90.6234]]]]}}