{"type": "Feature","bbox": [5.2294,50.7112,5.8961,51.0037],"geometry": {"type": "MultiPolygon","coordinates": [[[[5.413,50.7182,120.7164],[5.4359,50.7127,135.5901],[5.4539,50.7152,137.2373],[5.4691,50.7238,135.2106],[5.4946,50.7259,127.8909],[5.5005,50.7316,131.6532],[5.5323,50.7397,95.2778],[5.5332,50.7465,93.9164],[5.5368,50.7532,85.5601],[5.5427,50.7582,111.6491],[5.5523,50.7621,135.7858],[5.5674,50.7624,138.0226],[5.5988,50.7676,119.3815],[5.6305,50.7753,113.7701],[5.6582,50.7909,97.3436],[5.678,50.8046,55.7926],[5.691,50.8092,78.6487],[5.6725,50.8196,56.6431],[5.6605,50.822,108.7224],[5.6525,50.8296,75.1283],[5.6497,50.8369,75.0483],[5.6475,50.852,80.9188],[5.6479,50.8601,64.9497],[5.652,50.8725,61.2828],[5.6702,50.8803,51.5073],[5.682,50.8804,38.2577],[5.6877,50.8821,45.3145],[5.7035,50.9061,41.6655],[5.7072,50.9079,36.5],[5.7235,50.9091,37.4636],[5.7284,50.9154,40.3532],[5.7322,50.9245,41.5276],[5.7573,50.953,35.0893],[5.7572,50.9564,48.4326],[5.7519,50.9594,35.4461],[5.7377,50.9562,36.0015],[5.731,50.9564,31.7297],[5.725,50.96,34.7887],[5.7258,50.964,35.087],[5.7631,50.9924,35.7343],[5.7668,51.0016,32.5886],[5.7403,51.0037,33.5249],[5.7207,50.9989,34.7763],[5.7044,50.9993,41.8511],[5.6898,51.0022,73.2252],[5.6749,51.0,35.0],[5.6563,50.9996,100.6337],[5.6385,50.9966,90.4744],[5.6009,50.9981,81.591],[5.5921,50.9971,89.0226],[5.5904,50.9946,93.6786],[5.5895,50.9782,92.2314],[5.5813,50.972,102.0032],[5.5805,50.969,92.5978],[5.5876,50.9676,97.0621],[5.5927,50.9644,101.4975],[5.6013,50.9467,99.8931],[5.6025,50.9398,107.3358],[5.6061,50.9377,109.9781],[5.6049,50.9029,106.125],[5.6033,50.9003,111.8509],[5.594,50.8973,101.3393],[5.5859,50.8957,95.5692],[5.5816,50.9015,74.6598],[5.5763,50.9026,71.6526],[5.5339,50.9034,55.6818],[5.5275,50.9067,51.598],[5.5242,50.9114,57.8939],[5.5093,50.9142,51.586],[5.4908,50.9151,51.951],[5.4833,50.9172,43.599],[5.4712,50.9171,44.9668],[5.4581,50.9088,36.5573],[5.4481,50.8968,41.2277],[5.4475,50.8885,47.1382],[5.4515,50.8796,51.4733],[5.4502,50.8777,51.9209],[5.4444,50.875,57.0852],[5.4179,50.8718,45.5771],[5.3782,50.8724,41.7862],[5.3664,50.8773,37.5133],[5.3599,50.878,38.7218],[5.3462,50.8748,47.3478],[5.335,50.8791,41.9269],[5.324,50.8858,33.119],[5.3091,50.8876,33.3379],[5.3007,50.8906,36.8722],[5.297,50.8945,35.3535],[5.2789,50.9006,33.3833],[5.2623,50.9006,37.4134],[5.2475,50.8966,49.5634],[5.2458,50.8944,51.6739],[5.2465,50.8807,48.5893],[5.2424,50.874,60.2546],[5.2428,50.8698,74.8447],[5.2516,50.8555,63.1677],[5.2699,50.8405,47.3492],[5.2715,50.8359,53.7751],[5.2704,50.8312,50.8638],[5.2501,50.8178,48.894],[5.2488,50.798,69.8554],[5.251,50.795,79.6825],[5.2779,50.786,62.7834],[5.2786,50.7818,74.0557],[5.2771,50.7788,74.1267],[5.2707,50.7768,90.1728],[5.2659,50.7733,94.6603],[5.2639,50.7541,79.7946],[5.2584,50.7511,80.5092],[5.234,50.7473,101.0012],[5.2308,50.7442,98.9025],[5.2294,50.7221,122.4945],[5.2544,50.7167,119.0721],[5.2634,50.7175,125.817],[5.2855,50.724,109.3612],[5.3143,50.7199,103.3588],[5.327,50.7293,129.5582],[5.3638,50.7411,124.2965],[5.4047,50.7452,111.4257],[5.4096,50.7408,109.518],[5.4098,50.7223,129.1996],[5.413,50.7182,120.7164]]],
[[[5.7903,50.7325,169.4792],[5.7948,50.7299,221.2493],[5.8053,50.718,240.5521],[5.8265,50.7164,251.5262],[5.8565,50.7112,216.7065],[5.8871,50.712,281.6675],[5.8876,50.726,232.5411],[5.8848,50.7395,186.0926],[5.8961,50.7596,198.0834],[5.8812,50.7693,222.9394],[5.8559,50.7612,205.5526],[5.8326,50.764,200.6945],[5.8134,50.7601,176.8328],[5.7934,50.7698,163.73],[5.7907,50.7695,168.0404],[5.7832,50.7799,170.1001],[5.7734,50.785,130.4875],[5.7614,50.7795,134.2718],[5.7546,50.7785,131.0968],[5.7324,50.7627,70.4192],[5.7068,50.7628,57.0076],[5.6954,50.7583,52.1722],[5.6924,50.7603,51.2281],[5.6931,50.7554,53.61],[5.6992,50.7464,64.5058],[5.7065,50.7412,101.1079],[5.7204,50.7409,98.4198],[5.7395,50.745,95.9623],[5.7651,50.738,107.7807],[5.7849,50.7359,143.0174],[5.7903,50.7325,169.4792]]]]}
,"properties": {"GID_3": "BEL.2.2.3_1","GID_0": "BEL","country": "Belgium","GID_1": "BEL.2_1","state": "Vlaanderen","NL_NAME_1": "NA","GID_2": "BEL.2.2_1","county": "Limburg","NL_NAME_2": "NA","city": "Tongeren","VARNAME_3": "Tongres","NL_NAME_3": "NA","TYPE_3": "Arrondissement","ENGTYPE_3": "Arrondissement","CC_3": "NA","HASC_3": "BE.LI.TG","name": "Tongeren.city","area_km2": 662.8885,"hist_schema_id": "Elevation0-9000","hist_area_km2": {"25": 19.4887,"50": 179.5659,"75": 182.7529,"100": 188.8587,"125": 49.7038,"150": 8.7592,"175": 6.9757,"200": 7.8353,"225": 8.6676,"250": 6.0927,"275": 4.0268,"300": 0.1611}}}