{"type": "Feature","bbox": [2.755,51.055,3.1291,51.3168],"geometry": {"type": "MultiPolygon","coordinates": [[[[2.8854,51.1081,1.3667],[2.9008,51.1131,0.0036],[2.9044,51.119,2.1636],[2.9048,51.1252,0.8035],[2.9147,51.1257,0.2864],[2.9232,51.128,0.9373],[2.9349,51.1272,0.8728],[2.9429,51.1219,2.0385],[2.9452,51.1161,2.5872],[2.9488,51.1147,4.3704],[2.9589,51.1149,4.2246],[2.9728,51.1181,4.4754],[2.982,51.1228,2.6005],[2.9912,51.1169,5.4829],[3.0007,51.1056,8.4212],[3.0007,51.1026,17.3327],[2.9975,51.0981,12.0928],[2.9982,51.0917,16.4066],[3.0032,51.0858,17.6902],[3.014,51.0788,31.8112],[3.023,51.0682,25.3906],[3.0253,51.0566,18.7392],[3.0312,51.055,16.6066],[3.0483,51.0552,14.9192],[3.0516,51.0622,30.108],[3.0584,51.0677,18.4262],[3.0629,51.0763,23.2226],[3.0625,51.0788,35.1116],[3.0559,51.0834,40.4681],[3.055,51.0857,42.2114],[3.063,51.0961,32.2397],[3.0633,51.1047,28.6084],[3.067,51.1116,16.102],[3.0673,51.13,12.6841],[3.0719,51.1388,11.8656],[3.0774,51.1438,11.1237],[3.0676,51.1492,9.8474],[3.0585,51.1606,17.245],[3.0567,51.1812,3.0057],[3.0488,51.1905,-0.5035],[3.0486,51.1929,-0.5282],[3.0563,51.2001,-0.5312],[3.057,51.2179,2.0664],[3.0618,51.2241,-0.4519],[3.0784,51.2348,1.0894],[3.0866,51.236,0.063],[3.0822,51.2463,0.5152],[3.0855,51.2517,0.4638],[3.0871,51.2592,0.8335],[3.0899,51.2626,0.4586],[3.0904,51.2721,0.5789],[3.0888,51.2762,0.6087],[3.082,51.281,0.6818],[3.0815,51.2859,0.6241],[3.0929,51.2904,0.3383],[3.1107,51.2909,0.0279],[3.1131,51.2955,-0.0304],[3.124,51.3033,0.3363],[3.1287,51.3127,6.9641],[3.1291,51.3168,9.2057],[3.0769,51.3021,0.0],[3.0686,51.2954,7.8681],[3.0642,51.2946,0.0],[3.0614,51.2918,11.1512],[3.0281,51.2782,2.3969],[3.0236,51.2751,10.3812],[2.9325,51.2388,2.8048],[2.9186,51.236,1.4662],[2.9036,51.2271,0.0],[2.8958,51.2249,1.8416],[2.8347,51.1968,6.1347],[2.755,51.1637,4.9014],[2.7552,51.1619,5.5614],[2.767,51.1531,4.9636],[2.7752,51.1437,1.1521],[2.7925,51.1433,0.4976],[2.8029,51.1458,0.1811],[2.8073,51.1447,0.9729],[2.8123,51.1381,0.0399],[2.8139,51.1175,0.7901],[2.8375,51.0986,0.3502],[2.8669,51.1034,0.7652],[2.8854,51.1081,1.3667]]]]}
,"properties": {"GID_3": "BEL.2.5.5_1","GID_0": "BEL","country": "Belgium","GID_1": "BEL.2_1","state": "Vlaanderen","NL_NAME_1": "NA","GID_2": "BEL.2.5_1","county": "West-Vlaanderen","NL_NAME_2": "NA","city": "Oostende","VARNAME_3": "Ostende","NL_NAME_3": "NA","TYPE_3": "Arrondissement","ENGTYPE_3": "Arrondissement","CC_3": "NA","HASC_3": "BE.WV.OS","name": "Oostende.city","area_km2": 297.7746,"hist_schema_id": "Elevation0-9000","hist_area_km2": {"0": 272.641,"25": 19.8986,"50": 5.195,"75": 0.04}}}