{"type": "Feature","bbox": [5.6737,50.1338,6.4079,50.7621],"geometry": {"type": "MultiPolygon","coordinates": [[[[6.1697,50.225,386.8404],[6.1771,50.2268,402.4724],[6.1774,50.2287,388.4548],[6.1736,50.232,381.3522],[6.1761,50.2357,403.9334],[6.1853,50.2377,375.7027],[6.1946,50.2369,405.8878],[6.2003,50.2398,382.5911],[6.2067,50.2493,384.6713],[6.2053,50.2512,388.6126],[6.2089,50.2535,391.956],[6.212,50.2529,449.9324],[6.2158,50.257,457.3181],[6.2187,50.2563,495.9629],[6.2173,50.2549,479.9271],[6.2184,50.2544,504.76],[6.2236,50.2587,533.0858],[6.2272,50.2587,537.6028],[6.2361,50.2625,527.7887],[6.2455,50.2619,539.1912],[6.2587,50.2678,529.1032],[6.2615,50.2651,507.8014],[6.2666,50.2648,498.0901],[6.2724,50.2677,516.7766],[6.2779,50.2664,501.9441],[6.2921,50.2788,544.752],[6.2852,50.2843,523.9526],[6.2882,50.2888,517.3518],[6.2869,50.2902,505.0678],[6.2886,50.2905,497.9977],[6.2859,50.2941,467.6401],[6.2915,50.2956,479.6442],[6.2927,50.2969,496.3515],[6.2911,50.2977,481.9013],[6.2957,50.2997,506.4875],[6.2947,50.3013,506.8544],[6.2981,50.3021,523.1171],[6.2983,50.3041,513.7248],[6.2959,50.3053,516.1219],[6.2961,50.309,446.0333],[6.3008,50.3104,449.9878],[6.3066,50.3097,451.7902],[6.3092,50.3117,447.6165],[6.3068,50.3141,468.3865],[6.3079,50.3159,484.129],[6.3055,50.3176,500.3731],[6.3065,50.3201,529.1742],[6.3128,50.3219,546.9974],[6.3177,50.3212,529.9776],[6.318,50.3191,529.0137],[6.3273,50.3245,534.4099],[6.3333,50.3232,529.324],[6.3343,50.3208,522.6755],[6.3329,50.3208,522.6755],[6.333,50.3194,517.3532],[6.3357,50.3188,527.6066],[6.3349,50.3164,478.5767],[6.3429,50.3184,478.2226],[6.3424,50.3174,478.2226],[6.3439,50.3172,478.2226],[6.3405,50.3158,465.0288],[6.3484,50.315,479.5901],[6.3513,50.3108,512.2267],[6.3633,50.3054,519.3223],[6.3579,50.3113,534.2841],[6.3592,50.3109,534.2841],[6.359,50.3135,518.3757],[6.3616,50.3147,496.8523],[6.3705,50.3128,520.6066],[6.3751,50.3138,531.1559],[6.3759,50.3175,563.5273],[6.3814,50.3193,572.331],[6.3809,50.3214,574.1852],[6.3826,50.322,579.1151],[6.3894,50.3211,582.3048],[6.405,50.3233,603.3645],[6.4079,50.3351,613.0563],[6.4005,50.3381,612.7708],[6.3983,50.3457,585.123],[6.3861,50.3511,568.9244],[6.3828,50.3542,573.4167],[6.381,50.3534,578.7239],[6.3771,50.356,592.7404],[6.3763,50.3552,585.1865],[6.3734,50.3582,588.3762],[6.3681,50.3581,582.3121],[6.3671,50.3588,580.4224],[6.3694,50.3611,583.5933],[6.3606,50.3715,637.8284],[6.3422,50.38,669.6652],[6.3466,50.3852,678.4756],[6.3569,50.3911,658.5129],[6.3576,50.3958,678.6872],[6.3652,50.4014,684.5864],[6.3699,50.4089,699.4891],[6.3667,50.4192,685.9397],[6.376,50.4317,652.0386],[6.3776,50.4394,646.5483],[6.3749,50.4512,652.0698],[6.3718,50.4556,643.3413],[6.3629,50.4539,602.5674],[6.3567,50.4565,571.6609],[6.3501,50.4569,557.5391],[6.3402,50.4626,544.3312],[6.3438,50.4688,521.5353],[6.3412,50.472,541.8497],[6.3382,50.4724,513.595],[6.3375,50.4747,515.8469],[6.3411,50.4777,554.4298],[6.3416,50.4835,536.1044],[6.3513,50.4883,512.0019],[6.3348,50.489,534.4214],[6.3323,50.4923,574.3403],[6.3229,50.493899999999996,612.0751],[6.3091,50.5014,624.9117],[6.2975,50.4976,611.387],[6.285,50.499,608.6215],[6.2815,50.5032,603.7849],[6.2748,50.5023,595.8925],[6.2699,50.5045,582.275],[6.2618,50.4988,558.9073],[6.2546,50.4994,527.4541],[6.2546,50.5014,524.0065],[6.2517,50.5035,527.157],[6.2414,50.499,554.7899],[6.2307,50.4975,570.4772],[6.2266,50.4944,608.4614],[6.2246,50.4949,608.4614],[6.22,50.4987,604.9902],[6.2226,50.5006,579.6339],[6.2199,50.5053,566.6379],[6.2168,50.5065,568.6603],[6.2132,50.513,538.6997],[6.2102,50.5131,546.0372],[6.2091,50.5147,548.8917],[6.2126,50.5156,544.86],[6.2081,50.5174,531.0424],[6.2053,50.521,508.0395],[6.1922,50.5211,529.3961],[6.1872,50.5263,550.9336],[6.1921,50.5309,571.5521],[6.197,50.531,493.6169],[6.1986,50.5352,504.0815],[6.1886,50.5403,543.5872],[6.178,50.5416,561.5588],[6.1784,50.554,618.6693],[6.1744,50.5575,635.3279],[6.1891,50.5645,620.6824],[6.1893,50.5661,617.708],[6.1919,50.5655,617.708],[6.2031,50.5693,627.8942],[6.2045,50.571,637.342],[6.2037,50.5723,636.8992],[6.2067,50.5747,645.7271],[6.2063,50.5763,657.8549],[6.2191,50.5814,649.3165],[6.2252,50.5905,606.0753],[6.2348,50.5888,562.3391],[6.2417,50.5935,554.5392],[6.2451,50.593,544.8621],[6.2496,50.5982,552.0512],[6.2477,50.6037,550.5942],[6.26,50.6098,545.9696],[6.2691,50.6192,545.0913],[6.2694,50.625,545.4785],[6.2667,50.6272,570.458],[6.2608,50.6286,579.9895],[6.2355,50.6259,573.08],[6.2169,50.6322,493.9172],[6.1996,50.6315,460.41],[6.1943,50.6339,438.723],[6.1895,50.6301,486.5238],[6.1872,50.6301,488.5093],[6.1888,50.6274,490.8877],[6.1818,50.6238,481.0382],[6.1761,50.6259,479.0377],[6.1756,50.6273,484.1673],[6.1802,50.6285,490.6842],[6.1833,50.6323,460.5759],[6.1666,50.6437,409.0922],[6.178,50.6447,411.1443],[6.1777,50.6483,420.3274],[6.1695,50.6527,457.075],[6.1726,50.6568,451.6532],[6.1648,50.6633,382.4833],[6.1615,50.6697,336.3775],[6.1624,50.6714,332.1989],[6.1575,50.6729,339.6498],[6.1567,50.6748,336.981],[6.1488,50.6778,328.5138],[6.1482,50.6795,322.8993],[6.1436,50.6817,301.9871],[6.1424,50.6871,288.335],[6.1437,50.6889,283.3415],[6.1406,50.6907,256.4826],[6.1393,50.6936,259.387],[6.1333,50.6962,274.1662],[6.133,50.699,279.4708],[6.1232,50.7071,292.8783],[6.1248,50.7111,287.0508],[6.1192,50.7197,280.2764],[6.1108,50.7235,296.723],[6.098,50.7232,315.1619],[6.0948,50.7202,311.8019],[6.0916,50.7229,280.7213],[6.0878,50.7214,273.7629],[6.0732,50.721,288.4573],[6.0446,50.7284,239.017],[6.0415,50.7187,243.736],[6.039,50.7184,243.736],[6.0365,50.7201,227.7433],[6.0367,50.7235,225.8611],[6.0284,50.7274,244.1742],[6.0286,50.7252,212.5904],[6.0116,50.7569,274.699],[5.9991,50.7564,256.7947],[5.9596,50.7621,277.4962],[5.9047,50.7552,168.6825],[5.8961,50.7596,198.0834],[5.8848,50.7395,186.0926],[5.8876,50.726,232.5411],[5.8871,50.712,281.6675],[5.8565,50.7112,216.7065],[5.8265,50.7164,251.5262],[5.8053,50.718,240.5521],[5.806,50.709,249.079],[5.7949,50.7016,161.6875],[5.7933,50.697,190.5356],[5.7718,50.6974,185.0311],[5.7681,50.6959,147.1254],[5.7676,50.692,186.685],[5.7711,50.6858,220.8409],[5.7704,50.6822,214.0029],[5.7653,50.6763,220.0377],[5.75,50.6668,256.7154],[5.7476,50.663,201.149],[5.7609,50.6581,226.8624],[5.7697,50.651,275.1605],[5.7684,50.6121,247.125],[5.7645,50.6052,255.7747],[5.7636,50.599,271.8798],[5.7538,50.5995,269.7205],[5.7271,50.6056,189.4643],[5.7179,50.6103,235.094],[5.7118,50.6106,246.7104],[5.6998,50.6068,206.9586],[5.6984,50.5946,170.1557],[5.708,50.5942,140.9598],[5.7111,50.5922,172.4335],[5.711,50.5822,232.5618],[5.7066,50.5754,176.8237],[5.7063,50.5698,194.276],[5.7083,50.5675,200.4365],[5.7178,50.5644,156.9912],[5.7256,50.5644,104.8238],[5.7342,50.5672,107.114],[5.7362,50.5694,110.4423],[5.7381,50.5767,152.5441],[5.751,50.5821,201.9418],[5.7759,50.58,273.5528],[5.7749,50.5632,136.7731],[5.7715,50.5586,212.8928],[5.7696,50.5511,283.989],[5.766,50.547,309.764],[5.7654,50.5336,325.4723],[5.7666,50.5286,346.9097],[5.7767,50.5163,315.0499],[5.7776,50.5127,307.3239],[5.7721,50.5019,325.7839],[5.765,50.4964,368.9876],[5.7603,50.4884,341.2429],[5.7595,50.478,381.2064],[5.7705,50.4696,410.202],[5.79,50.4486,492.8164],[5.8094,50.437,558.6154],[5.8092,50.4349,548.8269],[5.8058,50.4318,561.5842],[5.7887,50.4318,499.4736],[5.7768,50.4352,435.7926],[5.761,50.4425,381.4037],[5.7523,50.4435,257.9924],[5.746,50.4427,263.2131],[5.7302,50.4336,256.614],[5.7201,50.4319,371.5541],[5.7144,50.4255,409.0787],[5.713,50.4159,423.7578],[5.7093,50.4106,436.4307],[5.7084,50.397,397.4913],[5.7123,50.3927,384.0345],[5.7128,50.3867,451.592],[5.7074,50.3749,325.1729],[5.7014,50.3707,353.0408],[5.6824,50.3671,449.5737],[5.6737,50.3635,466.3053],[5.6876,50.3586,394.0687],[5.732,50.3497,353.7506],[5.7179,50.333,340.3755],[5.7161,50.3184,368.2296],[5.7169,50.3086,390.5965],[5.7203,50.3044,435.782],[5.7269,50.3001,398.1018],[5.7335,50.298,438.7299],[5.7507,50.2964,528.3848],[5.7537,50.2921,566.2719],[5.7338,50.2691,604.0859],[5.7291,50.2567,640.2709],[5.7573,50.2594,543.7961],[5.7762,50.2631,499.9235],[5.7973,50.2608,495.7863],[5.8286,50.2606,473.8938],[5.8583,50.2633,469.4736],[5.8871,50.2694,410.0782],[5.892,50.2753,524.3915],[5.8907,50.2817,440.7081],[5.8866,50.2836,417.035],[5.8678,50.2856,421.9119],[5.8635,50.2888,427.692],[5.8628,50.2918,426.4081],[5.8696,50.3023,472.1039],[5.871,50.308,498.6702],[5.8702,50.3126,484.5844],[5.8641,50.3235,548.1134],[5.8659,50.3272,522.3323],[5.8749,50.3356,466.7072],[5.8828,50.3401,427.1424],[5.887,50.3408,391.6666],[5.8931,50.3398,374.9164],[5.905,50.3337,352.4312],[5.9154,50.3304,357.3319],[5.9614,50.3308,539.6182],[5.9949,50.3193,545.3284],[6.0123,50.3109,464.4258],[6.0198,50.3054,506.7783],[6.0217,50.301,545.5486],[6.0211,50.2879,563.4598],[6.0172,50.2777,585.0793],[6.0155,50.2632,555.5248],[6.0112,50.2458,492.8778],[6.0187,50.2284,501.4828],[6.0233,50.2052,497.6485],[6.0331,50.1929,489.9733],[6.0284,50.1778,534.66],[6.0265,50.1777,534.66],[6.0314,50.1656,516.3116],[6.0482,50.1601,535.9146],[6.0708,50.1564,474.1562],[6.0775,50.1581,449.6595],[6.0808,50.1724,509.2033],[6.1016,50.1708,453.0885],[6.1204,50.1632,491.5215],[6.1254,50.151,403.9409],[6.1164,50.1376,438.6881],[6.1299,50.1338,398.827],[6.1484,50.1363,391.2164],[6.1547,50.1419,462.5412],[6.1529,50.1501,393.2311],[6.1485,50.1519,416.8551],[6.1406,50.148,346.5281],[6.1402,50.1498,340.6344],[6.132,50.154,329.2658],[6.1325,50.1555,340.3621],[6.1434,50.1559,355.7402],[6.1475,50.1606,333.7113],[6.1397,50.1683,339.2633],[6.1406,50.1696,350.2408],[6.1476,50.1705,366.7494],[6.1443,50.1735,343.924],[6.1462,50.1771,359.5872],[6.1502,50.1775,394.9541],[6.156,50.1718,436.5804],[6.1603,50.1718,443.3997],[6.1614,50.1776,496.667],[6.1653,50.1791,436.4363],[6.1771,50.1788,464.0141],[6.178,50.1799,464.0141],[6.1801,50.1781,488.1951],[6.1834,50.1782,504.194],[6.1928,50.1819,577.4288],[6.1858,50.184,547.1666],[6.1903,50.1876,513.0585],[6.1839,50.1921,468.381],[6.1865,50.1956,451.7802],[6.1854,50.2032,422.8055],[6.1889,50.2053,416.7996],[6.1831,50.2077,394.0523],[6.178,50.2165,362.669],[6.1668,50.2194,369.8048],[6.1672,50.2234,367.3096],[6.1697,50.225,386.8404]]]]}
,"properties": {"GID_3": "BEL.3.3.3_1","GID_0": "BEL","country": "Belgium","GID_1": "BEL.3_1","state": "Wallonie","NL_NAME_1": "NA","GID_2": "BEL.3.3_1","county": "Liège","NL_NAME_2": "NA","city": "Verviers","VARNAME_3": "NA","NL_NAME_3": "NA","TYPE_3": "Arrondissement","ENGTYPE_3": "Arrondissement","CC_3": "NA","HASC_3": "BE.LG.VV","name": "Verviers.city","area_km2": 1983.106,"hist_schema_id": "Elevation0-9000","hist_area_km2": {"100": 0.35,"125": 2.285,"150": 9.569,"175": 24.717,"200": 50.046,"225": 74.782,"250": 98.171,"275": 127.586,"300": 102.044,"325": 74.503,"350": 85.556,"375": 81.345,"400": 80.574,"425": 95.528,"450": 124.333,"475": 158.822,"500": 157.707,"525": 141.468,"550": 143.861,"575": 136.45,"600": 95.87,"625": 70.899,"650": 31.211,"675": 13.878,"700": 1.552}}}