{"type": "Feature","bbox": [4.4436,50.7075,5.1925,51.0521],"geometry": {"type": "MultiPolygon","coordinates": [[[[5.112,50.7336,102.7465],[5.1068,50.7413,101.2062],[5.1051,50.7585,90.103],[5.1131,50.7672,85.4109],[5.115,50.7722,81.9083],[5.1138,50.7775,73.7099],[5.1067,50.7873,65.7526],[5.1332,50.7919,61.5078],[5.1402,50.7971,55.6748],[5.1424,50.8058,62.3881],[5.1389,50.8174,43.4308],[5.1392,50.8244,40.3939],[5.1444,50.8363,35.5681],[5.1566,50.8557,29.4895],[5.1587,50.8671,27.7828],[5.1634,50.8723,27.7295],[5.1823,50.8795,36.58],[5.1908,50.8858,53.4299],[5.1925,50.8903,53.9391],[5.192,50.9022,48.9466],[5.1897,50.908,49.3875],[5.1573,50.9093,27.1196],[5.1391,50.9118,22.0362],[5.112,50.9119,29.6221],[5.0887,50.9061,45.7217],[5.0786,50.9182,32.3475],[5.0617,50.9203,29.3322],[5.0548,50.9248,51.3875],[5.0494,50.9312,47.6852],[5.0521,50.9446,69.3498],[5.0625,50.9473,51.7319],[5.0777,50.954,52.6128],[5.0839,50.9606,21.6896],[5.0843,50.9661,18.0314],[5.0771,50.9774,17.5522],[5.0792,50.9823,17.6357],[5.1088,50.9933,37.5525],[5.1251,50.9968,36.1261],[5.1264,51.0048,32.2397],[5.13,51.0088,53.0249],[5.1492,51.016,48.2387],[5.1662,51.0245,51.2083],[5.1565,51.036,30.267],[5.136,51.0491,21.8547],[5.1299,51.0508,22.081],[5.1052,51.0521,22.588],[5.0937,51.0503,25.8093],[5.0911,51.0454,24.5286],[5.0907,51.0341,27.96],[5.0888,51.0312,22.1696],[5.0671,51.0249,21.217],[5.0304,51.0258,19.5707],[5.0168,51.034,49.0903],[4.9946,51.0414,24.962],[4.9706,51.0465,34.8488],[4.9503,51.0472,18.9248],[4.913,51.0408,22.8044],[4.8915,51.0297,16.1129],[4.8606,51.0193,21.2457],[4.8293,51.0186,14.0221],[4.811,51.0349,10.5667],[4.7828,51.0439,10.9198],[4.7708,51.0399,11.7583],[4.7647,51.0346,11.6892],[4.74,51.0273,11.4492],[4.7299,51.0206,11.5069],[4.7179,51.0075,17.6769],[4.7073,51.0027,10.8936],[4.7047,51.0177,9.1006],[4.6977,51.023,10.4723],[4.6892,51.0249,10.6383],[4.6383,51.0239,8.6108],[4.6336,51.0187,11.6574],[4.6142,51.0102,18.3256],[4.6018,50.9981,8.0818],[4.5927,50.9966,4.9956],[4.5859,50.9966,5.5811],[4.5631,51.0029,5.0861],[4.5335,51.0085,7.0558],[4.5328,50.9877,9.5935],[4.5289,50.9808,10.3285],[4.5277,50.9698,19.5835],[4.5568,50.9692,9.4811],[4.5757,50.959,12.5692],[4.6013,50.9636,14.2951],[4.613,50.964,11.6784],[4.6167,50.9592,12.661],[4.6273,50.9521,19.6708],[4.6304,50.9475,13.8132],[4.6183,50.9373,16.6379],[4.6109,50.9339,15.0288],[4.601,50.9337,14.0559],[4.5955,50.9312,13.7436],[4.592,50.9238,16.8883],[4.5858,50.9178,18.5233],[4.5769,50.9152,23.8093],[4.5583,50.9148,31.3659],[4.5422,50.9116,31.0652],[4.5394,50.9022,40.8196],[4.5213,50.8914,58.3255],[4.524,50.8837,54.8038],[4.5308,50.8782,52.8038],[4.5326,50.8728,65.1922],[4.5398,50.8633,75.2805],[4.5402,50.8604,83.432],[4.534,50.8599,68.8524],[4.5316,50.8577,72.7174],[4.5316,50.8409,84.5375],[4.5297,50.8368,81.8952],[4.5116,50.8354,93.8588],[4.4919,50.8279,101.6743],[4.4909,50.8211,83.7345],[4.482,50.8177,120.1487],[4.4646,50.8173,110.452],[4.4557,50.8181,123.2591],[4.4554,50.8192,114.7369],[4.4483,50.8174,118.0119],[4.4436,50.8121,68.6355],[4.4468,50.8066,90.5439],[4.472,50.7959,117.2612],[4.4702,50.7924,124.8855],[4.4615,50.7897,117.3903],[4.4797,50.79,111.6109],[4.4937,50.7929,117.838],[4.5058,50.7977,120.9045],[4.5677,50.7967,93.0067],[4.5754,50.7872,46.1122],[4.58,50.7839,59.2197],[4.5972,50.7763,94.01],[4.6076,50.7746,47.7967],[4.6116,50.7724,41.8792],[4.6129,50.7701,42.3049],[4.6115,50.7673,40.4202],[4.593,50.7585,56.8787],[4.606,50.7514,87.0435],[4.6149,50.7496,91.1835],[4.6433,50.7492,98.0886],[4.6494,50.7523,98.3853],[4.6495,50.76,34.7771],[4.6417,50.776,28.0515],[4.6419,50.7842,32.7185],[4.6444,50.7914,26.0],[4.6827,50.7876,60.9688],[4.709,50.787,86.0477],[4.7314,50.7972,88.0322],[4.7474,50.8018,86.9669],[4.7603,50.8031,90.1561],[4.7678,50.8026,116.4027],[4.794,50.796,102.1151],[4.8048,50.7891,92.8976],[4.8071,50.7822,93.576],[4.8111,50.7783,98.9723],[4.8295,50.7717,83.9793],[4.8356,50.7661,95.5119],[4.8411,50.7638,93.7827],[4.8594,50.7583,94.2697],[4.8617,50.7555,92.6914],[4.8642,50.7469,67.6568],[4.8715,50.7426,65.1227],[4.8801,50.7424,65.2756],[4.9014,50.7471,82.5894],[4.9275,50.7459,80.1929],[4.9557,50.7537,77.3979],[4.9727,50.756,78.5947],[4.9778,50.7588,69.0133],[4.9804,50.7631,57.7514],[4.9986,50.7652,45.323],[5.0096,50.7619,63.0146],[5.0189,50.7518,77.4865],[5.0257,50.7476,89.513],[5.0397,50.7447,87.9888],[5.0477,50.7399,96.3309],[5.0537,50.7315,94.213],[5.055,50.7256,96.781],[5.0533,50.7224,103.6083],[5.0645,50.7136,110.9373],[5.0757,50.7088,114.4105],[5.0829,50.7075,118.4816],[5.0957,50.7084,123.1542],[5.1174,50.7178,114.8657],[5.112,50.7336,102.7465]]]]}
,"properties": {"GID_3": "BEL.2.4.2_1","GID_0": "BEL","country": "Belgium","GID_1": "BEL.2_1","state": "Vlaanderen","NL_NAME_1": "NA","GID_2": "BEL.2.4_1","county": "VlaamsBrabant","NL_NAME_2": "NA","city": "Leuven","VARNAME_3": "Louvain","NL_NAME_3": "NA","TYPE_3": "Arrondissement","ENGTYPE_3": "Arrondissement","CC_3": "NA","HASC_3": "BE.VB.LV","name": "Leuven.city","area_km2": 1202.8766,"hist_schema_id": "Elevation0-9000","hist_area_km2": {"0": 91.4386,"25": 409.1206,"50": 358.7533,"75": 253.9055,"100": 76.3375,"125": 12.2089,"150": 1.0854,"175": 0.0268}}}