{"type":"Feature","properties":{"GID_3":"BEL.3.2.5_1","GID_0":"BEL","country":"Belgium","GID_1":"BEL.3_1","state":"Wallonie","NL_NAME_1":"NA","GID_2":"BEL.3.2_1","county":"Hainaut","NL_NAME_2":"NA","city":"Soignies","VARNAME_3":"Zinnik","NL_NAME_3":"NA","TYPE_3":"Arrondissement","ENGTYPE_3":"Arrondissement","CC_3":"NA","HASC_3":"BE.HT.SG","name":"Soignies.city"},
"geometry":{"type": "MultiPolygon","coordinates": [[[[4.1937,50.522,131.2148],[4.188,50.5285,127.7495],[4.1972,50.534,118.1407],[4.2038,50.5407,111.7942],[4.2134,50.5419,119.6418],[4.229,50.5405,143.2571],[4.2295,50.5696,112.028],[4.2336,50.5779,105.8255],[4.2336,50.5901,96.192],[4.2389,50.5978,80.7509],[4.2431,50.6008,77.931],[4.2578,50.6018,103.4733],[4.2606,50.6145,138.7243],[4.232,50.6175,82.7737],[4.2125,50.6237,95.4278],[4.21,50.6301,111.3842],[4.2139,50.6426,113.6786],[4.2135,50.6469,109.9429],[4.2014,50.6594,102.3492],[4.1812,50.6578,62.0046],[4.1604,50.6437,83.9048],[4.1526,50.6302,104.8316],[4.1459,50.6267,107.2656],[4.1274,50.6252,85.9986],[4.1104,50.63,91.4107],[4.1064,50.6332,98.0981],[4.0909,50.6533,66.4607],[4.0889,50.665,70.6153],[4.0963,50.6745,75.7538],[4.0936,50.6862,61.2487],[4.0942,50.6938,64.3732],[4.1076,50.7099,77.8959],[4.0919,50.7096,87.2882],[4.0791,50.7071,61.8176],[4.0584,50.6972,62.8722],[4.0262,50.6914,57.0772],[3.9912,50.6906,50.0778],[3.9653,50.6829,73.0105],[3.9075,50.687,51.3395],[3.8815,50.713,59.8288],[3.8805,50.7263,41.0923],[3.884,50.7369,23.04],[3.8751,50.745,25.7568],[3.864,50.7484,49.5799],[3.8528,50.7474,19.0761],[3.8378,50.7398,30.1433],[3.8312,50.7382,26.2869],[3.8007,50.7448,40.1654],[3.7809,50.744,51.7182],[3.7829,50.7372,54.8359],[3.7816,50.7313,54.7415],[3.7729,50.7259,28.0143],[3.7544,50.7198,25.8248],[3.765,50.7159,24.982],[3.7699,50.7107,31.0492],[3.7694,50.6998,44.2756],[3.7622,50.6936,46.9067],[3.7613,50.6884,33.0956],[3.7742,50.6843,29.3793],[3.7983,50.6836,26.948],[3.8133,50.6733,21.9253],[3.8332,50.6754,31.1988],[3.8383,50.6725,41.1482],[3.841,50.6688,48.306],[3.8511,50.6653,41.9292],[3.8658,50.6652,38.7579],[3.8766,50.6688,56.6442],[3.8842,50.6604,42.1556],[3.8945,50.6533,49.4085],[3.8969,50.6474,56.3074],[3.9041,50.6412,68.3706],[3.9044,50.6322,73.0687],[3.8989,50.6221,62.5844],[3.9077,50.6206,58.5701],[3.9137,50.6164,71.0049],[3.9275,50.6155,63.7612],[3.9503,50.6099,89.5051],[3.964,50.6014,70.869],[3.9662,50.5926,82.5251],[3.9731,50.5871,91.9056],[3.9778,50.5784,95.0835],[3.9787,50.5611,92.4356],[3.982,50.556399999999996,94.9936],[3.9837,50.5499,100.9709],[3.9948,50.5352,103.4323],[3.9996,50.526,96.7967],[3.9984,50.5237,95.0194],[3.9847,50.517,104.2776],[3.9924,50.5148,100.3624],[4.0217,50.5145,90.6491],[4.0326,50.5116,98.6968],[4.038,50.5078,106.7753],[4.0405,50.502,109.5472],[4.0473,50.4995,110.492],[4.0488,50.4936,99.4558],[4.062,50.4828,68.3324],[4.0755,50.4769,70.3168],[4.0866,50.4766,89.2469],[4.0863,50.4436,65.4962],[4.1091,50.4404,66.2616],[4.1229,50.4358,71.8715],[4.1298,50.4352,73.0724],[4.15,50.4354,57.3501],[4.1769,50.4405,84.4386],[4.1963,50.4407,102.0571],[4.1998,50.4453,96.2787],[4.2147,50.455,102.2104],[4.2194,50.4611,111.8268],[4.2212,50.4665,112.9223],[4.225,50.4701,121.9197],[4.2248,50.4878,152.9749],[4.2239,50.4912,159.4292],[4.2131,50.4988,138.5688],[4.1981,50.5186,124.9992],[4.1937,50.522,131.2148]]]]}}