{"type":"Feature","properties":{"featurecla":"River","scalerank":8,"rivernum":724,"dissolve":"724River","name":"Meuse2","name_alt":null,"note":null,"min_zoom":7.0,"strokeweig":0.25,"name_en":"Meuse","min_label":8.0},
"geometry":{"type": "LineString","coordinates": [[4.75537109375,49.787860418744117,143.8172],[4.7540527343750227,49.80267975468162,158.4227],[4.749267578125,49.811786199994117,206.2216],[4.7457519531250227,49.82111237186912,148.0789],[4.74853515625,49.83624909061912,193.7965],[4.754150390625,49.84491608280662,296.3371],[4.7621093750000227,49.848163153119117,218.5372],[4.771875,49.84699127811912,153.9425],[4.78271484375,49.842401434369116,137.1803],[4.775390625,49.85419342655662,299.7611],[4.763671875,49.861200262494116,159.8246],[4.735595703125,49.869745184369116,272.9517],[4.740234375,49.87604401249412,148.638],[4.7413574218750227,49.880877996869117,142.9379],[4.7376953125000227,49.88544342655662,132.5],[4.728759765625,49.890887762494117,361.2653],[4.7188964843750227,49.87824127811912,301.1179],[4.710205078125,49.88349030155662,262.0997],[4.703857421875,49.898456121869117,147.0516],[4.701416015625,49.914813543744117,142.0372],[4.695556640625,49.91559479374412,193.7395],[4.6834960937500227,49.91388580936912,246.279],[4.6734863281250227,49.91852448124412,125.0],[4.6734863281250227,49.93866608280662,392.99],[4.6666503906250227,49.93866608280662,380.5338],[4.659423828125,49.926874090619116,140.2335],[4.651123046875,49.928583074994116,164.0522],[4.640380859375,49.935321356244117,145.3508],[4.625732421875,49.93866608280662,134.1842],[4.625732421875,49.94489166874412,193.7867],[4.6419921875000227,49.94660065311912,177.3961],[4.6541992187500227,49.954608465619117,124.1099],[4.6607910156250227,49.966424871869116,127.996],[4.6598144531250227,49.979608465619116,295.7454],[4.667236328125,49.98383209843162,347.823],[4.67578125,49.98578522343162,301.6476],[4.697998046875,49.986444403119116,152.8474],[4.71240234375,49.98944733280662,126.0363],[4.7135253906250227,49.995624090619117,115.602],[4.707763671875,50.00055573124412,196.6975],[4.701416015625,50.00006744999412,168.4969],[4.7018066406250227,50.002215887494117,164.0449],[4.7071777343750227,50.01422760624412,283.863],[4.711669921875,50.01569244999412,316.5273],[4.71875,50.01422760624412,208.5228],[4.7257324218750227,50.01373932499412,113.7025],[4.728759765625,50.01776764530662,133.8295],[4.729248046875,50.07990143436912,107.3787],[4.731201171875,50.086444403119117,113.7719],[4.742431640625,50.096307684369116,186.1982],[4.774658203125,50.11383698124412,106.7318],[4.779296875,50.11737702030662,156.5272],[4.788818359375,50.113544012494117,112.651],[4.792236328125,50.097919012494117,147.7801],[4.80322265625,50.096307684369116,130.296],[4.8138671875000227,50.101434637494116,178.4621],[4.815185546875,50.109491278119116,180.4536],[4.8104492187500227,50.117792059369116,172.3082],[4.80322265625,50.12360260624412,132.1799],[4.80322265625,50.13043854374412,118.4648],[4.8330078125,50.14435455936912,101.8186],[4.845458984375,50.15399811405662,122.6879],[4.834228515625,50.15839264530662,121.3186],[4.829833984375,50.16693756718162,136.6768],[4.83056640625,50.212420965619117,136.8895],[4.843017578125,50.213153387494117,98.6608],[4.8590332031250227,50.20636627811912,175.7113],[4.873046875,50.20355866093162,196.1799],[4.87890625,50.21613190311912,97.4431],[4.88427734375,50.21918366093162,146.7624],[4.895263671875,50.220575262494116,200.1961],[4.904052734375,50.22308991093162,183.4731],[4.9032226562500227,50.22943756718162,181.2483],[4.8994140625,50.23883698124412,97.5755],[4.90576171875,50.24445221561912,197.5898],[4.916748046875,50.24677155155662,123.234],[4.9267578125,50.24652741093162,206.7081],[4.9146972656250227,50.27680084843162,194.1084],[4.90966796875,50.281268621869117,216.3774],[4.902099609375,50.28449127811912,181.6361],[4.9027343750000227,50.292352606244116,204.9946],[4.906005859375,50.30158112186912,168.0241],[4.90625,50.309198309369116,237.9146],[4.89794921875,50.32025787968162,219.9814],[4.884765625,50.333856512494116,199.8595],[4.8702636718750227,50.345477606244117,111.8269],[4.8583984375,50.35016510624412,87.36],[4.870361328125,50.35370514530662,100.2727],[4.87451171875,50.35919830936912,117.6152],[4.875732421875,50.36688873905662,93.9977],[4.87890625,50.37689850468162,78.8447],[4.880126953125,50.38300202030662,128.0308],[4.8798828125,50.389911199994117,87.585],[4.8818359375,50.39813873905662,83.5159],[4.88916015625,50.408221746869117,137.1931],[4.89013671875,50.42145416874412,198.0096],[4.877685546875,50.43500397343162,158.8052],[4.868408203125,50.449579168744116,82.3314],[4.87890625,50.46625397343162,83.0817],[4.894775390625,50.47247955936912,164.5671],[4.957763671875,50.48676178593162,122.3308],[4.968505859375,50.48468659061912,162.4679],[4.9876953125000227,50.475702215619116,200.6963],[4.9990234375,50.47370026249412,113.8701],[5.0087890625,50.47614166874412,96.3506],[5.013916015625,50.48187897343162,73.1903],[5.0174804687500227,50.48847077030662,156.9877],[5.02294921875,50.493524481244116,93.5101],[5.0423828125000227,50.49957916874412,148.8705],[5.1083007812500227,50.500995184369117,116.1946],[5.12939453125,50.504901434369117,72.4592],[5.17431640625,50.52265045780662,131.8968],[5.1942382812500227,50.52765534061912,116.3187],[5.2162109375000227,50.52692291874412,77.8898],[5.2313476562500227,50.52411530155662,101.4916],[5.244140625,50.52570221561912,72.2259],[5.259765625,50.53827545780662,77.5594],[5.267822265625,50.541864324994116,156.0905],[5.280517578125,50.54315827030662,137.2893],[5.29296875,50.542010809369117,74.4118],[5.310546875,50.532831121869116,62.6061],[5.3207031250000227,50.53571198124412,63.8586],[5.3375488281250227,50.54816315311912,122.3599],[5.3849121093750227,50.57514069218162,78.0861],[5.4132324218750227,50.58515045780662,68.1742],[5.462158203125,50.59247467655662,62.3691],[5.4903808593750227,50.606952215619117,62.4169],[5.4990234375,50.610223699994116,58.9604],[5.5606933593750227,50.610223699994116,63.9018],[5.5714355468750227,50.615741278119117,78.1329],[5.5785156250000227,50.62836334843162,60.4794],[5.584375,50.642206121869116,64.7108],[5.591552734375,50.651874090619117,63.3223],[5.59912109375,50.654559637494117,64.6773],[5.617919921875,50.65607330936912,58.1414],[5.626220703125,50.65802643436912,59.9237],[5.634765625,50.66327545780662,59.8824],[5.638916015625,50.66840241093162,68.9152],[5.6416015625,50.67352936405662,52.375],[5.6461425781250227,50.67853424686912,54.4083],[5.6659179687500227,50.69342682499412,63.239],[5.6881347656250227,50.713983465619116,60.5271],[5.6996093750000227,50.73578522343162,90.972],[5.6876464843750227,50.75421784061912,50.7776],[5.6876464843750227,50.76105377811912,50.0349]]}}