{"type":"Feature","properties":{"featurecla":"River","scalerank":8,"rivernum":724,"dissolve":"724River","name":"Maas5","name_alt":"Meuse","note":"Changed name in 1.5","min_zoom":7.0,"strokeweig":0.25,"name_en":"Maas","min_label":8.0},
"geometry":{"type": "LineString","coordinates": [[5.6876464843750227,50.76105377811912,50.0349],[5.6982421875,50.78400299686912,43.5],[5.7041015625,50.82453034061912,44.563],[5.7003417968750227,50.864276434369117,45.6187],[5.681396484375,50.88458893436912,37.5],[5.6878906250000227,50.88934967655662,42.1432],[5.701416015625,50.905047918744117,42.2709],[5.7054687500000227,50.906854559369116,40.6409],[5.717041015625,50.90949127811912,40.4518],[5.7218261718750227,50.91193268436912,39.6534],[5.734619140625,50.92426178593162,40.8119],[5.751953125,50.947528387494117,36.6113],[5.763427734375,50.95966217655662,60.447],[5.7538085937500227,50.96332428593162,43.833],[5.7440429687500227,50.963495184369116,39.3486],[5.7218261718750227,50.95966217655662,31.3991],[5.7611328125000227,50.99945709843162,33.9996],[5.777099609375,51.02387116093162,27.6493],[5.763427734375,51.035419012494117,29.2313],[5.7657714843750227,51.04865143436912,26.7419],[5.7708984375000227,51.05841705936912,25.8624],[5.779052734375,51.06159088749412,29.8771],[5.7906738281250227,51.055292059369116,29.3454],[5.7982421875000227,51.06171295780662,28.8429],[5.8038574218750227,51.068866278119117,29.1484],[5.811279296875,51.08258698124412,28.3392],[5.8084960937500227,51.08661530155662,34.8855],[5.806884765625,51.08966705936912,27.5961],[5.804443359375,51.09686920780662,22.8694],[5.8153320312500227,51.09613678593162,22.7488],[5.8260742187500227,51.097186590619117,23.0002],[5.836181640625,51.09979889530662,25.9627],[5.8453613281250227,51.10370514530662,29.5974],[5.82275390625,51.11908600468162,26.4281],[5.8258300781250227,51.13043854374412,20.3816],[5.859619140625,51.151483465619116,19.742]]}}