{"type": "Feature","bbox": [4.188,50.3103,4.6198,50.6019],"geometry": {"type": "MultiPolygon","coordinates": [[[[4.5972,50.3445,220.77],[4.5979,50.3618,223.0702],[4.6044,50.3738,171.7646],[4.6054,50.3784,161.1895],[4.6033,50.3913,191.7301],[4.6183,50.4147,128.6745],[4.6198,50.4218,120.6159],[4.6189,50.4265,113.9976],[4.6137,50.4308,93.7851],[4.5844,50.4345,93.7092],[4.5881,50.441,119.0376],[4.588,50.4475,136.64],[4.591,50.4579,175.8119],[4.6015,50.475,151.5661],[4.6029,50.4828,140.9538],[4.6015,50.4852,154.0945],[4.5918,50.4915,153.4984],[4.5844,50.4915,152.4933],[4.5779,50.4879,159.9259],[4.5699,50.4869,153.2978],[4.5633,50.4878,147.6027],[4.5597,50.4913,143.6265],[4.5594,50.5018,141.7605],[4.5611,50.5101,133.1126],[4.5667,50.5199,151.7933],[4.5827,50.5367,146.9552],[4.5586,50.5356,148.7042],[4.5227,50.5268,147.0619],[4.512,50.5259,146.0772],[4.5031,50.5344,151.5397],[4.4993,50.5358,157.5711],[4.4934,50.5355,152.7387],[4.483,50.5321,147.9678],[4.4759,50.533,153.4283],[4.4666,50.5482,145.8154],[4.4417,50.5586,155.6693],[4.4219,50.5609,163.7052],[4.3765,50.5582,151.5728],[4.357,50.5543,150.5019],[4.3449,50.5541,158.7801],[4.3365,50.5617,149.2784],[4.312,50.5703,139.7646],[4.286,50.588,102.3734],[4.2614,50.5931,75.9197],[4.2582,50.5965,95.6224],[4.2578,50.6018,103.4733],[4.2515,50.6019,93.664],[4.2447,50.6014,89.9796],[4.2398,50.5987,80.7509],[4.2336,50.5901,96.192],[4.2336,50.5779,105.8255],[4.2295,50.5696,112.028],[4.229,50.5405,143.2571],[4.2054,50.5413,114.1914],[4.2001,50.5383,112.157],[4.1972,50.534,118.1407],[4.188,50.5285,127.7495],[4.1915,50.5235,125.6733],[4.1981,50.5186,124.9992],[4.2131,50.4988,138.5688],[4.2239,50.4912,159.4292],[4.225,50.4701,121.9197],[4.2388,50.471,161.9906],[4.2471,50.4732,162.8],[4.2628,50.4728,164.3852],[4.2687,50.4637,176.5891],[4.2752,50.4588,169.685],[4.2762,50.4513,166.7987],[4.268,50.4433,136.6908],[4.2677,50.4265,137.0451],[4.2775,50.4272,173.9639],[4.2936,50.431,171.4559],[4.2934,50.4069,185.9097],[4.2972,50.3995,194.3054],[4.2977,50.3809,178.0188],[4.3042,50.3717,121.6263],[4.3074,50.3701,111.5018],[4.3462,50.3688,175.1769],[4.3836,50.3526,219.6854],[4.3954,50.3533,215.866],[4.4038,50.3562,143.7232],[4.4071,50.36,116.9213],[4.4134,50.3607,134.0379],[4.4237,50.3603,188.5244],[4.4341,50.3555,218.5872],[4.4608,50.3545,219.3721],[4.479,50.3317,228.976],[4.4856,50.3257,218.2746],[4.5001,50.3259,216.7988],[4.511,50.3232,203.5676],[4.5182,50.3189,205.6115],[4.5247,50.311,231.6361],[4.5406,50.3103,227.165],[4.5751,50.317,258.4373],[4.5953,50.318,224.6551],[4.6008,50.3293,206.2397],[4.6005,50.3353,214.8867],[4.5972,50.3445,220.77]]]]}
,"properties": {"GID_3": "BEL.3.2.2_1","GID_0": "BEL","country": "Belgium","GID_1": "BEL.3_1","state": "Wallonie","NL_NAME_1": "NA","GID_2": "BEL.3.2_1","county": "Hainaut","NL_NAME_2": "NA","city": "Charleroi","VARNAME_3": "NA","NL_NAME_3": "NA","TYPE_3": "Arrondissement","ENGTYPE_3": "Arrondissement","CC_3": "NA","HASC_3": "BE.HT.CR","name": "Charleroi.city","area_km2": 564.0769,"hist_schema_id": "Elevation0-9000","hist_area_km2": {"75": 1.7231,"100": 48.5062,"125": 121.3426,"150": 218.3535,"175": 106.538,"200": 33.9492,"225": 25.8692,"250": 6.5227,"275": 1.2725}}}