{"type": "Feature","bbox": [3.4896,50.4488,3.9137,50.7674],"geometry": {"type": "MultiPolygon","coordinates": [[[[3.7321,50.4491,21.85],[3.7452,50.4488,20.1819],[3.7447,50.5198,78.214],[3.746,50.5247,72.6461],[3.7554,50.5307,78.9608],[3.7695,50.5318,77.8445],[3.7943,50.5442,68.5816],[3.8145,50.5488,59.5215],[3.8351,50.5562,63.0208],[3.836,50.5674,56.5081],[3.8432,50.5761,55.7498],[3.8452,50.5832,53.5651],[3.865,50.5829,63.1369],[3.8765,50.5803,70.5623],[3.8853,50.5808,63.8878],[3.9029,50.5917,62.7748],[3.9125,50.6008,84.7629],[3.9137,50.6164,71.0049],[3.9077,50.6206,58.5701],[3.8989,50.6221,62.5844],[3.9044,50.6322,73.0687],[3.9046,50.6398,81.544],[3.8969,50.6474,56.3074],[3.8945,50.6533,49.4085],[3.8842,50.6604,42.1556],[3.8766,50.6688,56.6442],[3.8658,50.6652,38.7579],[3.8511,50.6653,41.9292],[3.841,50.6688,48.306],[3.8383,50.6725,41.1482],[3.8332,50.6754,31.1988],[3.8133,50.6733,21.9253],[3.7983,50.6836,26.948],[3.7742,50.6843,29.3793],[3.7613,50.6884,33.0956],[3.7622,50.6936,46.9067],[3.7694,50.6998,44.2756],[3.7699,50.7107,31.0492],[3.765,50.7159,24.982],[3.7544,50.7198,25.8248],[3.7729,50.7259,28.0143],[3.7816,50.7313,54.7415],[3.7824,50.7404,55.3326],[3.7809,50.744,51.7182],[3.7653,50.7497,76.898],[3.7492,50.7655,127.0302],[3.7416,50.7674,124.2673],[3.7149,50.7653,115.7339],[3.6899,50.7671,110.6372],[3.6759,50.7665,119.1426],[3.6647,50.7436,79.446],[3.6617,50.7339,89.2063],[3.6476,50.7228,101.9229],[3.6154,50.7311,32.0035],[3.5784,50.729,19.43],[3.5467,50.7363,18.0682],[3.539,50.723,27.1271],[3.5348,50.7201,27.6032],[3.5113,50.7184,54.5335],[3.5018,50.7127,34.7161],[3.4896,50.6967,28.7476],[3.5001,50.6875,47.5246],[3.5132,50.6711,43.2728],[3.5146,50.6615,42.095],[3.5179,50.6568,47.7311],[3.5186,50.6506,34.3624],[3.5246,50.6462,41.3335],[3.5351,50.6419,56.894],[3.5478,50.6308,60.6607],[3.5568,50.6139,62.8906],[3.5817,50.6229,72.2887],[3.6087,50.6287,75.5439],[3.6424,50.6296,56.3379],[3.6544,50.6366,48.0481],[3.6628,50.6388,61.3121],[3.6801,50.6141,37.6664],[3.6867,50.6093,40.1859],[3.6937,50.6,51.4118],[3.7086,50.5903,46.7418],[3.7095,50.5848,48.6332],[3.6992,50.5732,67.7047],[3.6944,50.5696,64.1926],[3.6852,50.5683,61.4866],[3.6714,50.5599,59.8568],[3.6676,50.5567,64.3276],[3.6658,50.5513,69.1369],[3.6613,50.5452,65.7012],[3.6528,50.5397,56.7839],[3.6481,50.5393,55.3639],[3.6344,50.5422,50.8399],[3.6236,50.547,57.487],[3.6158,50.5456,57.8913],[3.6152,50.5203,37.7791],[3.6213,50.514,35.0765],[3.6154,50.5025,44.9216],[3.6157,50.4927,52.3857],[3.6161,50.4908,52.5737],[3.6294,50.4814,22.1037],[3.6436,50.4633,14.7495],[3.6627,50.4652,16.7618],[3.6815,50.4649,14.5],[3.7128,50.4522,19.601],[3.7321,50.4491,21.85]]]]}
,"properties": {"GID_3": "BEL.3.2.1_1","GID_0": "BEL","country": "Belgium","GID_1": "BEL.3_1","state": "Wallonie","NL_NAME_1": "NA","GID_2": "BEL.3.2_1","county": "Hainaut","NL_NAME_2": "NA","city": "Ath","VARNAME_3": "Aat","NL_NAME_3": "NA","TYPE_3": "Arrondissement","ENGTYPE_3": "Arrondissement","CC_3": "NA","HASC_3": "BE.HT.AT","name": "Ath.city","area_km2": 485.0435,"hist_schema_id": "Elevation0-9000","hist_area_km2": {"25": 94.7461,"50": 272.8979,"75": 85.8667,"100": 18.1743,"125": 11.3449,"150": 2.0135}}}