{"type":"Feature","properties":{"GID_3":"BEL.3.4.3_1","GID_0":"BEL","country":"Belgium","GID_1":"BEL.3_1","state":"Wallonie","NL_NAME_1":"NA","GID_2":"BEL.3.4_1","county":"Luxembourg","NL_NAME_2":"NA","city":"Marche-en-Famenne","VARNAME_3":"NA","NL_NAME_3":"NA","TYPE_3":"Arrondissement","ENGTYPE_3":"Arrondissement","CC_3":"NA","HASC_3":"BE.LX.MR","name":"Marche-en-Famenne.city"},
"geometry":{"type": "MultiPolygon","coordinates": [[[[5.5846,50.0802,421.0399],[5.5911,50.084,410.4823],[5.6098,50.0877,412.3539],[5.6617,50.1034,409.7672],[5.6769,50.1097,429.7381],[5.6775,50.1231,381.7178],[5.6813,50.1292,316.1001],[5.6815,50.1334,295.355],[5.6767,50.1429,326.7942],[5.6621,50.1562,368.9242],[5.6612,50.1605,271.1805],[5.6629,50.1678,396.0974],[5.6679,50.1735,440.9682],[5.6946,50.1895,496.1937],[5.7109,50.1894,481.1044],[5.7194,50.1848,430.8281],[5.7278,50.1837,458.6887],[5.734,50.1847,472.0945],[5.7392,50.1905,529.6838],[5.7403,50.1972,481.5379],[5.7391,50.2022,491.8445],[5.7272,50.2182,545.9131],[5.7209,50.2228,579.9834],[5.7201,50.2392,611.4629],[5.7211,50.2429,645.14],[5.7283,50.2509,648.7458],[5.7338,50.2691,604.0859],[5.7537,50.2921,566.2719],[5.7507,50.2964,528.3848],[5.7335,50.298,438.7299],[5.7269,50.3001,398.1018],[5.7203,50.3044,435.782],[5.7169,50.3086,390.5965],[5.7161,50.3184,368.2296],[5.7179,50.333,340.3755],[5.732,50.3497,353.7506],[5.6876,50.3586,394.0687],[5.6737,50.3635,466.3053],[5.6474,50.3641,424.4909],[5.6304,50.38,387.0793],[5.6088,50.3938,301.6482],[5.6009,50.3941,277.9747],[5.5697,50.3879,245.0412],[5.5478,50.3885,213.2141],[5.5366,50.3931,145.5518],[5.5272,50.4001,199.4122],[5.5241,50.4107,223.4212],[5.5149,50.4218,185.3079],[5.4926,50.4111,236.9459],[5.4709,50.4083,200.3232],[5.4465,50.417,240.6816],[5.4299,50.4257,235.867],[5.4182,50.4275,249.2398],[5.419,50.4194,262.1453],[5.429,50.4066,243.7014],[5.4293,50.4001,223.6293],[5.4199,50.3919,267.1703],[5.3988,50.3814,250.1515],[5.4071,50.3702,331.2379],[5.4077,50.3599,288.6057],[5.4022,50.3486,216.6475],[5.3953,50.3427,182.573],[5.3924,50.3316,198.9813],[5.3782,50.3247,221.8708],[5.3547,50.3197,231.1136],[5.3505,50.3161,226.3059],[5.3494,50.3128,234.3771],[5.3507,50.3075,245.7178],[5.3564,50.3052,229.3819],[5.3962,50.3124,192.4614],[5.4191,50.3094,205.4602],[5.428,50.3068,195.69],[5.4205,50.2948,172.9931],[5.3927,50.2835,184.9933],[5.3616,50.2628,220.4495],[5.3285,50.2433,195.0929],[5.3158,50.2404,209.9671],[5.2863,50.2396,241.3289],[5.2681,50.2344,268.7505],[5.2474,50.2256,265.265],[5.2233,50.224,191.6549],[5.2121,50.2208,183.7025],[5.2109,50.218,187.9291],[5.2113,50.2131,211.1904],[5.2142,50.2106,214.8512],[5.2201,50.209,250.0266],[5.2363,50.2097,228.2842],[5.2543,50.1958,276.1872],[5.2578,50.1852,257.516],[5.2616,50.1795,248.5857],[5.2779,50.1612,306.9824],[5.2868,50.1562,355.4094],[5.2893,50.1437,240.6068],[5.2879,50.1386,211.8362],[5.2714,50.1332,224.8508],[5.2677,50.129,226.4998],[5.2674,50.1211,270.2808],[5.2708,50.1109,256.2087],[5.2713,50.1012,306.582],[5.2833,50.0925,245.0883],[5.3023,50.0847,384.669],[5.31,50.0779,368.6642],[5.3175,50.0781,384.4566],[5.325,50.0844,369.8893],[5.3416,50.0879,366.3602],[5.3577,50.0878,465.8219],[5.3735,50.0844,505.2359],[5.3791,50.078,509.0956],[5.3809,50.0727,418.7554],[5.384,50.0711,467.0083],[5.3848,50.067,512.4094],[5.3888,50.0614,519.5914],[5.3973,50.0533,566.9153],[5.4081,50.0483,524.026],[5.4147,50.0417,540.982],[5.4217,50.0406,555.6276],[5.4321,50.0504,485.4993],[5.4491,50.0586,455.6701],[5.4587,50.0615,481.0966],[5.4921,50.0669,512.8907],[5.5314,50.0662,443.4825],[5.5405,50.0713,363.3581],[5.5846,50.0802,421.0399]]]]}}