{"type":"Feature","properties":{"GID_3":"BEL.3.4.4_1","GID_0":"BEL","country":"Belgium","GID_1":"BEL.3_1","state":"Wallonie","NL_NAME_1":"NA","GID_2":"BEL.3.4_1","county":"Luxembourg","NL_NAME_2":"NA","city":"Neufchâteau","VARNAME_3":"NA","NL_NAME_3":"NA","TYPE_3":"Arrondissement","ENGTYPE_3":"Arrondissement","CC_3":"NA","HASC_3":"BE.LX.NC","name":"Neufchâteau.city"},
"geometry":{"type": "MultiPolygon","coordinates": [[[[5.2995,49.7686,383.5309],[5.4155,49.7676,378.3513],[5.4286,49.7747,413.3955],[5.4458,49.7746,435.872],[5.4757999999999996,49.7547,438.8151],[5.4844,49.7458,434.3845],[5.486,49.7403,413.4346],[5.4908,49.7338,405.249],[5.4987,49.7286,359.825],[5.5062,49.7262,356.6699],[5.5254,49.7324,375.0265],[5.5347,49.7337,365.5515],[5.5524,49.7413,429.5731],[5.5569,49.7448,440.9162],[5.563,49.7584,462.993],[5.5688,49.762,464.3908],[5.5817,49.7628,467.7992],[5.5945,49.767,468.3134],[5.6074,49.7679,422.6754],[5.6223,49.7724,443.6919],[5.6616,49.772,470.7106],[5.6746,49.7744,474.0489],[5.6939,49.7742,442.2907],[5.6959,49.7832,459.6717],[5.6995,49.7885,457.9407],[5.7005,49.8016,489.7939],[5.7047,49.8097,502.5255],[5.6859,49.8204,481.6907],[5.6713,49.8236,456.2692],[5.6486,49.8245,478.8689],[5.6318,49.8274,473.5312],[5.6289,49.8293,483.2282],[5.6293,49.8341,471.0359],[5.6407,49.847,439.0547],[5.6432,49.8529,500.8776],[5.6507,49.8594,484.9286],[5.6527,49.8918,454.4993],[5.6243,49.8924,442.6545],[5.5911,49.8726,424.1605],[5.5743,49.868899999999996,434.2058],[5.5342,49.8693,484.7659],[5.5308,49.8743,501.0966],[5.5082,49.8899,484.0279],[5.5027,49.8946,495.5665],[5.5037,49.8987,493.6362],[5.5085,49.9047,533.7701],[5.5239,49.9148,511.4098],[5.5305,49.9339,527.8795],[5.5458,49.944,529.2225],[5.5538,49.9548,508.2484],[5.5277,49.9609,494.5681],[5.5245,49.9649,510.7273],[5.5109,49.9746,474.0847],[5.5081,49.981,468.0638],[5.4983,49.9857,495.915],[5.4896,49.9973,437.2234],[5.4888,50.0007,421.6891],[5.4899,50.0055,447.4182],[5.4976,50.0115,502.0004],[5.4981,50.015,483.09],[5.4966,50.0175,442.4406],[5.4918,50.0201,410.7407],[5.4728,50.0233,518.2667],[5.4576,50.023,496.1412],[5.4271,50.0278,575.3854],[5.4222,50.0337,590.3973],[5.4217,50.0406,555.6276],[5.4147,50.0417,540.982],[5.4081,50.0483,524.026],[5.3973,50.0533,566.9153],[5.3888,50.0614,519.5914],[5.3848,50.067,512.4094],[5.384,50.0711,467.0083],[5.3809,50.0727,418.7554],[5.3791,50.078,509.0956],[5.3743,50.084,521.1094],[5.3577,50.0878,465.8219],[5.3416,50.0879,366.3602],[5.3266,50.085,357.9312],[5.3183,50.0785,384.4566],[5.3113,50.0775,367.6874],[5.3023,50.0847,384.669],[5.2833,50.0925,245.0883],[5.2713,50.1012,306.582],[5.2525,50.1006,262.0037],[5.1756,50.0886,199.0877],[5.1523,50.0886,200.8407],[5.1397,50.0935,252.2916],[5.1328,50.0945,241.4967],[5.0931,50.0922,292.0121],[5.0856,50.095,258.5046],[5.0824,50.1002,190.8617],[5.0826,50.1232,177.7216],[5.0629,50.1175,168.0911],[5.0573,50.0995,211.8459],[5.0569,50.0813,219.8713],[5.0599,50.07,310.1268],[5.0558,50.062,333.9264],[5.0461,50.0536,342.0917],[5.0314,50.0481,304.9931],[5.0113,50.033,392.9737],[5.0003,50.0309,390.1193],[4.9864,50.0238,393.3458],[4.9939,50.0089,413.3931],[5.0015,50.0047,436.5223],[5.0135,49.9938,401.8746],[5.0214,49.9786,350.7269],[5.0259,49.9738,395.7855],[5.0371,49.9727,401.6071],[5.0528,49.9794,394.1553],[5.0603,49.9794,373.8772],[5.0752,49.9709,379.6124],[5.0849,49.9601,389.5333],[5.0898,49.9568,392.6642],[5.1029,49.9515,386.2993],[5.1079,49.9445,403.1253],[5.1055,49.9329,382.5377],[5.1071,49.9225,372.1234],[5.1015,49.917,401.5942],[5.0708,49.9024,444.5506],[5.0545,49.8917,411.9366],[5.0468,49.872,415.6275],[5.0345,49.8683,424.8214],[5.0262,49.8633,385.7189],[4.9999,49.8532,390.3541],[4.9936,49.849,393.8468],[4.9828,49.8383,209.1869],[4.99,49.829,330.3925],[4.9902,49.817,244.3801],[4.9847,49.8101,370.2893],[4.9795,49.8066,383.1354],[4.9784,49.8041,385.1042],[4.9815,49.8042,391.1201],[4.9796,49.8006,335.6483],[4.9718,49.8004,369.4631],[4.9915,49.8002,293.9521],[5.0018,49.7937,341.7367],[5.0149,49.7795,418.8191],[5.0468,49.7701,429.2264],[5.069,49.7616,375.8688],[5.0897,49.7648,330.0236],[5.0966,49.7598,338.893],[5.1249,49.7269,361.4048],[5.1231,49.7173,317.9664],[5.1436,49.7093,246.1987],[5.1605,49.7251,295.3807],[5.1614,49.7277,280.7545],[5.1611,49.7327,365.4438],[5.1501,49.7463,385.2664],[5.1499,49.75,405.5704],[5.1733,49.765,380.7807],[5.1762,49.7697,430.8786],[5.2082,49.7698,408.9246],[5.2259,49.7731,309.3734],[5.2351,49.772,287.3829],[5.2453,49.7687,303.089],[5.2604,49.7565,369.2686],[5.2652,49.7553,290.2439],[5.2716,49.756,401.1552],[5.2841,49.7616,423.8745],[5.2879,49.7654,424.1052],[5.2995,49.7686,383.5309]]]]}}