{"type": "Feature","bbox": [4.5592,50.2582,5.242,50.6448],"geometry": {"type": "MultiPolygon","coordinates": [[[[4.6005,50.3353,214.8867],[4.6004,50.3269,209.8651],[4.5953,50.318,224.6551],[4.5944,50.3086,266.8948],[4.598,50.3024,263.2684],[4.5988,50.2907,260.5215],[4.6097,50.2752,267.5826],[4.6183,50.2725,270.2106],[4.6442,50.2713,276.8047],[4.6522,50.2661,294.9832],[4.6586,50.2594,304.6117],[4.6634,50.2582,300.5226],[4.6743,50.2582,280.2317],[4.6904,50.2614,304.9858],[4.7086,50.2686,262.9375],[4.7498,50.269,278.0473],[4.7576,50.2729,288.0514],[4.7569,50.2819,255.2009],[4.7501,50.2831,263.9118],[4.742,50.2882,274.3688],[4.7369,50.2946,222.7975],[4.7361,50.2982,223.7322],[4.7367,50.3099,256.7095],[4.7457,50.3268,251.4342],[4.7571,50.3366,249.4088],[4.7674,50.3392,234.0291],[4.7908,50.3399,219.1437],[4.7984,50.3423,200.5219],[4.8005,50.3436,203.9539],[4.8018,50.3502,197.1417],[4.8041,50.3524,196.7045],[4.82,50.3534,219.42],[4.8275,50.3554,209.3627],[4.85,50.3555,262.4646],[4.8562,50.3543,266.7707],[4.86,50.3505,83.3514],[4.8653,50.3484,96.9026],[4.8871,50.3559,170.4362],[4.8988,50.3545,213.1787],[4.9037,50.352,233.6976],[4.9086,50.3482,280.8748],[4.9145,50.3392,148.2492],[4.9208,50.3359,164.491],[4.9275,50.3359,124.9033],[4.9652,50.3433,286.7635],[4.9982,50.3434,281.9041],[5.0061,50.3425,286.838],[5.0153,50.3352,258.1143],[5.0313,50.3352,265.9648],[5.0298,50.3407,286.5333],[5.0304,50.3465,303.0804],[5.0399,50.3531,275.2025],[5.0486,50.3535,274.1454],[5.0623,50.3485,241.4923],[5.0699,50.3484,283.7755],[5.0757,50.3527,280.0143],[5.094,50.3574,296.0042],[5.0953,50.3616,291.8973],[5.0943,50.3725,300.8843],[5.1094,50.3726,277.7683],[5.1342,50.3775,295.7739],[5.1349,50.3837,291.7515],[5.1423,50.3924,291.8337],[5.1446,50.3994,262.8876],[5.1714,50.3989,284.3594],[5.1821,50.3963,297.2621],[5.1939,50.3959,250.8555],[5.1986,50.3974,240.5686],[5.205,50.406,261.5603],[5.2103,50.4091,286.7025],[5.2215,50.4092,235.288],[5.2285,50.4063,233.8403],[5.2336,50.4198,250.1013],[5.242,50.431399999999996,232.0423],[5.2356,50.4412,246.9181],[5.2244,50.4494,200.2063],[5.2212,50.4546,220.0119],[5.2182,50.4653,226.3381],[5.2063,50.4775,253.1693],[5.1876,50.4695,258.8918],[5.1715,50.4686,254.3482],[5.1626,50.4791,254.8854],[5.1459,50.4943,179.8758],[5.1415,50.5004,189.9627],[5.115,50.5036,79.5625],[5.1106,50.5068,150.5022],[5.1077,50.5121,202.3139],[5.1018,50.5178,173.6343],[5.0915,50.5187,154.9921],[5.0702,50.5141,169.728],[5.0292,50.51,211.9827],[5.0335,50.5239,210.8754],[5.0514,50.5437,206.8132],[5.056,50.5548,190.2627],[5.046,50.5626,183.2558],[5.0304,50.5851,168.6167],[5.0234,50.588,160.9998],[5.0049,50.6001,145.8333],[4.9858,50.6151,145.049],[4.9899,50.6274,133.6528],[4.9909,50.6413,136.7462],[4.9757,50.6448,143.0808],[4.9681,50.6446,136.3708],[4.9558,50.6355,143.9456],[4.9486,50.6262,135.6481],[4.9115,50.6205,139.9385],[4.8996,50.6127,144.0333],[4.8879,50.6088,148.6581],[4.867,50.6058,144.7796],[4.8488,50.6064,155.4602],[4.8237,50.6034,158.2686],[4.7907,50.6028,164.8742],[4.7761,50.5996,153.8915],[4.7564,50.5905,152.8013],[4.7502,50.5909,149.8445],[4.7463,50.5932,154.4107],[4.7349,50.6087,163.5574],[4.7231,50.6049,167.4544],[4.7102,50.5957,157.1434],[4.7021,50.5933,157.8283],[4.6917,50.5942,161.3325],[4.6752,50.5999,155.4973],[4.665,50.6,159.4696],[4.6627,50.597,153.7318],[4.6622,50.5931,145.8497],[4.6727,50.5794,161.1375],[4.677,50.5689,156.3135],[4.6752,50.5643,161.6667],[4.662,50.5609,162.5814],[4.6468,50.5603,158.9496],[4.6181,50.5623,152.9219],[4.6173,50.5651,151.5772],[4.6112,50.5654,153.1032],[4.5795,50.5513,154.4052],[4.5827,50.5367,146.9552],[4.5667,50.5199,151.7933],[4.56,50.5066,135.1002],[4.5592,50.4946,144.5018],[4.5619,50.4884,147.6027],[4.5749,50.4872,155.1121],[4.5844,50.4915,152.4933],[4.5918,50.4915,153.4984],[4.5987,50.4881,159.7395],[4.6029,50.4828,140.9538],[4.6015,50.475,151.5661],[4.591,50.4579,175.8119],[4.588,50.4475,136.64],[4.5881,50.441,119.0376],[4.5844,50.4345,93.7092],[4.6137,50.4308,93.7851],[4.6173,50.4285,95.3349],[4.6196,50.4242,123.5553],[4.6183,50.4147,128.6745],[4.6033,50.3913,191.7301],[4.6054,50.3784,161.1895],[4.6044,50.3738,171.7646],[4.5979,50.3618,223.0702],[4.5967,50.3532,235.8303],[4.5972,50.3445,220.77],[4.6005,50.3353,214.8867]]]]}
,"properties": {"GID_3": "BEL.3.5.2_1","GID_0": "BEL","country": "Belgium","GID_1": "BEL.3_1","state": "Wallonie","NL_NAME_1": "NA","GID_2": "BEL.3.5_1","county": "Namur","NL_NAME_2": "NA","city": "Namur","VARNAME_3": "Namen","NL_NAME_3": "NA","TYPE_3": "Arrondissement","ENGTYPE_3": "Arrondissement","CC_3": "NA","HASC_3": "BE.NA.NM","name": "Namur.city","area_km2": 1157.8154,"hist_schema_id": "Elevation0-9000","hist_area_km2": {"25": 0.0135,"50": 0.1214,"75": 26.3079,"100": 45.6025,"125": 60.7246,"150": 237.2188,"175": 270.8755,"200": 127.9708,"225": 96.3538,"250": 162.0452,"275": 111.4141,"300": 18.7615,"325": 0.4058}}}