{"type": "Feature","id": "3475","bbox": [3.88797,50.68873,5.18623,51.05187],"geometry": {"type": "Polygon","coordinates": [[[5.13295,51.01699,34.2098],[5.15827,51.0235,44.3909],[5.13119,51.04546,22.7348],[5.10892,51.05187,34.192],[5.08086,51.04955,31.2299],[5.08101,51.02448,22.1934],[5.06318,51.01745,19.7303],[5.04251,51.02557,31.4158],[5.02246,51.02066,30.0247],[5.00634,51.0404,23.1751],[4.98092,51.03601,22.2901],[4.96707,51.04647,24.9613],[4.94831,51.04572,16.3676],[4.90971,51.0359,13.899],[4.88283,51.02087,20.7695],[4.87059,51.02469,16.2089],[4.81855,51.01107,28.8047],[4.80573,51.01652,12.078],[4.78868,51.04009,10.0916],[4.75602,51.02438,10.5192],[4.7339,51.02735,12.3035],[4.69494,50.99978,17.2519],[4.70626,51.01559,9.8109],[4.67938,51.02484,9.6001],[4.60647,51.01249,20.3587],[4.59339,50.99211,15.9889],[4.57805,50.99229,4.6285],[4.54616,51.00412,4.7231],[4.52802,50.99343,13.8771],[4.49428,51.00973,10.6974],[4.47614,50.99239,10.2603],[4.45382,51.00681,2.8747],[4.3931,50.99746,8.5001],[4.38824,51.01229,8.0209],[4.36953,51.01593,8.9213],[4.37909,51.0311,5.5572],[4.34793,51.01792,8.5003],[4.34142,51.01994,11.6345],[4.34819,51.02701,5.536],[4.29889,51.04102,7.6414],[4.2746,51.04368,19.5135],[4.24034,51.03807,5.862],[4.21709,50.99012,23.9469],[4.19414,50.9835,11.9362],[4.16174,50.99058,8.6463],[4.1465,50.97058,16.6145],[4.16071,50.94265,52.4244],[4.16019,50.92991,76.0843],[4.13704,50.91958,44.5534],[4.09125,50.93183,25.6894],[4.10014,50.9125,68.9873],[4.07363,50.90005,7.9053],[4.0881,50.89193,9.9776],[4.08712,50.88139,6.9954],[4.0404,50.83845,10.2728],[4.06598,50.83542,23.3534],[4.07487,50.82072,43.113],[4.06035,50.79264,36.9866],[4.03038,50.77649,53.7764],[4.01333,50.77215,54.0008],[3.99927,50.78047,46.7101],[3.98217,50.76685,39.1373],[3.95628,50.77977,74.6686],[3.94398,50.77535,87.2135],[3.93116,50.75757,50.6073],[3.95204,50.73949,40.9065],[3.95064,50.73411,43.8553],[3.91829,50.72884,27.3193],[3.89499,50.73416,28.1068],[3.895,50.73415,28.1068],[3.88797,50.71756,49.2151],[3.89277,50.70641,54.133],[3.89278,50.7064,54.133],[3.90693,50.69467,45.6391],[3.92823,50.68981,59.9583],[3.98884,50.68873,49.494],[4.009,50.69898,52.6331],[4.02801,50.69503,46.0951],[4.05147,50.70283,57.1601],[4.0585,50.69601,60.1272],[4.07271,50.71291,44.8314],[4.09974,50.70712,83.6987],[4.09975,50.70714,83.6987],[4.10749,50.7172,67.1799],[4.13183,50.71694,54.3593],[4.13912,50.72795,73.607],[4.14904,50.73038,64.2119],[4.1586,50.72785,70.469],[4.18025,50.70873,76.5555],[4.20743,50.70909,53.6759],[4.23999,50.69203,95.753],[4.25957,50.70108,113.8298],[4.28722,50.69524,120.4577],[4.30185,50.69829,138.1413],[4.30877,50.70356,143.1678],[4.31141,50.7188,64.7848],[4.33326,50.71903,103.2031],[4.33325,50.71905,103.2031],[4.32262,50.72903,99.5857],[4.32262,50.72904,99.5857],[4.32991,50.73431,87.8898],[4.34903,50.71761,123.2296],[4.36789,50.71674,100.0886],[4.37368,50.73182,121.3874],[4.42173,50.73655,124.5717],[4.45801,50.75456,147.0431],[4.48003,50.75895,96.038],[4.49453,50.75761,103.1458],[4.49455,50.75761,103.1458],[4.49021,50.74609,86.1479],[4.49021,50.74609,86.1479],[4.49512,50.74107,81.3503],[4.52695,50.72945,75.1962],[4.52917,50.74182,97.179],[4.57294,50.74836,91.426],[4.59655,50.76469,44.4078],[4.59656,50.76469,44.4078],[4.60182,50.74295,85.4675],[4.60183,50.74293,85.4675],[4.63521,50.74407,90.4804],[4.65464,50.75839,36.2354],[4.65463,50.7584,36.2354],[4.63635,50.77399,31.9742],[4.63635,50.774,31.9742],[4.64048,50.79957,34.0772],[4.69267,50.79099,99.8169],[4.71024,50.7973,80.1639],[4.71024,50.7973,80.1639],[4.71416,50.78982,93.5361],[4.71417,50.78981,93.5361],[4.72285,50.80257,92.5072],[4.74962,50.80867,92.0144],[4.79153,50.79947,95.1196],[4.81293,50.77689,98.7024],[4.83689,50.77549,83.3776],[4.8369,50.77549,83.3776],[4.83262,50.76465,97.1934],[4.83261,50.76464,99.7228],[4.90805,50.76957,53.6855],[4.90806,50.76957,53.6855],[4.90455,50.75157,83.3677],[4.90455,50.75156,83.3677],[4.91721,50.7448,96.1869],[4.93235,50.74629,79.292],[4.98144,50.77094,67.9969],[5.0191,50.75193,77.4865],[5.01911,50.75193,77.4865],[5.04355,50.74284,89.4856],[5.04356,50.74283,89.4856],[5.04304,50.72511,94.6039],[5.04304,50.72511,94.6039],[5.05953,50.71157,115.2597],[5.07472,50.70692,125.0531],[5.1011,50.70976,127.2447],[5.10112,50.70977,127.2447],[5.12044,50.73602,91.774],[5.10112,50.74331,98.267],[5.11455,50.76357,87.4016],[5.10639,50.78197,75.2105],[5.1516,50.81163,52.882],[5.12949,50.81659,41.311],[5.13651,50.85026,43.6947],[5.15321,50.87963,25.1738],[5.17269,50.87545,32.7387],[5.17749,50.87863,35.968],[5.18623,50.9063,49.731],[5.17165,50.91431,36.1538],[5.13662,50.91459,23.9917],[5.13315,50.92253,21.7868],[5.09455,50.91098,39.3936],[5.07781,50.92258,23.0128],[5.06122,50.91803,27.0567],[5.05466,50.92123,44.9374],[5.04148,50.94309,68.728],[5.08169,50.96565,20.1541],[5.08262,50.98774,19.1429],[5.12437,50.99983,27.552],[5.11796,51.02335,24.3378],[5.12778,51.02495,33.5066],[5.13295,51.01699,34.2098]],
[[4.47977,50.79541,126.076],[4.39843,50.76779,133.5494],[4.37724,50.76464,115.6293],[4.35528,50.76715,98.4423],[4.32763,50.77898,49.5532],[4.30123,50.8144,23.6415],[4.28304,50.80841,25.1877],[4.24557,50.82164,44.9311],[4.24558,50.82165,44.9311],[4.25746,50.83693,62.7756],[4.28283,50.83962,48.0845],[4.28918,50.85642,70.6281],[4.28917,50.85643,70.6281],[4.27895,50.86779,39.6178],[4.27895,50.86779,39.6178],[4.29792,50.89145,77.9007],[4.33461,50.90313,71.2074],[4.37734,50.89858,39.3897],[4.40329,50.91481,50.143],[4.42049,50.90634,19.9563],[4.43619,50.88929,47.7779],[4.4362,50.88928,47.7779],[4.43569,50.87967,53.4564],[4.42004,50.8695,60.88],[4.42003,50.86949,60.88],[4.46023,50.85321,76.4564],[4.46023,50.85321,76.4564],[4.4761,50.82153,126.3415],[4.45491,50.81978,114.7369],[4.44649,50.811,64.2905],[4.44649,50.81099,64.2905],[4.47975,50.79542,149.1362],[4.47977,50.79541,126.076]]]}
,"properties": {"ISO3166-1-Alpha-3": "BEL","country": "Belgium","fill": "#00F","name": "Flemish Brabant","area_km2": 2116.047,"hist_schema_id": "Elevation0-9000","hist_area_km2": {"0": 193.131,"25": 682.79,"50": 678.987,"75": 381.53,"100": 132.145,"125": 39.536,"150": 7.901,"175": 0.027}}}