{"type": "Feature","bbox": [3.8803,50.6829,5.1928,51.0521],"geometry": {"type": "MultiPolygon","coordinates": [[[[3.9271,50.7331,25.1338],[3.9152,50.7326,36.4019],[3.884,50.7369,23.04],[3.8815,50.7311,25.103],[3.8803,50.719,51.229],[3.8815,50.713,59.8288],[3.9075,50.687,51.3395],[3.9653,50.6829,73.0105],[3.9912,50.6906,50.0778],[4.0262,50.6914,57.0772],[4.0617,50.698,63.7557],[4.0791,50.7071,61.8176],[4.0872,50.7089,54.9984],[4.1076,50.7099,77.8959],[4.1138,50.7158,73.9143],[4.1206,50.7195,66.5707],[4.1367,50.7212,61.4037],[4.1505,50.7196,51.566],[4.1726,50.7061,69.5767],[4.2053,50.7031,50.4635],[4.2349,50.6915,77.2254],[4.2621,50.6941,94.9094],[4.273,50.6981,118.2602],[4.3037,50.6964,130.0003],[4.316,50.7121,112.8186],[4.3276,50.7176,102.8807],[4.331,50.723,104.2133],[4.3315,50.7292,113.5914],[4.3442,50.7241,113.5732],[4.3612,50.7076,110.1702],[4.3697,50.7142,99.8829],[4.3718,50.7245,115.4095],[4.3749,50.7278,117.4484],[4.4087,50.7339,121.2791],[4.4213,50.7339,127.0884],[4.4349,50.7293,87.3494],[4.443,50.7379,140.2199],[4.454,50.7459,113.7131],[4.4608,50.75,114.7569],[4.469,50.7524,114.28],[4.4851,50.7532,100.5558],[4.4857,50.7418,77.9725],[4.4953,50.7294,69.4848],[4.5075,50.728,72.819],[4.5224,50.7295,57.6108],[4.5439,50.7404,88.4866],[4.5715,50.7424,79.2257],[4.5756,50.7518,85.2263],[4.5804,50.7556,77.7581],[4.5867,50.7575,78.1642],[4.593,50.7585,56.8787],[4.606,50.7514,87.0435],[4.6149,50.7496,91.1835],[4.6463,50.7498,96.319],[4.6494,50.7523,98.3853],[4.6502,50.7555,34.6551],[4.6495,50.76,34.7771],[4.6417,50.776,28.0515],[4.6419,50.7842,32.7185],[4.6444,50.7914,26.0],[4.6827,50.7876,60.9688],[4.709,50.787,86.0477],[4.7314,50.7972,88.0322],[4.7474,50.8018,86.9669],[4.7603,50.8031,90.1561],[4.7678,50.8026,116.4027],[4.794,50.796,102.1151],[4.8048,50.7891,92.8976],[4.8071,50.7822,93.576],[4.8111,50.7783,98.9723],[4.8295,50.7717,83.9793],[4.8356,50.7661,95.5119],[4.8411,50.7638,93.7827],[4.8594,50.7583,94.2697],[4.8617,50.7555,92.6914],[4.8642,50.7469,67.6568],[4.8715,50.7426,65.1227],[4.8801,50.7424,65.2756],[4.9014,50.7471,82.5894],[4.9275,50.7459,80.1929],[4.9557,50.7537,77.3979],[4.9727,50.756,78.5947],[4.9778,50.7588,69.0133],[4.9804,50.7631,57.7514],[4.9934,50.765,48.0678],[5.0037,50.7645,58.2107],[5.0129,50.7593,66.8703],[5.0214,50.75,81.304],[5.0257,50.7476,89.513],[5.0397,50.7447,87.9888],[5.0477,50.7399,96.3309],[5.0537,50.7315,94.213],[5.055,50.7256,96.781],[5.0533,50.7224,103.6083],[5.0645,50.7136,110.9373],[5.0792,50.7079,120.7891],[5.0921,50.7077,124.6402],[5.1058,50.7118,120.5377],[5.1174,50.7178,114.8657],[5.1132,50.7316,108.4907],[5.1083,50.7381,100.7792],[5.1062,50.7448,94.5478],[5.1051,50.7585,90.103],[5.1131,50.7672,85.4109],[5.115,50.7722,81.9083],[5.1138,50.7775,73.7099],[5.1067,50.7873,65.7526],[5.1332,50.7919,61.5078],[5.1402,50.7971,55.6748],[5.1424,50.8058,62.3881],[5.1389,50.8174,43.4308],[5.1392,50.8244,40.3939],[5.1444,50.8363,35.5681],[5.1566,50.8557,29.4895],[5.1587,50.8671,27.7828],[5.1676,50.8747,28.3493],[5.1777,50.8775,35.968],[5.1877,50.8828,44.0643],[5.192,50.888,54.693],[5.1928,50.8962,53.3434],[5.1897,50.908,49.3875],[5.1177,50.9122,31.0863],[5.1069,50.9112,31.1534],[5.0887,50.9061,45.7217],[5.0786,50.9182,32.3475],[5.0617,50.9203,29.3322],[5.0548,50.9248,51.3875],[5.0494,50.9312,47.6852],[5.0521,50.9446,69.3498],[5.0625,50.9473,51.7319],[5.0777,50.954,52.6128],[5.0839,50.9606,21.6896],[5.0843,50.9661,18.0314],[5.0771,50.9774,17.5522],[5.0792,50.9823,17.6357],[5.1088,50.9933,37.5525],[5.1251,50.9968,36.1261],[5.1264,51.0048,32.2397],[5.13,51.0088,53.0249],[5.1492,51.016,48.2387],[5.1662,51.0245,51.2083],[5.1565,51.036,30.267],[5.136,51.0491,21.8547],[5.1299,51.0508,22.081],[5.1052,51.0521,22.588],[5.0937,51.0503,25.8093],[5.0911,51.0454,24.5286],[5.0907,51.0341,27.96],[5.0888,51.0312,22.1696],[5.0671,51.0249,21.217],[5.0304,51.0258,19.5707],[5.0168,51.034,49.0903],[4.9946,51.0414,24.962],[4.9706,51.0465,34.8488],[4.9503,51.0472,18.9248],[4.913,51.0408,22.8044],[4.8799,51.025,14.1981],[4.8606,51.0193,21.2457],[4.8511,51.0184,15.8051],[4.8293,51.0186,14.0221],[4.811,51.0349,10.5667],[4.7828,51.0439,10.9198],[4.7708,51.0399,11.7583],[4.7647,51.0346,11.6892],[4.74,51.0273,11.4492],[4.7299,51.0206,11.5069],[4.7179,51.0075,17.6769],[4.7073,51.0027,10.8936],[4.7047,51.0177,9.1006],[4.6977,51.023,10.4723],[4.6892,51.0249,10.6383],[4.6449,51.0248,9.4437],[4.6383,51.0239,8.6108],[4.6336,51.0187,11.6574],[4.6183,51.0127,10.1709],[4.6107,51.0074,14.7314],[4.6018,50.9981,8.0818],[4.589,50.9964,9.8626],[4.5335,51.0085,7.0558],[4.5195,51.0142,5.3067],[4.5007,51.0164,8.1793],[4.4951,51.0058,8.1338],[4.4883,50.9995,8.4443],[4.4783,50.9992,7.7756],[4.4554,51.0042,8.4343],[4.4187,50.9998,8.5084],[4.3984,51.006,7.079],[4.3867,51.0074,7.3385],[4.3869,51.025,6.7371],[4.3819,51.0289,5.6382],[4.3636,51.0277,4.9192],[4.3217,51.034,6.6168],[4.3071,51.0418,7.5037],[4.2926,51.0453,8.019],[4.2782,51.0458,8.3255],[4.2539,51.0417,10.7377],[4.2439,51.0433,6.1795],[4.2387,51.0245,8.2646],[4.2373,51.0079,14.6156],[4.2328,51.0012,13.4762],[4.2259,50.9949,16.6111],[4.2107,50.9876,26.0665],[4.1884,50.9896,15.2655],[4.1701,50.9953,13.2401],[4.15,50.9743,13.9061],[4.1524,50.9661,23.4564],[4.166,50.9527,42.052],[4.1698,50.943,49.9184],[4.1604,50.9353,71.056],[4.1497,50.9202,55.7247],[4.12,50.933,31.0643],[4.1066,50.9345,23.0682],[4.0993,50.932,34.7059],[4.0977,50.9164,57.6235],[4.0953,50.9116,47.855],[4.0892,50.9064,33.9041],[4.0807,50.9042,24.836],[4.0819,50.8922,10.2546],[4.0902,50.8808,8.4936],[4.0824,50.8733,10.9731],[4.074,50.8591,16.5353],[4.0589,50.8472,10.7048],[4.0545,50.8404,23.0095],[4.0551,50.8363,28.1907],[4.0569,50.8345,17.8832],[4.0765,50.8323,28.0889],[4.0803,50.829,41.9773],[4.0806,50.8127,77.845],[4.0737,50.8038,50.5631],[4.0501,50.7848,42.3953],[4.0456,50.7793,47.8053],[4.0256,50.7741,50.023],[4.0083,50.7745,45.3188],[3.9845,50.771,34.0992],[3.9758,50.7734,42.6587],[3.9684,50.7776,60.8144],[3.9604,50.7783,74.1592],[3.9435,50.7733,98.3303],[3.9355,50.7681,94.145],[3.9297,50.7613,67.937],[3.9284,50.7523,32.5109],[3.9337,50.7449,26.7125],[3.9435,50.7414,28.7912],[3.9485,50.7375,29.0964],[3.9271,50.7331,25.1338]],
[[4.4125,50.9092,13.7473],[4.4218,50.9097,12.0861],[4.4269,50.9033,16.6601],[4.4286,50.896,25.3594],[4.4317,50.8928,31.561],[4.4285,50.8878,47.461],[4.4358,50.8788,53.4564],[4.4349,50.8769,55.6098],[4.4254,50.8728,57.6457],[4.4231,50.8661,67.4922],[4.4239,50.8612,76.1864],[4.4318,50.8603,76.8373],[4.4467,50.8528,41.9085],[4.4531,50.848,70.8739],[4.4587,50.8402,65.9803],[4.4585,50.8234,93.515],[4.4563,50.8193,122.1044],[4.4483,50.8174,118.0119],[4.4437,50.8108,64.2905],[4.4468,50.8066,90.5439],[4.4691,50.7975,115.822],[4.4722,50.7949,123.663],[4.4682,50.7915,117.7025],[4.4545,50.7878,125.279],[4.4545,50.7829,125.5747],[4.4326,50.7798,137.0966],[4.4131,50.7725,129.842],[4.4034,50.7744,144.7276],[4.3765,50.7671,117.8457],[4.3723,50.7677,114.9862],[4.3715,50.7708,106.83],[4.368,50.7724,95.1028],[4.321,50.7761,56.7207],[4.3237,50.7858,33.5724],[4.3226,50.7891,31.6082],[4.3084,50.8007,23.2761],[4.3002,50.8019,22.5443],[4.2989,50.8071,21.7294],[4.2768,50.8092,26.0936],[4.269,50.8125,30.7641],[4.2578,50.8133,44.8674],[4.2536,50.818,46.8945],[4.2438,50.8203,51.4543],[4.2454,50.8243,42.2559],[4.2538,50.8296,31.6397],[4.2568,50.8358,62.7756],[4.2699,50.8374,43.1396],[4.2834,50.8415,57.2925],[4.287,50.8555,66.2652],[4.281,50.8602,47.7098],[4.2799,50.8644,39.6625],[4.295,50.8755,31.1934],[4.3043,50.8803,30.5363],[4.2982,50.887,83.7792],[4.2992,50.8888,92.7393],[4.3023,50.8896,77.3029],[4.3044,50.8948,56.7835],[4.3219,50.894,75.3346],[4.342,50.901,77.9535],[4.3587,50.9006,68.9096],[4.3721,50.8981,49.3555],[4.3961,50.9094,50.9141],[4.4125,50.9092,13.7473]]]]}
,"properties": {"GID_2": "BEL.2.4_1","GID_0": "BEL","country": "Belgium","GID_1": "BEL.2_1","state": "Vlaanderen","NL_NAME_1": "NA","county": "VlaamsBrabant","VARNAME_2": "BrabantFlamand|BrabanteFlamenc","NL_NAME_2": "NA","TYPE_2": "Provincie","ENGTYPE_2": "Province","CC_2": "NA","HASC_2": "BE.VB","name": "VlaamsBrabant.county","area_km2": 2196.88,"hist_schema_id": "Elevation0-9000","hist_area_km2": {"0": 206.196,"25": 696.116,"50": 700.204,"75": 400.285,"100": 139.626,"125": 45.25,"150": 9.149,"175": 0.054}}}