{"type":"Feature","properties":{"ISO3166-1-Alpha-3":"BEL","country":"Belgium","fill":"#FF0","id":"3477","name":"Luxembourg"},
"geometry":{"type": "Polygon","coordinates": [[[5.46848,50.40907,156.7031],[5.42507,50.43077,258.6055],[5.41179,50.43031,253.329],[5.4057,50.42338,245.7614],[5.42575,50.40059,229.1334],[5.39242,50.38047,283.518],[5.4012,50.36757,312.3795],[5.38022,50.34964,233.5945],[5.39443,50.33775,202.2304],[5.34007,50.31184,258.2935],[5.34777,50.30665,248.2262],[5.36022,50.31814,188.5375],[5.38337,50.31918,212.412],[5.39366,50.30323,160.3837],[5.39267,50.28807,165.5421],[5.36518,50.2697,179.6545],[5.29449,50.24045,223.0328],[5.284,50.24923,216.341],[5.27304,50.24854,239.5969],[5.25072,50.23885,217.531],[5.25325,50.22706,265.5449],[5.22447,50.22825,195.8174],[5.20586,50.21991,190.6595],[5.24436,50.20619,200.4424],[5.23351,50.19626,188.4988],[5.24555,50.19621,274.4709],[5.24405,50.18601,285.1172],[5.27955,50.15947,345.4241],[5.27025,50.14144,240.6651],[5.24178,50.13554,295.3695],[5.26726,50.1203,271.0228],[5.26219,50.1096,264.1585],[5.23537,50.11131,239.7001],[5.20829,50.09906,242.234],[5.187,50.09622,224.5131],[5.09331,50.09201,295.1023],[5.07207,50.09676,214.5283],[5.06623,50.12477,166.52],[5.05151,50.08632,223.103],[5.06019,50.08061,238.0738],[5.04965,50.06371,340.319],[5.01699,50.04183,337.667],[5.00732,50.03968,403.3797],[4.99818,50.04583,305.2001],[4.99115,50.03033,350.9425],[4.97218,50.03064,400.3829],[4.99652,50.01535,398.2015],[5.00944,49.98271,360.6495],[5.02004,49.97928,357.3286],[5.06256,49.98478,367.9466],[5.07176,49.97129,375.2292],[5.10096,49.96155,382.2429],[5.09724,49.93928,434.5174],[5.11889,49.9253,357.4974],[5.06871,49.91241,409.6929],[5.04324,49.89685,420.446],[5.05993,49.8861,447.1703],[4.98495,49.85127,383.7226],[4.98066,49.84254,197.2788],[4.98918,49.82337,208.8146],[4.97627,49.82094,354.8876],[4.97177,49.80389,402.9987],[4.96851,49.79727,394.2375],[4.96837,49.79698,403.8915],[4.97099,49.79706,387.1381],[4.98908,49.79055,356.7256],[5.02629,49.76673,398.6953],[5.04623,49.75939,398.6738],[5.08189,49.75273,436.2245],[5.09378,49.74534,426.5355],[5.13636,49.70534,270.351],[5.15124,49.69599,231.853],[5.16943,49.6872,239.896],[5.19248,49.68281,244.5143],[5.23764,49.69097,299.9674],[5.25924,49.69133,361.1992],[5.28012,49.6779,331.486],[5.29945,49.6625,322.6155],[5.30637,49.64751,274.9685],[5.30183,49.6439,293.0874],[5.29376,49.64054,258.6861],[5.29066,49.62638,219.8555],[5.29304,49.61718,195.0501],[5.2979,49.61325,191.5518],[5.31454,49.61113,188.2853],[5.32167,49.61258,189.4564],[5.32694,49.61764,189.7139],[5.33118,49.62312,218.4534],[5.3349,49.62581,245.037],[5.3411,49.62514,208.7879],[5.35247,49.62069,241.3852],[5.38347,49.6133,260.9569],[5.39117,49.60882,274.3241],[5.39117,49.60881,274.3241],[5.40208,49.60245,260.9328],[5.45024,49.54576,265.769],[5.45437,49.53662,206.3056],[5.45417,49.52618,202.3476],[5.45096,49.51677,188.3675],[5.44993,49.50783,197.3428],[5.45613,49.49894,235.5959],[5.47772,49.49522,205.6833],[5.47773,49.49522,205.6833],[5.50367,49.50509,315.4566],[5.52879,49.51796,352.3094],[5.5476,49.52344,383.4796],[5.57891,49.51393,359.9835],[5.58749,49.51243,371.7067],[5.60227,49.51372,380.3293],[5.60558,49.51775,352.9081],[5.60785,49.52494,257.878],[5.61974,49.53553,243.5364],[5.64465,49.5438,252.4767],[5.66718,49.54044,261.6204],[5.68868,49.53352,263.1901],[5.71028,49.53109,334.6328],[5.72268,49.5346,344.3353],[5.7356,49.54571,391.1636],[5.74635,49.54943,384.8721],[5.7571,49.5484,412.5269],[5.77901,49.53961,316.6824],[5.79068,49.53775,266.6385],[5.81446,49.54514,262.7175],[5.8374,49.56111,266.0035],[5.84691,49.57672,306.0057],[5.82996,49.58276,308.4547],[5.84122,49.58969,330.8458],[5.84918,49.59971,357.8069],[5.862,49.62276,356.4704],[5.86996,49.62886,337.1374],[5.87988,49.63485,335.875],[5.88546,49.64353,328.2122],[5.87988,49.65775,334.2014],[5.87264,49.66172,345.6713],[5.85259,49.66322,344.1432],[5.84577,49.66658,338.1473],[5.84226,49.67392,355.9062],[5.8437,49.67749,351.8562],[5.8467,49.68069,336.1426],[5.84722,49.6872,377.5599],[5.84877,49.69273,369.3244],[5.85363,49.6963,337.4111],[5.85735,49.70043,332.8189],[5.8564,49.70581,363.4892],[5.856,49.70808,371.4987],[5.85022,49.71402,396.1557],[5.8437,49.71433,381.9843],[5.8373,49.71294,357.0472],[5.83172,49.71361,360.7103],[5.82572,49.71578,321.5046],[5.81177,49.71852,381.8486],[5.80536,49.72188,357.4006],[5.80577,49.7242,352.4738],[5.8036,49.73815,332.071],[5.80205,49.74286,327.0633],[5.77849,49.77304,348.8049],[5.77187,49.77939,408.7029],[5.75916,49.78446,477.9831],[5.74841,49.78564,483.8434],[5.73828,49.78885,467.9591],[5.72774,49.80022,469.0562],[5.72165,49.81277,508.8201],[5.7202,49.82471,440.7687],[5.72464,49.83427,400.6703],[5.73653,49.83944,452.2179],[5.72692,49.84523,430.5605],[5.72867,49.84884,450.2427],[5.73053,49.85117,466.8945],[5.73198,49.85417,490.5345],[5.73188,49.85996,474.4722],[5.75813,49.8582,364.1681],[5.74883,49.86729,397.0414],[5.72671,49.8782,420.0044],[5.71493,49.88187,435.2054],[5.71896,49.89137,468.303],[5.75358,49.93018,439.9643],[5.75761,49.93654,470.0623],[5.75999,49.9416,446.3009],[5.76371,49.94682,505.2234],[5.77156,49.95354,517.2274],[5.77859,49.95659,527.9764],[5.79337,49.95881,496.5679],[5.80164,49.96382,483.6837],[5.8126,49.97757,494.8959],[5.80856,49.9831,532.9925],[5.80154,49.98868,525.3873],[5.80267,50.00248,420.6609],[5.80887,50.0078,461.5161],[5.82913,50.01359,431.0859],[5.83637,50.01855,421.6729],[5.83885,50.02646,447.4088],[5.83885,50.03586,486.0397],[5.83771,50.04744,522.5652],[5.8437,50.05364,503.5125],[5.85828,50.0618,474.5388],[5.86438,50.06749,520.1879],[5.86686,50.07431,487.0607],[5.86882,50.09054,485.1005],[5.87244,50.09689,471.2585],[5.88897,50.10661,473.0242],[5.92618,50.11834,494.0606],[5.94106,50.12831,483.594],[5.94902,50.14268,473.5569],[5.95316,50.15637,500.9692],[5.96163,50.16562,499.7507],[5.98292,50.16707,492.1931],[5.99832,50.17497,526.7446],[6.00473,50.17048,514.8719],[6.00804,50.16092,508.3943],[6.01413,50.15358,518.4401],[6.02297,50.15082,508.8968],[6.02297,50.15089,508.8968],[6.02493,50.18161,548.8131],[6.02406,50.18386,535.1036],[6.01987,50.19469,518.3312],[6.03382,50.20484,486.0602],[6.01191,50.20766,495.5868],[6.00747,50.21874,515.2834],[6.013,50.31176,464.4258],[5.98106,50.3223,594.5999],[5.9793,50.33088,609.6859],[5.85807,50.34788,409.1432],[5.84929,50.32954,500.7541],[5.86779,50.31946,511.7397],[5.84546,50.28458,468.4507],[5.88029,50.28132,432.0054],[5.87378,50.27151,432.7188],[5.81043,50.26587,556.3347],[5.80391,50.25611,483.6263],[5.79725,50.26572,530.544],[5.78087,50.26902,518.2952],[5.72072,50.26308,634.0107],[5.74759,50.29982,461.1683],[5.72061,50.30411,435.782],[5.70449,50.32163,438.3116],[5.7034,50.33264,436.6748],[5.72077,50.35755,380.2817],[5.67028,50.35765,462.0366],[5.67503,50.36959,461.5122],[5.64186,50.36824,396.2105],[5.5877,50.40059,205.931],[5.5537,50.39028,221.158],[5.53711,50.39191,173.2738],[5.53158,50.39512,147.2011],[5.53468,50.40411,194.2006],[5.51778,50.40628,167.9776],[5.50864,50.42597,148.5464],[5.46848,50.40907,156.7031]]]}}