{"type": "Feature","bbox": [4.9718,49.4972,6.0331,50.4275],"geometry": {"type": "MultiPolygon","coordinates": [[[[5.8743,49.5817,344.3839],[5.8742,49.5872,376.1543],[5.8684,49.5863,397.1885],[5.8521,49.5908,325.2805],[5.854,49.5976,354.7568],[5.8711,49.6059,334.4991],[5.8705,49.6135,326.5229],[5.8749,49.6202,318.2999],[5.8816,49.6265,315.8433],[5.8806,49.6326,316.8795],[5.8843,49.6387,346.324],[5.9071,49.6395,337.9982],[5.9069,49.6546,333.2115],[5.9125,49.6662,320.429],[5.879,49.6778,280.3548],[5.8723,49.6843,302.1484],[5.8716,49.6909,333.1797],[5.8741,49.6993,327.4951],[5.8896,49.7101,389.0091],[5.8769,49.7222,395.4743],[5.8691,49.7272,382.8186],[5.8605,49.728,310.4968],[5.8485,49.7252,315.4173],[5.8319,49.7258,305.7792],[5.8273,49.7452,304.1367],[5.7943,49.7892,453.7876],[5.7825,49.7963,423.6854],[5.7577,49.7964,425.7238],[5.7571,49.8046,437.4715],[5.7544,49.8131,457.2053],[5.7478,49.8184,428.1045],[5.7515,49.8241,409.9645],[5.7461,49.8388,382.0008],[5.7502,49.8407,374.2627],[5.7506,49.8458,360.6507],[5.7533,49.8457,365.0952],[5.7533,49.8536,393.3828],[5.7501,49.855,353.367],[5.7577,49.8557,358.6077],[5.7596,49.8587,397.4016],[5.7581,49.8695,390.7152],[5.775,49.869,356.2335],[5.7827,49.8764,339.8646],[5.782,49.8777,354.1057],[5.7885,49.876,389.6309],[5.7861,49.8829,397.771],[5.7451,49.8984,457.1801],[5.7441,49.9026,460.592],[5.7537,49.9113,461.397],[5.7599,49.9122,468.3453],[5.7666,49.9199,475.8533],[5.7725,49.9323,464.5827],[5.7781,49.9384,465.0071],[5.7793,49.9444,462.8528],[5.7784,49.9505,510.3561],[5.781,49.9597,540.6682],[5.7915,49.9604,496.9426],[5.7953,49.9642,455.885],[5.8109,49.9609,466.8845],[5.8156,49.9648,413.1253],[5.8167,49.9726,441.9153],[5.8369,49.9755,492.9236],[5.8434,49.9799,493.9774],[5.8433,49.9871,485.2619],[5.8277,49.9995,424.6753],[5.8262,50.0067,438.2506],[5.828,50.0131,430.4149],[5.8458,50.0204,433.4294],[5.8554,50.0304,455.3535],[5.8617,50.0463,486.6349],[5.8591,50.0617,474.5388],[5.8639,50.0675,520.1879],[5.8749,50.0739,493.8015],[5.8898,50.0783,471.6114],[5.8942,50.0944,497.8678],[5.8994,50.1003,485.2053],[5.9023,50.1098,471.6363],[5.9541,50.1347,492.9764],[5.9676,50.1708,471.1031],[6.0249,50.1816,548.8131],[6.0265,50.1777,534.66],[6.0284,50.1778,534.66],[6.0331,50.1929,489.9733],[6.0233,50.2052,497.6485],[6.0187,50.2284,501.4828],[6.0112,50.2458,492.8778],[6.0155,50.2632,555.5248],[6.0172,50.2777,585.0793],[6.0211,50.2879,563.4598],[6.022,50.2975,558.8273],[6.0198,50.3054,506.7783],[6.0123,50.3109,464.4258],[5.9949,50.3193,545.3284],[5.9614,50.3308,539.6182],[5.9154,50.3304,357.3319],[5.905,50.3337,352.4312],[5.8931,50.3398,374.9164],[5.8841,50.3405,454.7869],[5.873,50.3344,491.3888],[5.8641,50.3235,548.1134],[5.8702,50.3126,484.5844],[5.871,50.308,498.6702],[5.8696,50.3023,472.1039],[5.8628,50.2918,426.4081],[5.8635,50.2888,427.692],[5.8678,50.2856,421.9119],[5.8866,50.2836,417.035],[5.8907,50.2817,440.7081],[5.892,50.2753,524.3915],[5.8871,50.2694,410.0782],[5.8583,50.2633,469.4736],[5.8286,50.2606,473.8938],[5.7973,50.2608,495.7863],[5.7762,50.2631,499.9235],[5.7573,50.2594,543.7961],[5.7291,50.2567,640.2709],[5.7338,50.2691,604.0859],[5.7537,50.2921,566.2719],[5.7507,50.2964,528.3848],[5.7335,50.298,438.7299],[5.7269,50.3001,398.1018],[5.7203,50.3044,435.782],[5.7169,50.3086,390.5965],[5.7161,50.3184,368.2296],[5.7179,50.333,340.3755],[5.732,50.3497,353.7506],[5.6876,50.3586,394.0687],[5.6737,50.3635,466.3053],[5.6474,50.3641,424.4909],[5.6304,50.38,387.0793],[5.6088,50.3938,301.6482],[5.6009,50.3941,277.9747],[5.5697,50.3879,245.0412],[5.5478,50.3885,213.2141],[5.5366,50.3931,145.5518],[5.5272,50.4001,199.4122],[5.5241,50.4107,223.4212],[5.5149,50.4218,185.3079],[5.4926,50.4111,236.9459],[5.4709,50.4083,200.3232],[5.4465,50.417,240.6816],[5.4299,50.4257,235.867],[5.4182,50.4275,249.2398],[5.419,50.4194,262.1453],[5.429,50.4066,243.7014],[5.4293,50.4001,223.6293],[5.4199,50.3919,267.1703],[5.3988,50.3814,250.1515],[5.4071,50.3702,331.2379],[5.4077,50.3599,288.6057],[5.4022,50.3486,216.6475],[5.3953,50.3427,182.573],[5.3924,50.3316,198.9813],[5.3782,50.3247,221.8708],[5.3547,50.3197,231.1136],[5.3505,50.3161,226.3059],[5.3494,50.3128,234.3771],[5.3507,50.3075,245.7178],[5.3564,50.3052,229.3819],[5.3962,50.3124,192.4614],[5.4191,50.3094,205.4602],[5.428,50.3068,195.69],[5.4205,50.2948,172.9931],[5.3927,50.2835,184.9933],[5.3616,50.2628,220.4495],[5.3285,50.2433,195.0929],[5.3158,50.2404,209.9671],[5.2863,50.2396,241.3289],[5.2681,50.2344,268.7505],[5.2474,50.2256,265.265],[5.2233,50.224,191.6549],[5.2121,50.2208,183.7025],[5.2106,50.2151,199.7272],[5.2142,50.2106,214.8512],[5.2201,50.209,250.0266],[5.2363,50.2097,228.2842],[5.2543,50.1958,276.1872],[5.2578,50.1852,257.516],[5.2616,50.1795,248.5857],[5.2779,50.1612,306.9824],[5.2868,50.1562,355.4094],[5.2893,50.1437,240.6068],[5.2879,50.1386,211.8362],[5.2714,50.1332,224.8508],[5.2677,50.129,226.4998],[5.2674,50.1211,270.2808],[5.2708,50.1109,256.2087],[5.2713,50.1012,306.582],[5.2525,50.1006,262.0037],[5.1756,50.0886,199.0877],[5.1523,50.0886,200.8407],[5.1397,50.0935,252.2916],[5.1328,50.0945,241.4967],[5.0931,50.0922,292.0121],[5.0856,50.095,258.5046],[5.0824,50.1002,190.8617],[5.0826,50.1232,177.7216],[5.0681,50.1198,177.2513],[5.0617,50.1155,170.4745],[5.0573,50.0995,211.8459],[5.0569,50.0813,219.8713],[5.0599,50.07,310.1268],[5.0558,50.062,333.9264],[5.0461,50.0536,342.0917],[5.0314,50.0481,304.9931],[5.0113,50.033,392.9737],[5.0003,50.0309,390.1193],[4.9864,50.0238,393.3458],[4.9939,50.0089,413.3931],[5.0015,50.0047,436.5223],[5.0135,49.9938,401.8746],[5.0214,49.9786,350.7269],[5.0259,49.9738,395.7855],[5.0371,49.9727,401.6071],[5.0528,49.9794,394.1553],[5.0603,49.9794,373.8772],[5.0752,49.9709,379.6124],[5.0849,49.9601,389.5333],[5.0898,49.9568,392.6642],[5.1029,49.9515,386.2993],[5.1079,49.9445,403.1253],[5.1055,49.9329,382.5377],[5.1074,49.9255,382.0163],[5.1071,49.9225,372.1234],[5.1015,49.917,401.5942],[5.0708,49.9024,444.5506],[5.0545,49.8917,411.9366],[5.0468,49.872,415.6275],[5.0345,49.8683,424.8214],[5.0262,49.8633,385.7189],[4.9999,49.8532,390.3541],[4.9936,49.849,393.8468],[4.9828,49.8383,209.1869],[4.99,49.829,330.3925],[4.9902,49.817,244.3801],[4.9847,49.8101,370.2893],[4.9795,49.8066,383.1354],[4.9784,49.8041,385.1042],[4.9815,49.8042,391.1201],[4.9796,49.8006,335.6483],[4.9718,49.8004,369.4631],[4.9915,49.8002,293.9521],[5.0018,49.7937,341.7367],[5.0149,49.7795,418.8191],[5.0468,49.7701,429.2264],[5.069,49.7616,375.8688],[5.0897,49.7648,330.0236],[5.0966,49.7598,338.893],[5.1249,49.7269,361.4048],[5.1231,49.7173,317.9664],[5.1436,49.7093,246.1987],[5.1517,49.7177,312.4324],[5.1609,49.7152,310.4608],[5.1654,49.7094,305.9087],[5.1662,49.6929,211.2072],[5.1905,49.6945,292.5553],[5.1997,49.6923,264.1251],[5.2087,49.6944,313.3702],[5.2156,49.6892,275.0088],[5.2311,49.6904,295.1234],[5.2462,49.6869,311.4771],[5.2684,49.696,359.5817],[5.2805,49.6891,344.0648],[5.2812,49.6857,356.2898],[5.2866,49.6818,332.1204],[5.3192,49.6637,269.459],[5.3326,49.6535,254.4562],[5.3206,49.6473,289.5803],[5.3049,49.6301,241.3066],[5.315,49.612,188.2853],[5.3401,49.6181,199.726],[5.3469,49.6308,207.0677],[5.3935,49.6171,223.2475],[5.431,49.5924,326.5468],[5.429,49.5892,299.9473],[5.4393,49.5698,234.2822],[5.4539,49.566,284.4413],[5.4462,49.5534,356.4803],[5.4414,49.5521,355.5471],[5.4653,49.5363,303.1937],[5.464,49.5262,190.4442],[5.4472,49.5179,189.7743],[5.4634,49.509,190.1341],[5.4663,49.4989,190.9207],[5.4709,49.4972,200.2625],[5.4848,49.5067,306.1758],[5.5007,49.5068,319.2208],[5.5315,49.5125,376.588],[5.5425,49.517,385.4477],[5.554,49.5279,386.7373],[5.5692,49.5273,378.2616],[5.5938,49.5214,374.3432],[5.6071,49.507,390.7649],[5.611,49.5059,391.9335],[5.6211,49.5207,389.7882],[5.618,49.5303,294.5009],[5.6328,49.5396,265.9855],[5.6329,49.5431,247.8405],[5.6452,49.5497,227.2441],[5.6608,49.5524,232.7398],[5.6692,49.5485,243.0845],[5.6891,49.5461,326.7223],[5.7013,49.5395,314.6817],[5.7217,49.541,358.8718],[5.7301,49.5445,375.7292],[5.7427,49.5393,402.7291],[5.7572,49.5426,401.1229],[5.7585,49.5591,313.5524],[5.7727,49.5626,330.5522],[5.7931,49.552,269.3604],[5.8129,49.548,265.966],[5.8151,49.5452,262.7175],[5.8281,49.5528,268.2438],[5.8337,49.5512,270.2023],[5.8505,49.5602,274.4809],[5.8745,49.5768,332.8681],[5.8743,49.5817,344.3839]]]]}
,"properties": {"GID_2": "BEL.3.4_1","GID_0": "BEL","country": "Belgium","GID_1": "BEL.3_1","state": "Wallonie","NL_NAME_1": "NA","county": "Luxembourg","VARNAME_2": "Lussemburgo|Luxemburg|Luxemburgo","NL_NAME_2": "NA","TYPE_2": "Province","ENGTYPE_2": "Provincie","CC_2": "NA","HASC_2": "BE.LX","name": "Luxembourg.county","area_km2": 4414.254,"hist_schema_id": "Elevation0-9000","hist_area_km2": {"125": 3.177,"150": 9.579,"175": 27.94,"200": 80.789,"225": 119.157,"250": 147.783,"275": 185.23,"300": 208.774,"325": 299.513,"350": 413.383,"375": 408.544,"400": 448.126,"425": 470.572,"450": 460.889,"475": 426.965,"500": 328.208,"525": 195.978,"550": 99.549,"575": 47.384,"600": 21.634,"625": 8.543,"650": 2.481,"675": 0.054}}}