{"type": "Feature","id": "3479","bbox": [2.5218,50.70009,3.5225,51.37522],"geometry": {"type": "Polygon","coordinates": [[[3.3988,51.2447,1.0705],[3.39166,51.24677,1.0418],[3.36737,51.26349,1.5422],[3.35321,51.2886,0.2399],[3.35393,51.31191,0.6291],[3.35807,51.33671,1.3176],[3.34941,51.37522,0.0],[3.34897,51.37515,0.0],[3.12485,51.32966,0.0],[2.92359,51.24649,0.0],[2.71567,51.1695,0.0],[2.57993,51.1048,0.0],[2.542,51.09687,0.0],[2.52182,51.08755,0.0],[2.5218,51.08754,0.0],[2.53703,51.06461,0.7164],[2.54706,51.02048,-2.0213],[2.55698,51.00118,-2.3323],[2.59274,50.97611,7.3174],[2.60845,50.96113,15.9718],[2.61165,50.94123,9.6531],[2.60576,50.93524,10.7637],[2.58272,50.92067,11.7533],[2.57693,50.91152,8.0227],[2.59667,50.86765,13.3289],[2.59553,50.86113,15.9601],[2.58778,50.85002,16.9044],[2.58675,50.84542,21.1613],[2.58995,50.84201,24.1008],[2.60204,50.83809,16.0917],[2.60659,50.83483,20.5827],[2.61517,50.82217,25.5686],[2.62044,50.81649,41.1208],[2.62778,50.81442,44.5498],[2.64245,50.81246,44.5346],[2.65062,50.81225,44.3075],[2.66922,50.8139,30.0694],[2.67873,50.81323,42.8147],[2.69186,50.80884,39.8446],[2.69692,50.80305,46.7824],[2.70002,50.79628,70.5317],[2.70664,50.78879,95.8977],[2.74384,50.7662,68.1792],[2.74953,50.75959,59.3717],[2.76296,50.73938,42.5822],[2.76823,50.73324,18.8875],[2.78673,50.72336,18.6978],[2.86673,50.70009,16.4333],[2.8625,50.70955,17.2544],[2.84219,50.75084,37.5191],[2.86881,50.76123,46.1297],[2.87542,50.76247,37.8614],[2.88963,50.75415,20.8955],[2.91811,50.75771,25.2761],[2.92245,50.76696,37.8362],[2.96022,50.77678,17.6421],[2.96021,50.7768,17.6421],[2.93971,50.79223,33.5933],[2.93971,50.79224,33.5933],[2.94064,50.79668,26.6412],[2.99882,50.81161,19.2643],[3.01442,50.80513,20.4598],[3.01443,50.80513,20.4598],[3.02296,50.77162,12.2767],[3.02382,50.76826,13.7473],[3.1033,50.78408,13.8167],[3.12925,50.77907,24.0392],[3.1462,50.76889,35.6478],[3.16281,50.74994,34.0253],[3.16282,50.74993,34.0253],[3.17507,50.75272,45.5757],[3.21969,50.76727,44.9098],[3.26082,50.75234,37.9214],[3.3033,50.75642,37.2914],[3.32458,50.73716,15.1161],[3.32459,50.73715,15.1161],[3.32315,50.72346,16.218],[3.32315,50.72345,16.218],[3.3478,50.71193,15.3466],[3.35363,50.71164,17.3288],[3.36345,50.70966,9.4532],[3.36743,50.7173,10.3246],[3.41275,50.74741,15.7726],[3.45761,50.76851,9.8519],[3.52002,50.79791,9.3983],[3.5225,50.80517,8.1597],[3.49946,50.82522,21.602],[3.51238,50.8355,47.9932],[3.45047,50.8693,31.3383],[3.47403,50.88459,17.0344],[3.46607,50.90335,13.8121],[3.45047,50.90746,11.8026],[3.42732,50.89844,7.7042],[3.41915,50.91219,7.5879],[3.43259,50.92056,5.813],[3.42473,50.93206,12.9144],[3.4484,50.92986,5.9545],[3.45532,50.93438,6.4074],[3.44013,50.94395,12.8521],[3.46023,50.94371,6.0451],[3.41207,50.95896,12.0496],[3.44297,50.96779,7.8901],[3.42587,50.98242,11.293],[3.45202,51.00704,13.107],[3.42215,51.03947,11.0656],[3.4438,51.04931,9.3626],[3.33068,51.10014,20.9406],[3.37445,51.11812,16.5865],[3.41031,51.16112,10.7908],[3.38701,51.18721,11.5197],[3.35983,51.19284,10.4147],[3.38406,51.20364,11.7765],[3.36696,51.22959,1.7565],[3.40003,51.24266,-0.2],[3.3988,51.2447,1.0705]]]}
,"properties": {"ISO3166-1-Alpha-3": "BEL","country": "Belgium","fill": "#00F","name": "West Flanders","area_km2": 3269.421,"hist_schema_id": "Elevation0-9000","hist_area_km2": {"0": 1557.303,"25": 1468.859,"50": 211.225,"75": 25.814,"100": 4.303,"125": 1.421,"150": 0.442,"175": 0.04}}}