{"type": "Feature","bbox": [2.5554,50.7029,3.5286,51.3682],"geometry": {"type": "MultiPolygon","coordinates": [[[[2.9387,50.7721,23.3809],[2.9431,50.7872,29.4374],[2.9538,50.7975,21.3167],[2.9797,50.7997,20.4509],[3.0069,50.8046,20.2753],[3.0132,50.8002,18.1279],[3.0367,50.7716,15.7021],[3.0407,50.7756,12.5636],[3.0587,50.7807,14.9732],[3.0807,50.7729,14.8409],[3.0902,50.7744,12.7427],[3.1027,50.7809,13.1901],[3.1122,50.793,12.0554],[3.1258,50.7878,15.8845],[3.1471,50.7899,16.5551],[3.1616,50.7723,29.8683],[3.1814,50.752,46.8669],[3.204,50.7526,50.5425],[3.217,50.76,52.218],[3.2354,50.7596,41.4355],[3.2671,50.7549,29.016],[3.2887,50.7575,20.1139],[3.2991,50.7568,30.76],[3.3051,50.7522,44.7175],[3.3133,50.7413,29.6566],[3.3194,50.7266,16.3389],[3.3519,50.713,16.9536],[3.3658,50.712,9.396],[3.3748,50.7195,8.4216],[3.388,50.7274,10.0067],[3.4077,50.7336,14.8345],[3.4225,50.7409,11.764099999999999],[3.4518,50.7511,13.3056],[3.4558,50.7594,13.4051],[3.4607,50.7632,11.4272],[3.4941,50.7848,12.135],[3.5179,50.795,14.8948],[3.5286,50.8049,9.5553],[3.5192,50.8105,15.5948],[3.512,50.8114,16.5347],[3.5094,50.8296,59.6365],[3.501,50.8489,42.9592],[3.4958,50.855,37.2119],[3.4691,50.8615,44.8817],[3.4791,50.8871,16.1001],[3.4785,50.8967,24.3127],[3.4745,50.9088,11.6064],[3.4617,50.9078,13.4089],[3.4502,50.9041,10.4014],[3.4418,50.9035,9.4415],[3.4363,50.9053,8.4519],[3.4318,50.9115,12.3388],[3.4334,50.917,12.942],[3.4318,50.9228,5.5769],[3.4448,50.9304,5.9831],[3.4532,50.9409,5.5076],[3.4393,50.9509,10.8219],[3.436,50.957,11.0345],[3.4463,50.9689,8.3547],[3.4462,50.9754,7.9153],[3.4409,50.9825,10.7597],[3.4401,50.986,10.799],[3.4409,50.9889,11.038],[3.449,50.997,11.56],[3.4517,51.0048,14.4871],[3.4523,51.0175,10.1122],[3.4451,51.0254,15.3485],[3.435,51.0324,14.4234],[3.446,51.0455,12.7491],[3.447,51.0514,10.2207],[3.4453,51.0573,14.256],[3.4366,51.0631,16.3457],[3.379,51.0842,37.7833],[3.3619,51.0925,18.2159],[3.3411,51.0941,22.8591],[3.341,51.1009,18.0201],[3.3791,51.1184,8.2551],[3.3921,51.1288,8.3879],[3.4046,51.1481,11.1315],[3.4086,51.1612,12.1518],[3.4046,51.1692,9.5121],[3.3965,51.1794,9.7097],[3.3758,51.1979,10.8235],[3.386,51.2044,11.1615],[3.3914,51.2119,7.7805],[3.3904,51.218,3.89],[3.3842,51.223,1.8617],[3.3846,51.2293,2.1639],[3.3994,51.2383,2.0276],[3.4028,51.242,1.4642],[3.4042,51.2466,1.6651],[3.4007,51.2524,1.3849],[3.3924,51.2574,1.7036],[3.3885,51.2616,1.781],[3.3875,51.2644,1.2219],[3.3894,51.268,1.0049],[3.3989,51.2702,1.1614],[3.3943,51.2746,1.0097],[3.3826,51.2773,1.1682],[3.3843,51.2885,1.5087],[3.3768,51.2919,1.0596],[3.3718,51.316,1.2605],[3.377,51.3247,1.2391],[3.387,51.3306,1.4228],[3.3867,51.3361,1.6802],[3.3826,51.3421,1.3778],[3.372,51.349,0.5144],[3.3728,51.3573,2.6418],[3.3608,51.3676,0.9058],[3.2869,51.3537,3.8245],[3.2747,51.3482,2.3454],[3.2592,51.3457,0.0],[3.2519,51.3424,1.4978],[3.2414,51.3424,0.0],[3.2303,51.3401,3.367],[3.2269,51.3407,5.2011],[3.2264,51.3424,4.4496],[3.2258,51.3468,2.0218],[3.2275,51.3504,5.8924],[3.2242,51.3593,0.0],[3.1975,51.3635,0.0],[3.1981,51.3624,0.0],[3.2231,51.3587,0.7495],[3.2108,51.3551,0.0],[3.2097,51.3521,0.0],[3.2114,51.3504,0.0],[3.2119,51.3543,0.0],[3.2169,51.3551,0.0],[3.2181,51.3532,0.0],[3.2158,51.3518,0.0],[3.2192,51.3515,0.0],[3.2242,51.3468,2.0218],[3.2225,51.3449,1.4116],[3.2186,51.3446,0.5784],[3.2231,51.344,1.4116],[3.2225,51.341,3.6237],[3.2181,51.3398,3.9165],[3.2164,51.3421,0.0],[3.2147,51.3421,0.0],[3.2147,51.3404,0.8113],[3.2119,51.3415,0.0],[3.2142,51.3368,3.2029],[3.2031,51.3418,0.0],[3.2025,51.3401,0.0],[3.2081,51.3368,6.2157],[3.1997,51.339,0.0],[3.1992,51.3351,8.3134],[3.1958,51.3332,0.0],[3.1992,51.3321,3.4318],[3.1947,51.3299,5.5328],[3.1908,51.3307,6.0072],[3.1936,51.3318,3.8264],[3.1936,51.334,3.1655],[3.1958,51.3351,0.0],[3.1947,51.3382,0.0],[3.1958,51.3401,0.0],[3.1919,51.3407,0.6655],[3.1908,51.3376,0.9912],[3.1881,51.3396,1.4506],[3.1964,51.3446,1.986],[3.2014,51.3457,1.1261],[3.2031,51.3479,0.0],[3.1958,51.3493,2.9411],[3.1958,51.3479,4.7097],[3.1925,51.3474,3.8318],[3.1947,51.3499,2.9411],[3.1931,51.3504,9.8525],[3.1892,51.3474,3.8318],[3.1825,51.3462,0.0],[3.1803,51.3438,0.261],[3.1753,51.3446,3.7273],[3.1742,51.3471,7.3908],[3.1842,51.3532,5.5613],[3.1842,51.3551,7.6042],[3.1931,51.3543,0.0],[3.1908,51.356,0.6022],[3.1831,51.3571,0.0],[3.1758,51.3529,1.5986],[3.1775,51.3554,0.0],[3.1753,51.3551,0.0],[3.1819,51.3599,0.0],[3.1881,51.3601,0.0],[3.1825,51.3613,0.0],[3.1736,51.3549,0.7281],[3.1697,51.3543,0.0],[3.1681,51.3518,0.0],[3.1747,51.3382,0.728],[3.1814,51.3329,2.1174],[3.1814,51.3301,4.8472],[3.1214,51.3154,1.8574],[3.1008,51.3093,2.0076],[3.1003,51.3076,5.0547],[3.0769,51.3021,0.0],[3.0686,51.2954,7.8681],[3.0642,51.2946,0.0],[3.0614,51.2918,11.1512],[3.0281,51.2782,2.3969],[3.0236,51.2751,10.3812],[2.9325,51.2388,2.8048],[2.9242,51.2379,0.0],[2.9153,51.2346,4.7952],[2.9036,51.2271,0.0],[2.8958,51.2249,1.8416],[2.7842,51.1751,6.2024],[2.7414,51.1582,6.4534],[2.7258,51.1543,2.6941],[2.6975,51.1415,10.0082],[2.6436,51.126,0.0],[2.5897,51.1035,13.273],[2.5554,51.0919,5.6584],[2.5706,51.0445,-1.5964],[2.58,51.003,-1.0156],[2.5974,50.9925,1.1859],[2.6065,50.9889,3.4822],[2.6297,50.9493,12.1618],[2.6301,50.9458,9.2841],[2.59,50.9191,9.5928],[2.5921,50.9159,7.5663],[2.6067,50.9127,2.2374],[2.6047,50.9064,3.7909],[2.6089,50.8963,3.6453],[2.6073,50.8726,7.8796],[2.6114,50.8636,8.8754],[2.5992,50.8533,11.9396],[2.5991,50.8498,11.842],[2.6146,50.8477,13.5559],[2.617,50.8409,15.0793],[2.6248,50.8361,16.6548],[2.635,50.8128,42.6626],[2.6541,50.8133,39.8887],[2.6702,50.821,35.9065],[2.6821,50.8139,38.9935],[2.7198,50.8121,36.4963],[2.7236,50.8095,39.9],[2.725,50.7957,74.3183],[2.7386,50.7806,118.1354],[2.7543,50.7746,70.451],[2.761,50.7693,57.9753],[2.7595,50.7625,47.7588],[2.782,50.7477,50.8889],[2.7912,50.7275,18.719],[2.8133,50.7169,17.6943],[2.8486,50.7218,17.7665],[2.8702,50.7029,16.6873],[2.8733,50.7113,17.6977],[2.8745,50.7107,17.3743],[2.8721,50.7286,17.1225],[2.869,50.7327,17.7606],[2.8525,50.7422,18.6779],[2.8521,50.7472,33.3368],[2.8548,50.7501,32.9615],[2.867,50.7572,38.1524],[2.8964,50.7527,20.6916],[2.9043,50.753,23.8752],[2.9209,50.7597,27.4061],[2.9387,50.7721,23.3809]]],
[[[3.3658,51.3668,1.219],[3.3664,51.3682,1.5217],[3.3625,51.3682,4.1448],[3.3742,51.3601,1.7718],[3.3732,51.3645,1.8788],[3.3694,51.3671,0.0],[3.3681,51.3665,0.9899],[3.3658,51.3668,1.219]]]]}
,"properties": {"GID_2": "BEL.2.5_1","GID_0": "BEL","country": "Belgium","GID_1": "BEL.2_1","state": "Vlaanderen","NL_NAME_1": "NA","county": "West-Vlaanderen","VARNAME_2": "FiandraOccidentale|FlandesOcci","NL_NAME_2": "NA","TYPE_2": "Provincie","ENGTYPE_2": "Province","CC_2": "NA","HASC_2": "BE.WV","name": "West-Vlaanderen.county","area_km2": 3190.14,"hist_schema_id": "Elevation0-9000","hist_area_km2": {"0": 1491.719,"25": 1464.592,"50": 207.559,"75": 21.899,"100": 2.989,"125": 1.086,"150": 0.241,"175": 0.04}}}