{"type": "Feature","bbox": [3.8943,51.0751,4.3271,51.3557],"geometry": {"type": "MultiPolygon","coordinates": [[[[3.9584,51.0773,3.5618],[3.9825,51.0779,3.0627],[3.9868,51.0803,3.3007],[4.0153,51.0838,5.1395],[4.0251,51.0896,8.2959],[4.0287,51.0943,4.6849],[4.022,51.1031,3.8594],[4.0213,51.1372,6.2379],[4.0329,51.1385,4.5341],[4.0509,51.146,5.5528],[4.0637,51.1457,10.3989],[4.08,51.1359,17.1114],[4.0843,51.1352,17.0986],[4.0915,51.1362,17.241],[4.1029,51.1429,22.4625],[4.1162,51.143,23.6884],[4.1224,51.1381,33.7947],[4.1234,51.1255,29.6929],[4.1325,51.1193,22.011],[4.1382,51.1165,13.0727],[4.1599,51.1154,13.3218],[4.1695,51.1123,12.8229],[4.1789,51.1067,0.1585],[4.2044,51.1218,6.8243],[4.2128,51.1249,11.5166],[4.2306,51.1254,4.52],[4.2614,51.1225,5.2862],[4.2939,51.1277,3.8462],[4.3179,51.1276,0.0],[4.3261,51.1375,0.0],[4.3271,51.1988,11.1908],[4.32,51.2057,7.1781],[4.3123,51.219,6.5591],[4.3066,51.2253,3.4784],[4.2974,51.2455,0.0],[4.294,51.2626,0.0],[4.3044,51.2771,7.3731],[4.3046,51.2836,6.6567],[4.2997,51.2881,5.6588],[4.2788,51.298,1.3032],[4.2713,51.3113,0.0],[4.2689,51.3285,0.0],[4.2469,51.3487,0.0],[4.2326,51.3557,0.0],[4.2371,51.3513,0.0],[4.2177,51.3375,2.065],[4.1835,51.3055,1.5441],[4.1044,51.2679,1.5729],[4.057,51.248,8.3892],[3.9997,51.2413,2.9839],[3.9824,51.2296,1.191],[3.9819,51.2192,2.2837],[3.9749,51.2111,1.6936],[3.9734,51.2062,5.7671],[3.9745,51.1995,7.4505],[3.9789,51.1913,2.2923],[3.9881,51.1798,5.7916],[3.9954,51.1747,1.2798],[3.9955,51.1665,9.9714],[3.9936,51.1623,14.8592],[3.9702,51.1625,1.2616],[3.9581,51.1594,2.1155],[3.9267,51.1409,1.6835],[3.9178,51.1414,6.023],[3.9018,51.1482,5.2106],[3.8943,51.1483,3.1115],[3.8949,51.1258,3.6408],[3.8992,51.1167,3.2212],[3.9,51.0928,2.7284],[3.9049,51.0895,3.8481],[3.9206,51.085,5.3053],[3.9243,51.0826,4.203],[3.9276,51.0756,3.984],[3.9483,51.0751,4.2243],[3.9584,51.0773,3.5618]]]]}
,"properties": {"GID_3": "BEL.2.3.6_1","GID_0": "BEL","country": "Belgium","GID_1": "BEL.2_1","state": "Vlaanderen","NL_NAME_1": "NA","GID_2": "BEL.2.3_1","county": "Oost-Vlaanderen","NL_NAME_2": "NA","city": "Sint-Niklaas","VARNAME_3": "Saint-Nicolas","NL_NAME_3": "NA","TYPE_3": "Arrondissement","ENGTYPE_3": "Arrondissement","CC_3": "NA","HASC_3": "BE.OV.SN","name": "Sint-Niklaas.city","area_km2": 467.5061,"hist_schema_id": "Elevation0-9000","hist_area_km2": {"-25": 0.1594,"0": 371.2495,"25": 95.8579,"50": 0.2394}}}