{"type":"Feature","properties":{"GID_3":"BEL.3.4.1_1","GID_0":"BEL","country":"Belgium","GID_1":"BEL.3_1","state":"Wallonie","NL_NAME_1":"NA","GID_2":"BEL.3.4_1","county":"Luxembourg","NL_NAME_2":"NA","city":"Arlon","VARNAME_3":"Aarlen","NL_NAME_3":"NA","TYPE_3":"Arrondissement","ENGTYPE_3":"Arrondissement","CC_3":"NA","HASC_3":"BE.LX.AR","name":"Arlon.city"},
"geometry":{"type": "MultiPolygon","coordinates": [[[[5.8709,49.6091,335.7421],[5.8705,49.6135,326.5229],[5.8749,49.6202,318.2999],[5.8816,49.6265,315.8433],[5.8806,49.6326,316.8795],[5.8843,49.6387,346.324],[5.9071,49.6395,337.9982],[5.9069,49.6546,333.2115],[5.9125,49.6662,320.429],[5.879,49.6778,280.3548],[5.8723,49.6843,302.1484],[5.8716,49.6909,333.1797],[5.8741,49.6993,327.4951],[5.8896,49.7101,389.0091],[5.8769,49.7222,395.4743],[5.8691,49.7272,382.8186],[5.8605,49.728,310.4968],[5.8485,49.7252,315.4173],[5.8319,49.7258,305.7792],[5.8273,49.7452,304.1367],[5.7943,49.7892,453.7876],[5.7825,49.7963,423.6854],[5.7577,49.7964,425.7238],[5.7571,49.8046,437.4715],[5.7544,49.8131,457.2053],[5.7478,49.8184,428.1045],[5.7515,49.8241,409.9645],[5.7461,49.8388,382.0008],[5.7502,49.8407,374.2627],[5.7506,49.8458,360.6507],[5.7533,49.8457,365.0952],[5.7533,49.8485,377.9243],[5.738,49.8469,439.2464],[5.7238,49.8407,376.9507],[5.7148,49.83,480.7354],[5.71,49.8212,499.4615],[5.7086,49.8124,506.9881],[5.7047,49.8097,502.5255],[5.7011,49.8029,489.8991],[5.6995,49.7885,457.9407],[5.6959,49.7832,459.6717],[5.6939,49.7742,442.2907],[5.7161,49.7712,432.0695],[5.7153,49.765,438.7354],[5.7104,49.7563,420.7338],[5.7035,49.7509,407.9864],[5.7014,49.7427,429.464],[5.6888,49.7266,422.5355],[5.6895,49.721,407.9416],[5.7005,49.7127,374.1306],[5.7045,49.7072,362.8593],[5.7056,49.7018,359.4219],[5.6977,49.6968,369.5027],[5.6905,49.6878,353.0414],[5.677,49.6864,348.257],[5.6823,49.6767,340.2719],[5.6836,49.6691,363.9384],[5.69,49.6608,372.7898],[5.6943,49.652,378.6174],[5.694,49.6378,369.3088],[5.7041,49.637,374.2558],[5.7258,49.6311,372.7648],[5.7295,49.6225,364.7324],[5.7236,49.6154,371.3149],[5.7226,49.6042,343.472],[5.7121,49.6039,315.3966],[5.6936,49.5977,317.032],[5.6923,49.5851,296.6705],[5.6934,49.5809,288.0519],[5.6986,49.5778,267.3701],[5.7119,49.5761,254.8512],[5.717,49.5696,291.5454],[5.717,49.5594,249.508],[5.7127,49.5518,308.3492],[5.7123,49.5403,380.9413],[5.7217,49.541,358.8718],[5.7301,49.5445,375.7292],[5.7427,49.5393,402.7291],[5.7572,49.5426,401.1229],[5.7585,49.5591,313.5524],[5.7727,49.5626,330.5522],[5.7931,49.552,269.3604],[5.8129,49.548,265.966],[5.8151,49.5452,262.7175],[5.8281,49.5528,268.2438],[5.8337,49.5512,270.2023],[5.8505,49.5602,274.4809],[5.8745,49.5768,332.8681],[5.8742,49.5872,376.1543],[5.8684,49.5863,397.1885],[5.8521,49.5908,325.2805],[5.854,49.5976,354.7568],[5.8711,49.6059,334.4991],[5.8709,49.6091,335.7421]]]]}}