{"type":"Feature","properties":{"GID_1":"BEL.3_1","GID_0":"BEL","country":"Belgium","state":"Wallonie","VARNAME_1":"NA","NL_NAME_1":"NA","TYPE_1":"Région","ENGTYPE_1":"Region","CC_1":"NA","HASC_1":"NA","ISO_1":"NA","name":"Wallonie.state"},
"geometry":{"type": "MultiPolygon","coordinates": [[[[5.6183,49.5294,294.5009],[5.6328,49.5396,265.9855],[5.6329,49.5431,247.8405],[5.6452,49.5497,227.2441],[5.6608,49.5524,232.7398],[5.6692,49.5485,243.0845],[5.6891,49.5461,326.7223],[5.7013,49.5395,314.6817],[5.7217,49.541,358.8718],[5.7301,49.5445,375.7292],[5.7427,49.5393,402.7291],[5.7572,49.5426,401.1229],[5.7585,49.5591,313.5524],[5.7727,49.5626,330.5522],[5.7931,49.552,269.3604],[5.8129,49.548,265.966],[5.8151,49.5452,262.7175],[5.8281,49.5528,268.2438],[5.8337,49.5512,270.2023],[5.8505,49.5602,274.4809],[5.8745,49.5768,332.8681],[5.8742,49.5872,376.1543],[5.8684,49.5863,397.1885],[5.8521,49.5908,325.2805],[5.854,49.5976,354.7568],[5.8711,49.6059,334.4991],[5.8705,49.6135,326.5229],[5.8749,49.6202,318.2999],[5.8816,49.6265,315.8433],[5.8806,49.6326,316.8795],[5.8843,49.6387,346.324],[5.9071,49.6395,337.9982],[5.9069,49.6546,333.2115],[5.9125,49.6662,320.429],[5.879,49.6778,280.3548],[5.8723,49.6843,302.1484],[5.8716,49.6909,333.1797],[5.8741,49.6993,327.4951],[5.8896,49.7101,389.0091],[5.8769,49.7222,395.4743],[5.8691,49.7272,382.8186],[5.8605,49.728,310.4968],[5.8485,49.7252,315.4173],[5.8319,49.7258,305.7792],[5.8273,49.7452,304.1367],[5.7943,49.7892,453.7876],[5.7825,49.7963,423.6854],[5.7577,49.7964,425.7238],[5.7571,49.8046,437.4715],[5.7544,49.8131,457.2053],[5.7478,49.8184,428.1045],[5.7515,49.8241,409.9645],[5.7461,49.8388,382.0008],[5.7502,49.8407,374.2627],[5.7506,49.8458,360.6507],[5.7533,49.8457,365.0952],[5.7533,49.8536,393.3828],[5.7501,49.855,353.367],[5.7577,49.8557,358.6077],[5.7596,49.8587,397.4016],[5.7581,49.8695,390.7152],[5.775,49.869,356.2335],[5.7827,49.8764,339.8646],[5.782,49.8777,354.1057],[5.7885,49.876,389.6309],[5.7861,49.8829,397.771],[5.7451,49.8984,457.1801],[5.7441,49.9026,460.592],[5.7537,49.9113,461.397],[5.7599,49.9122,468.3453],[5.7666,49.9199,475.8533],[5.7725,49.9323,464.5827],[5.7781,49.9384,465.0071],[5.7793,49.9444,462.8528],[5.7784,49.9505,510.3561],[5.781,49.9597,540.6682],[5.7915,49.9604,496.9426],[5.7953,49.9642,455.885],[5.8109,49.9609,466.8845],[5.8156,49.9648,413.1253],[5.8167,49.9726,441.9153],[5.8369,49.9755,492.9236],[5.8434,49.9799,493.9774],[5.8433,49.9871,485.2619],[5.8277,49.9995,424.6753],[5.8262,50.0067,438.2506],[5.828,50.0131,430.4149],[5.8458,50.0204,433.4294],[5.8554,50.0304,455.3535],[5.8617,50.0463,486.6349],[5.8591,50.0617,474.5388],[5.8639,50.0675,520.1879],[5.8749,50.0739,493.8015],[5.8898,50.0783,471.6114],[5.8942,50.0944,497.8678],[5.8994,50.1003,485.2053],[5.9023,50.1098,471.6363],[5.9541,50.1347,492.9764],[5.9676,50.1708,471.1031],[6.0249,50.1816,548.8131],[6.0314,50.1656,516.3116],[6.0604,50.1575,515.2068],[6.0708,50.1564,474.1562],[6.0775,50.1581,449.6595],[6.0808,50.1724,509.2033],[6.1016,50.1708,453.0885],[6.1204,50.1632,491.5215],[6.1254,50.151,403.9409],[6.1164,50.1376,438.6881],[6.1299,50.1338,398.827],[6.1484,50.1363,391.2164],[6.1547,50.1419,462.5412],[6.1529,50.1501,393.2311],[6.1485,50.1519,416.8551],[6.1406,50.148,346.5281],[6.1402,50.1498,340.6344],[6.132,50.154,329.2658],[6.1325,50.1555,340.3621],[6.1434,50.1559,355.7402],[6.1475,50.1606,333.7113],[6.1397,50.1683,339.2633],[6.1406,50.1696,350.2408],[6.1476,50.1705,366.7494],[6.1443,50.1735,343.924],[6.1462,50.1771,359.5872],[6.1502,50.1775,394.9541],[6.156,50.1718,436.5804],[6.1603,50.1718,443.3997],[6.1614,50.1776,496.667],[6.1653,50.1791,436.4363],[6.1771,50.1788,464.0141],[6.178,50.1799,464.0141],[6.1801,50.1781,488.1951],[6.1834,50.1782,504.194],[6.1928,50.1819,577.4288],[6.1858,50.184,547.1666],[6.1903,50.1876,513.0585],[6.1839,50.1921,468.381],[6.1865,50.1956,451.7802],[6.1854,50.2032,422.8055],[6.1889,50.2053,416.7996],[6.1831,50.2077,394.0523],[6.178,50.2165,362.669],[6.1664,50.22,369.8048],[6.1682,50.2246,386.8404],[6.1771,50.2268,402.4724],[6.1774,50.2287,388.4548],[6.1736,50.232,381.3522],[6.1757,50.2354,377.4729],[6.1849,50.2377,375.7027],[6.1932,50.2367,405.8878],[6.1975,50.2381,378.5338],[6.2005,50.24,382.5911],[6.2067,50.2493,384.6713],[6.2053,50.2512,388.6126],[6.2089,50.2535,391.956],[6.212,50.2529,449.9324],[6.2158,50.257,457.3181],[6.2187,50.2563,495.9629],[6.2173,50.2549,479.9271],[6.2184,50.2544,504.76],[6.2236,50.2587,533.0858],[6.2272,50.2587,537.6028],[6.2361,50.2625,527.7887],[6.2455,50.2619,539.1912],[6.2587,50.2678,529.1032],[6.2615,50.2651,507.8014],[6.2666,50.2648,498.0901],[6.2724,50.2677,516.7766],[6.2779,50.2664,501.9441],[6.2921,50.2788,544.752],[6.2852,50.2843,523.9526],[6.2882,50.2888,517.3518],[6.2869,50.2902,505.0678],[6.2886,50.2905,497.9977],[6.2859,50.2941,467.6401],[6.2915,50.2956,479.6442],[6.2927,50.2969,496.3515],[6.2911,50.2977,481.9013],[6.2957,50.2997,506.4875],[6.2947,50.3013,506.8544],[6.2981,50.3021,523.1171],[6.2983,50.3041,513.7248],[6.2959,50.3053,516.1219],[6.2961,50.309,446.0333],[6.3008,50.3104,449.9878],[6.3066,50.3097,451.7902],[6.3092,50.3117,447.6165],[6.3068,50.3141,468.3865],[6.3079,50.3159,484.129],[6.3055,50.3176,500.3731],[6.3065,50.3201,529.1742],[6.3128,50.3219,546.9974],[6.3177,50.3212,529.9776],[6.318,50.3191,529.0137],[6.3273,50.3245,534.4099],[6.3333,50.3232,529.324],[6.3343,50.3208,522.6755],[6.3329,50.3208,522.6755],[6.333,50.3194,517.3532],[6.3357,50.3188,527.6066],[6.3349,50.3164,478.5767],[6.3429,50.3184,478.2226],[6.3424,50.3174,478.2226],[6.3439,50.3172,478.2226],[6.3405,50.3158,465.0288],[6.3484,50.315,479.5901],[6.3513,50.3108,512.2267],[6.3633,50.3054,519.3223],[6.3579,50.3113,534.2841],[6.3592,50.3109,534.2841],[6.359,50.3135,518.3757],[6.3616,50.3147,496.8523],[6.3705,50.3128,520.6066],[6.3751,50.3138,531.1559],[6.3759,50.3175,563.5273],[6.3814,50.3193,572.331],[6.3809,50.3214,574.1852],[6.3826,50.322,579.1151],[6.3894,50.3211,582.3048],[6.405,50.3233,603.3645],[6.4079,50.3351,613.0563],[6.4005,50.3381,612.7708],[6.3983,50.3457,585.123],[6.3861,50.3511,568.9244],[6.3828,50.3542,573.4167],[6.381,50.3534,578.7239],[6.3771,50.356,592.7404],[6.3763,50.3552,585.1865],[6.3734,50.3582,588.3762],[6.3681,50.3581,582.3121],[6.3671,50.3588,580.4224],[6.3694,50.3611,583.5933],[6.3606,50.3715,637.8284],[6.3422,50.38,669.6652],[6.3466,50.3852,678.4756],[6.3569,50.3911,658.5129],[6.3576,50.3958,678.6872],[6.3652,50.4014,684.5864],[6.3699,50.4089,699.4891],[6.3667,50.4192,685.9397],[6.376,50.4317,652.0386],[6.3776,50.4394,646.5483],[6.3749,50.4512,652.0698],[6.3718,50.4556,643.3413],[6.3629,50.4539,602.5674],[6.3567,50.4565,571.6609],[6.3501,50.4569,557.5391],[6.3402,50.4626,544.3312],[6.3438,50.4688,521.5353],[6.3412,50.472,541.8497],[6.3382,50.4724,513.595],[6.3375,50.4747,515.8469],[6.3411,50.4777,554.4298],[6.3416,50.4835,536.1044],[6.3513,50.4883,512.0019],[6.3348,50.489,534.4214],[6.3323,50.4923,574.3403],[6.3229,50.493899999999996,612.0751],[6.3091,50.5014,624.9117],[6.2975,50.4976,611.387],[6.285,50.499,608.6215],[6.2815,50.5032,603.7849],[6.2748,50.5023,595.8925],[6.2699,50.5045,582.275],[6.2618,50.4988,558.9073],[6.2546,50.4994,527.4541],[6.2546,50.5014,524.0065],[6.2517,50.5035,527.157],[6.2414,50.499,554.7899],[6.2307,50.4975,570.4772],[6.2266,50.4944,608.4614],[6.2246,50.4949,608.4614],[6.22,50.4987,604.9902],[6.2226,50.5006,579.6339],[6.2199,50.5053,566.6379],[6.2168,50.5065,568.6603],[6.2132,50.513,538.6997],[6.2102,50.5131,546.0372],[6.2091,50.5147,548.8917],[6.2126,50.5156,544.86],[6.2081,50.5174,531.0424],[6.2053,50.521,508.0395],[6.1922,50.5211,529.3961],[6.1872,50.5263,550.9336],[6.1921,50.5309,571.5521],[6.197,50.531,493.6169],[6.1986,50.5352,504.0815],[6.1886,50.5403,543.5872],[6.178,50.5416,561.5588],[6.1784,50.554,618.6693],[6.1744,50.5575,635.3279],[6.1891,50.5645,620.6824],[6.1893,50.5661,617.708],[6.1919,50.5655,617.708],[6.2031,50.5693,627.8942],[6.2045,50.571,637.342],[6.2037,50.5723,636.8992],[6.2067,50.5747,645.7271],[6.2063,50.5763,657.8549],[6.2191,50.5814,649.3165],[6.2252,50.5905,606.0753],[6.2348,50.5888,562.3391],[6.2417,50.5935,554.5392],[6.2451,50.593,544.8621],[6.2496,50.5982,552.0512],[6.2477,50.6037,550.5942],[6.26,50.6098,545.9696],[6.2691,50.6192,545.0913],[6.2694,50.625,545.4785],[6.2667,50.6272,570.458],[6.2608,50.6286,579.9895],[6.2355,50.6259,573.08],[6.2169,50.6322,493.9172],[6.1996,50.6315,460.41],[6.1943,50.6339,438.723],[6.1895,50.6301,486.5238],[6.1872,50.6301,488.5093],[6.1888,50.6274,490.8877],[6.1818,50.6238,481.0382],[6.1761,50.6259,479.0377],[6.1756,50.6273,484.1673],[6.1802,50.6285,490.6842],[6.1833,50.6323,460.5759],[6.1666,50.6437,409.0922],[6.178,50.6447,411.1443],[6.1777,50.6483,420.3274],[6.1695,50.6527,457.075],[6.1726,50.6568,451.6532],[6.1648,50.6633,382.4833],[6.1615,50.6697,336.3775],[6.1624,50.6714,332.1989],[6.1575,50.6729,339.6498],[6.1567,50.6748,336.981],[6.1488,50.6778,328.5138],[6.1482,50.6795,322.8993],[6.1436,50.6817,301.9871],[6.1424,50.6871,288.335],[6.1437,50.6889,283.3415],[6.1406,50.6907,256.4826],[6.1393,50.6936,259.387],[6.1333,50.6962,274.1662],[6.133,50.699,279.4708],[6.1232,50.7071,292.8783],[6.1248,50.7111,287.0508],[6.1192,50.7197,280.2764],[6.1153,50.7221,289.6011],[6.1003,50.7233,305.7344],[6.0948,50.7202,311.8019],[6.0916,50.7229,280.7213],[6.0878,50.7214,273.7629],[6.0732,50.721,288.4573],[6.0446,50.7284,239.017],[6.0415,50.7187,243.736],[6.039,50.7184,243.736],[6.0365,50.7201,227.7433],[6.0367,50.7235,225.8611],[6.0284,50.7274,244.1742],[6.0286,50.7252,212.5904],[6.0116,50.7569,274.699],[5.9991,50.7564,256.7947],[5.9596,50.7621,277.4962],[5.9047,50.7552,168.6825],[5.8961,50.7596,198.0834],[5.8848,50.7395,186.0926],[5.8876,50.726,232.5411],[5.8871,50.712,281.6675],[5.8565,50.7112,216.7065],[5.8265,50.7164,251.5262],[5.8053,50.718,240.5521],[5.7948,50.7299,221.2493],[5.7849,50.7359,143.0174],[5.7651,50.738,107.7807],[5.7395,50.745,95.9623],[5.715,50.7406,105.8867],[5.7065,50.7412,101.1079],[5.7018,50.7434,80.136],[5.6931,50.7554,53.61],[5.6913,50.7631,50.0809],[5.7052,50.7859,49.2613],[5.7011,50.8054,44.0],[5.691,50.8092,78.6487],[5.678,50.8046,55.7926],[5.6582,50.7909,97.3436],[5.6305,50.7753,113.7701],[5.5988,50.7676,119.3815],[5.5674,50.7624,138.0226],[5.5523,50.7621,135.7858],[5.5382,50.755,82.1642],[5.5332,50.7465,93.9164],[5.5323,50.7397,95.2778],[5.5005,50.7316,131.6532],[5.4946,50.7259,127.8909],[5.4691,50.7238,135.2106],[5.4539,50.7152,137.2373],[5.4359,50.7127,135.5901],[5.413,50.7182,120.7164],[5.4098,50.7223,129.1996],[5.4102,50.7365,97.7151],[5.4087,50.7427,117.1887],[5.4047,50.7452,111.4257],[5.3949,50.7447,116.9633],[5.3638,50.7411,124.2965],[5.3374,50.7334,119.5844],[5.3239,50.7276,123.6822],[5.3143,50.7199,103.3588],[5.2855,50.724,109.3612],[5.2599,50.7169,127.5369],[5.2471,50.7174,125.2636],[5.2294,50.7221,122.4945],[5.2098,50.7222,115.2495],[5.1831,50.7192,118.843],[5.18,50.7168,128.7575],[5.1777,50.7067,126.8999],[5.174,50.701,124.285],[5.1552,50.6921,136.2053],[5.1425,50.7056,132.5104],[5.1299,50.7137,117.4191],[5.1174,50.7178,114.8657],[5.0992,50.7094,122.2931],[5.0884,50.7074,117.4737],[5.0757,50.7088,114.4105],[5.0645,50.7136,110.9373],[5.0533,50.7224,103.6083],[5.055,50.7256,96.781],[5.0537,50.7315,94.213],[5.0477,50.7399,96.3309],[5.0397,50.7447,87.9888],[5.0257,50.7476,89.513],[5.0214,50.75,81.304],[5.0129,50.7593,66.8703],[5.0037,50.7645,58.2107],[4.9934,50.765,48.0678],[4.9804,50.7631,57.7514],[4.9778,50.7588,69.0133],[4.9727,50.756,78.5947],[4.9557,50.7537,77.3979],[4.9275,50.7459,80.1929],[4.9014,50.7471,82.5894],[4.8801,50.7424,65.2756],[4.8715,50.7426,65.1227],[4.8642,50.7469,67.6568],[4.8617,50.7555,92.6914],[4.8594,50.7583,94.2697],[4.8411,50.7638,93.7827],[4.8356,50.7661,95.5119],[4.8295,50.7717,83.9793],[4.8111,50.7783,98.9723],[4.8071,50.7822,93.576],[4.8048,50.7891,92.8976],[4.794,50.796,102.1151],[4.7678,50.8026,116.4027],[4.7603,50.8031,90.1561],[4.7474,50.8018,86.9669],[4.7314,50.7972,88.0322],[4.709,50.787,86.0477],[4.6827,50.7876,60.9688],[4.6444,50.7914,26.0],[4.6419,50.7842,32.7185],[4.6417,50.776,28.0515],[4.6495,50.76,34.7771],[4.6502,50.7555,34.6551],[4.6476,50.7505,92.5411],[4.6433,50.7492,98.0886],[4.6092,50.7504,90.3053],[4.593,50.7585,56.8787],[4.5867,50.7575,78.1642],[4.5804,50.7556,77.7581],[4.5756,50.7518,85.2263],[4.5715,50.7424,79.2257],[4.5439,50.7404,88.4866],[4.5224,50.7295,57.6108],[4.5075,50.728,72.819],[4.4953,50.7294,69.4848],[4.4857,50.7418,77.9725],[4.4851,50.7532,100.5558],[4.469,50.7524,114.28],[4.4608,50.75,114.7569],[4.454,50.7459,113.7131],[4.443,50.7379,140.2199],[4.4349,50.7293,87.3494],[4.4213,50.7339,127.0884],[4.4087,50.7339,121.2791],[4.3749,50.7278,117.4484],[4.3718,50.7245,115.4095],[4.3697,50.7142,99.8829],[4.3612,50.7076,110.1702],[4.3442,50.7241,113.5732],[4.3315,50.7292,113.5914],[4.331,50.723,104.2133],[4.3276,50.7176,102.8807],[4.316,50.7121,112.8186],[4.3037,50.6964,130.0003],[4.273,50.6981,118.2602],[4.2621,50.6941,94.9094],[4.2349,50.6915,77.2254],[4.2053,50.7031,50.4635],[4.1726,50.7061,69.5767],[4.1505,50.7196,51.566],[4.1367,50.7212,61.4037],[4.1206,50.7195,66.5707],[4.1138,50.7158,73.9143],[4.1076,50.7099,77.8959],[4.0872,50.7089,54.9984],[4.0791,50.7071,61.8176],[4.0617,50.698,63.7557],[4.0262,50.6914,57.0772],[3.9912,50.6906,50.0778],[3.9653,50.6829,73.0105],[3.9075,50.687,51.3395],[3.8815,50.713,59.8288],[3.8805,50.7263,41.0923],[3.884,50.7369,23.04],[3.8723,50.7465,43.4359],[3.864,50.7484,49.5799],[3.8557,50.7481,15.642],[3.8312,50.7382,26.2869],[3.8007,50.7448,40.1654],[3.7809,50.744,51.7182],[3.7653,50.7497,76.898],[3.7492,50.7655,127.0302],[3.7416,50.7674,124.2673],[3.7149,50.7653,115.7339],[3.6899,50.7671,110.6372],[3.6759,50.7665,119.1426],[3.6647,50.7436,79.446],[3.6617,50.7339,89.2063],[3.6476,50.7228,101.9229],[3.6154,50.7311,32.0035],[3.5784,50.729,19.43],[3.5467,50.7363,18.0682],[3.5592,50.7533,39.7354],[3.5516,50.7586,66.1979],[3.5456,50.7607,84.1337],[3.5187,50.7586,104.0495],[3.4932,50.7587,152.2042],[3.467,50.7666,13.6883],[3.4558,50.7594,13.4051],[3.4518,50.7511,13.3056],[3.4225,50.7409,11.764099999999999],[3.4077,50.7336,14.8345],[3.388,50.7274,10.0067],[3.3748,50.7195,8.4216],[3.3658,50.712,9.396],[3.3519,50.713,16.9536],[3.3194,50.7266,16.3389],[3.3133,50.7413,29.6566],[3.3051,50.7522,44.7175],[3.2991,50.7568,30.76],[3.2887,50.7575,20.1139],[3.2671,50.7549,29.016],[3.2354,50.7596,41.4355],[3.217,50.76,52.218],[3.204,50.7526,50.5425],[3.1814,50.752,46.8669],[3.1843,50.749,43.4511],[3.1882,50.7402,34.9972],[3.1963,50.737,32.2834],[3.199,50.734,31.8892],[3.1922,50.7249,27.2387],[3.2109,50.7128,29.7658],[3.2485,50.7095,38.1609],[3.2599,50.6987,20.0904],[3.2591,50.6918,17.0926],[3.2537,50.6911,18.5657],[3.2618,50.676,20.5685],[3.2439,50.6698,24.7438],[3.2421,50.6667,25.9261],[3.2451,50.6514,27.115],[3.2488,50.6464,34.1255],[3.2444,50.6409,44.106],[3.2587,50.6282,27.8911],[3.2561,50.622,28.8515],[3.2695,50.612,31.5073],[3.271,50.6055,38.2404],[3.2783,50.5942,55.6926],[3.2762,50.5817,49.919],[3.2817,50.5763,47.6358],[3.2781,50.5668,58.9853],[3.2845,50.5619,50.7243],[3.276,50.5585,53.6962],[3.2816,50.5528,54.8362],[3.2797,50.5399,44.1763],[3.2865,50.5276,32.3597],[3.3209,50.5173,26.3259],[3.3289,50.5081,25.6827],[3.3603,50.5037,24.8249],[3.3773,50.491,20.9899],[3.3901,50.4968,21.5696],[3.4056,50.4988,19.8679],[3.4356,50.5091,24.1871],[3.4394,50.5072,24.5455],[3.4501,50.5072,15.3748],[3.4561,50.5208,16.5026],[3.47,50.5315,29.3364],[3.4749,50.5332,40.2598],[3.5064,50.5283,45.9224],[3.5158,50.5247,28.9746],[3.5181,50.5215,27.5656],[3.5172,50.518,28.8904],[3.4989,50.5011,18.4964],[3.4976,50.4977,18.699],[3.4989,50.4907,18.4282],[3.5023,50.488,16.0322],[3.5215,50.4946,17.0166],[3.5686,50.5001,27.3358],[3.5833,50.491,49.5445],[3.6079,50.4965,49.3446],[3.6294,50.4814,22.1037],[3.6436,50.4632,14.7495],[3.6539,50.4626,17.5603],[3.661,50.4576,22.0689],[3.6604,50.4445,17.8209],[3.6688,50.4365,17.2016],[3.6734,50.4096,25.2578],[3.673,50.3891,38.7661],[3.6578,50.3706,40.1034],[3.6665,50.3623,66.3992],[3.6652,50.349,84.601],[3.6758,50.3415,84.114],[3.6737,50.3349,89.4579],[3.6849,50.3276,97.6364],[3.6908,50.3182,110.1371],[3.7104,50.3032,117.3156],[3.7168,50.3079,123.1149],[3.7144,50.3168,113.5299],[3.7266,50.3108,129.2016],[3.7317,50.3119,121.9336],[3.7298,50.3269,116.7312],[3.7345,50.3323,91.9135],[3.7351,50.3393,92.7278],[3.7428,50.3481,110.2977],[3.7636,50.3481,120.9946],[3.7655,50.3512,114.7044],[3.781,50.3533,119.6159],[3.7966,50.3514,125.3198],[3.8057,50.3546,129.5221],[3.8142,50.3513,133.5436],[3.8117,50.3449,138.4082],[3.8218,50.3459,144.4577],[3.825,50.3521,134.8558],[3.8401,50.3539,142.2258],[3.8576,50.3479,142.6898],[3.8707,50.3387,146.3346],[3.8858,50.3395,146.4478],[3.8889,50.3333,151.0125],[3.8861,50.3271,153.2586],[3.9009,50.3275,153.0533],[3.9198,50.3322,145.6775],[3.9618,50.3481,127.9138],[3.9671,50.3475,124.5542],[3.9674,50.3406,136.8548],[3.9721,50.3465,128.4691],[3.9869,50.3425,125.4094],[3.9932,50.3477,126.3582],[4.0137,50.3513,117.6004],[4.0252,50.3579,96.944],[4.0376,50.3429,131.9761],[4.0522,50.3387,139.2015],[4.0771,50.3205,129.6174],[4.0792,50.3097,140.866],[4.0993,50.3121,149.5099],[4.1084,50.3039,138.3184],[4.1184,50.3023,125.0089],[4.1251,50.2895,160.67],[4.124,50.2728,196.7854],[4.1338,50.274,189.843],[4.1384,50.2616,195.231],[4.135,50.2591,185.6456],[4.1637,50.2573,199.4855],[4.1668,50.2671,185.1234],[4.1521,50.277,157.2552],[4.1604,50.2859,123.858],[4.17,50.2856,163.0486],[4.1796,50.2768,190.957],[4.1845,50.2752,180.2316],[4.206,50.2725,156.9631],[4.2208,50.2543,212.4096],[4.2046,50.2406,184.9799],[4.1991,50.2405,191.0354],[4.1834,50.2321,187.8262],[4.1659,50.2151,213.4968],[4.1509,50.2134,174.005],[4.1605,50.1982,198.5065],[4.1562,50.1928,192.2935],[4.1566,50.1861,232.6197],[4.15,50.1766,224.2756],[4.1551,50.1671,235.6712],[4.1532,50.1604,244.8603],[4.1406,50.1537,231.8432],[4.1269,50.1349,201.8114],[4.1461,50.129,225.7326],[4.1631,50.1351,238.1415],[4.1952,50.1346,254.5394],[4.2034,50.1153,253.069],[4.1977,50.1094,210.3812],[4.2046,50.1045,219.4951],[4.2054,50.098,185.6782],[4.2275,50.0797,230.6951],[4.2301,50.0698,208.1386],[4.2243,50.0644,230.7048],[4.201,50.0569,206.5429],[4.1906,50.0494,230.9502],[4.1711,50.047,212.2032],[4.1608,50.0475,206.7163],[4.1373,50.0218,262.5289],[4.1354,50.0152,238.7917],[4.1472,50.004,240.6641],[4.161,49.9998,264.0563],[4.1624,49.9966,267.703],[4.1563,49.9872,249.0317],[4.141,49.9788,222.3545],[4.1541,49.9751,238.3083],[4.1739,49.976,237.2541],[4.1954,49.9674,278.0077],[4.1974,49.9545,247.9582],[4.2331,49.9578,267.1489],[4.2582,49.964,275.7705],[4.2905,49.9642,282.8343],[4.3106,49.9686,298.3957],[4.3193,49.9644,305.0765],[4.3352,49.9627,332.8809],[4.3494,49.9522,319.0283],[4.3808,49.9537,317.3796],[4.3885,49.9489,309.3497],[4.4192,49.9464,317.8789],[4.4458,49.9372,323.2583],[4.4798,49.9471,339.6704],[4.5113,49.9468,353.6516],[4.5242,49.9513,322.4811],[4.5408,49.9682,295.6771],[4.5615,49.9698,310.5062],[4.5702,49.9736,315.284],[4.576,49.9811,356.6417],[4.596,49.986,287.0939],[4.6332,49.9875,247.5712],[4.668,49.9963,197.8829],[4.6946,49.9965,166.2699],[4.6861,50.0049,340.6713],[4.6885,50.0114,377.9953],[4.6866,50.0278,273.5967],[4.6964,50.0431,238.4021],[4.697,50.0593,206.4916],[4.6868,50.0577,262.6832],[4.6819,50.0676,309.6806],[4.7028,50.0957,211.5087],[4.7134,50.097,209.9759],[4.7152,50.1,221.525],[4.7513,50.1117,201.6531],[4.751,50.1213,226.2127],[4.756,50.1216,228.7812],[4.7652,50.1374,189.2553],[4.7797,50.1413,156.6085],[4.8025,50.1511,125.6661],[4.8228,50.1676,110.0273],[4.8317,50.1551,94.125],[4.8749,50.1534,163.8111],[4.8846,50.1412,150.0025],[4.8954,50.1398,180.162],[4.8957,50.1363,180.1797],[4.8778,50.1284,199.0192],[4.8691,50.1198,178.9777],[4.8724,50.0922,258.8019],[4.8682,50.09,300.1486],[4.8635,50.0917,277.9423],[4.8598,50.0983,175.0533],[4.8501,50.1002,141.5533],[4.8402,50.093,156.1304],[4.8453,50.0838,297.8864],[4.8405,50.0828,314.3632],[4.8392,50.0697,348.3306],[4.8208,50.0653,194.1669],[4.8192,50.0607,191.5604],[4.828,50.0569,199.194],[4.8281,50.0499,195.7537],[4.8372,50.0463,200.0556],[4.8401,50.0403,207.1331],[4.8206,50.0237,259.7355],[4.8152,49.9925,328.1652],[4.806,49.9842,346.4964],[4.7956,49.9822,387.319],[4.79,49.9689,427.9976],[4.7909,49.9584,456.9937],[4.8452,49.9489,506.1786],[4.8584,49.9337,425.2626],[4.8787,49.9219,390.5428],[4.8852,49.9122,410.8647],[4.8829,49.8984,382.5775],[4.8619,49.8698,162.4204],[4.8515,49.8627,196.7241],[4.8551,49.849,245.6886],[4.8586,49.8426,278.7053],[4.8674,49.8386,358.1229],[4.8736,49.819,345.2142],[4.8551,49.7946,378.4996],[4.8617,49.7893,377.9038],[4.875,49.7932,377.7286],[4.8873,49.788,289.5873],[4.8976,49.7889,344.341],[4.9062,49.7856,402.7082],[4.9213,49.7885,403.7448],[4.9314,49.7867,422.2],[4.9356,49.7913,428.3034],[4.943,49.7907,427.4017],[4.9467,49.7971,345.253],[4.9557,49.8005,325.1731],[4.9915,49.8002,293.9521],[5.0018,49.7937,341.7367],[5.0149,49.7795,418.8191],[5.0468,49.7701,429.2264],[5.069,49.7616,375.8688],[5.0897,49.7648,330.0236],[5.0966,49.7598,338.893],[5.1249,49.7269,361.4048],[5.1231,49.7173,317.9664],[5.1436,49.7093,246.1987],[5.1517,49.7177,312.4324],[5.1609,49.7152,310.4608],[5.1654,49.7094,305.9087],[5.1662,49.6929,211.2072],[5.1905,49.6945,292.5553],[5.1997,49.6923,264.1251],[5.2087,49.6944,313.3702],[5.2156,49.6892,275.0088],[5.2311,49.6904,295.1234],[5.2462,49.6869,311.4771],[5.2684,49.696,359.5817],[5.2805,49.6891,344.0648],[5.2812,49.6857,356.2898],[5.2866,49.6818,332.1204],[5.3192,49.6637,269.459],[5.3326,49.6535,254.4562],[5.3206,49.6473,289.5803],[5.3049,49.6301,241.3066],[5.315,49.612,188.2853],[5.3401,49.6181,199.726],[5.3469,49.6308,207.0677],[5.3935,49.6171,223.2475],[5.431,49.5924,326.5468],[5.429,49.5892,299.9473],[5.4393,49.5698,234.2822],[5.4539,49.566,284.4413],[5.4462,49.5534,356.4803],[5.4414,49.5521,355.5471],[5.4653,49.5363,303.1937],[5.464,49.5262,190.4442],[5.4472,49.5179,189.7743],[5.4634,49.509,190.1341],[5.4663,49.4989,190.9207],[5.4709,49.4972,200.2625],[5.4848,49.5067,306.1758],[5.5007,49.5068,319.2208],[5.5315,49.5125,376.588],[5.5425,49.517,385.4477],[5.554,49.5279,386.7373],[5.5692,49.5273,378.2616],[5.5938,49.5214,374.3432],[5.6071,49.507,390.7649],[5.611,49.5059,391.9335],[5.6211,49.5207,389.7882],[5.6183,49.5294,294.5009]]],
[[[2.9474,50.7927,25.6665],[2.9431,50.7872,29.4374],[2.9387,50.7721,23.3809],[2.9176,50.758,25.2761],[2.9012,50.7526,21.3441],[2.867,50.7572,38.1524],[2.8585,50.7527,27.6209],[2.8521,50.7472,33.3368],[2.8517,50.7442,19.3304],[2.8542,50.7404,18.1314],[2.8653,50.7351,17.585],[2.8721,50.7286,17.1225],[2.8745,50.7107,17.3743],[2.8733,50.7113,17.6977],[2.8713,50.7031,16.6873],[2.8843,50.7059,17.6229],[2.9004,50.6933,16.9539],[2.9099,50.6944,17.7455],[2.9122,50.7035,12.5134],[2.9223,50.7028,13.1158],[2.9301,50.7117,14.53],[2.9303,50.7253,11.9734],[2.9436,50.7338,10.4681],[2.9377,50.7426,11.707],[2.9401,50.7454,10.4726],[2.9571,50.7528,13.3708],[2.972,50.7503,13.8197],[2.9833,50.7572,11.6806],[3.0099,50.7681,13.883],[3.0153,50.7736,11.3979],[3.0353,50.7701,16.6449],[3.0367,50.7716,15.7021],[3.0132,50.8002,18.1279],[3.0069,50.8046,20.2753],[2.9797,50.7997,20.4509],[2.9538,50.7975,21.3167],[2.9474,50.7927,25.6665]]]]}}