{"type": "Feature","bbox": [3.341,50.9005,3.9955,51.2296],"geometry": {"type": "MultiPolygon","coordinates": [[[[3.5171,50.9449,10.6407],[3.5266,50.9481,9.6668],[3.545,50.9477,10.534],[3.5536,50.9424,10.0494],[3.5602,50.9357,9.4646],[3.5722,50.9298,9.4061],[3.5917,50.93,7.5556],[3.6007,50.9348,6.8744],[3.6128999999999998,50.935,8.2426],[3.6283,50.9284,8.9337],[3.6308,50.9226,7.4882],[3.6366,50.9207,7.6141],[3.6586,50.9083,9.1672],[3.6776,50.9108,5.4826],[3.7062,50.9109,39.1206],[3.7373,50.9056,30.5693],[3.7559,50.9089,46.4509],[3.7577,50.9165,56.1228],[3.7658,50.9165,48.1136],[3.7886,50.9105,50.0603],[3.8059,50.9005,59.4877],[3.8242,50.9011,71.1075],[3.8285,50.9063,61.0201],[3.8355,50.9267,38.6058],[3.8403,50.9326,33.4011],[3.851,50.9377,33.2018],[3.8518,50.9515,32.2427],[3.8561,50.9614,25.8278],[3.8557,50.9665,18.9098],[3.8537,50.9686,18.2926],[3.8346,50.9744,26.6587],[3.8339,51.0013,4.0969],[3.8376,51.0033,3.3132],[3.8385,51.0069,4.8939],[3.8385,51.0532,5.5647],[3.8425,51.056,4.7308],[3.8625,51.0561,7.699],[3.8731,51.0585,4.5529],[3.8928,51.0593,4.3499],[3.9102,51.0648,3.9408],[3.9175,51.0713,6.064],[3.9276,51.0756,3.984],[3.9233,51.0833,4.203],[3.9049,51.0895,3.8481],[3.8997,51.0935,2.7284],[3.8992,51.1167,3.2212],[3.8949,51.1258,3.6408],[3.8943,51.1483,3.1115],[3.9018,51.1482,5.2106],[3.9178,51.1414,6.023],[3.9267,51.1409,1.6835],[3.9581,51.1594,2.1155],[3.9702,51.1625,1.2616],[3.9936,51.1623,14.8592],[3.9955,51.1665,9.9714],[3.9954,51.1747,1.2798],[3.9881,51.1798,5.7916],[3.9832,51.1857,3.9421],[3.9737,51.2015,12.8805],[3.9741,51.2098,1.8495],[3.9819,51.2192,2.2837],[3.9824,51.2296,1.191],[3.9625,51.216,1.062],[3.9242,51.2105,0.5088],[3.9021,51.1989,1.8501],[3.8842,51.2011,2.0788],[3.8763,51.2135,0.3274],[3.85,51.2102,1.4453],[3.8427,51.1988,2.0953],[3.8411,51.1913,9.4247],[3.8359,51.1854,6.8988],[3.8339,51.185,6.5019],[3.8036,51.1845,2.5205],[3.7896,51.1884,37.2389],[3.7803,51.1874,14.8652],[3.7718,51.1898,5.0974],[3.7553,51.1899,5.4409],[3.7457,51.1924,6.7894],[3.7357,51.1923,5.3926],[3.7328,51.1904,5.8381],[3.7316,51.1829,6.8112],[3.7269,51.1795,5.6517],[3.7127,51.1788,7.7374],[3.6996,51.1816,5.4613],[3.6944,51.1805,5.5951],[3.6917,51.1713,8.2064],[3.6812,51.1652,3.0961],[3.6709,51.1651,3.6973],[3.6637,51.1681,4.5316],[3.6449,51.167,4.5637],[3.6168,51.1714,4.2149],[3.5829,51.1675,3.7543],[3.5625,51.1701,4.137],[3.5306,51.1603,5.4272],[3.5251,51.1519,9.6977],[3.5125,51.1467,8.5681],[3.5004,51.1506,20.1028],[3.4639,51.151,36.8775],[3.4313,51.1611,13.3227],[3.4086,51.1612,12.1518],[3.4046,51.1481,11.1315],[3.3921,51.1288,8.3879],[3.3791,51.1184,8.2551],[3.341,51.1009,18.0201],[3.3411,51.0941,22.8591],[3.3619,51.0925,18.2159],[3.379,51.0842,37.7833],[3.4366,51.0631,16.3457],[3.4422,51.0602,12.4565],[3.4465,51.055,13.0821],[3.446,51.0455,12.7491],[3.435,51.0324,14.4234],[3.4451,51.0254,15.3485],[3.4523,51.0175,10.1122],[3.4517,51.0048,14.4871],[3.449,50.997,11.56],[3.4409,50.9889,11.038],[3.4401,50.986,10.799],[3.4409,50.9825,10.7597],[3.4462,50.9754,7.9153],[3.4463,50.9689,8.3547],[3.436,50.957,11.0345],[3.4393,50.9509,10.8219],[3.4532,50.9409,5.5076],[3.4448,50.9304,5.9831],[3.4318,50.9228,5.5769],[3.4334,50.917,12.942],[3.4318,50.9115,12.3388],[3.4363,50.9053,8.4519],[3.4418,50.9035,9.4415],[3.4502,50.9041,10.4014],[3.4617,50.9078,13.4089],[3.4745,50.9088,11.6064],[3.4798,50.9109,10.8638],[3.487,50.9174,11.7333],[3.4923,50.9195,13.4643],[3.4954,50.9258,11.9095],[3.5171,50.9449,10.6407]]]]}
,"properties": {"GID_3": "BEL.2.3.4_1","GID_0": "BEL","country": "Belgium","GID_1": "BEL.2_1","state": "Vlaanderen","NL_NAME_1": "NA","GID_2": "BEL.2.3_1","county": "Oost-Vlaanderen","NL_NAME_2": "NA","city": "Gent","VARNAME_3": "Gand","NL_NAME_3": "NA","TYPE_3": "Arrondissement","ENGTYPE_3": "Arrondissement","CC_3": "NA","HASC_3": "BE.OV.GT","name": "Gent.city","area_km2": 932.4933,"hist_schema_id": "Elevation0-9000","hist_area_km2": {"0": 737.4377,"25": 155.5511,"50": 37.5127,"75": 1.9918}}}