{"type": "Feature","bbox": [4.6774,51.0186,5.2741,51.5038],"geometry": {"type": "MultiPolygon","coordinates": [[[[4.9454,51.0466,15.9117],[4.9661,51.047,19.4095],[4.9946,51.0414,24.962],[4.9999,51.0504,38.22],[5.0218,51.0727,17.5904],[5.0293,51.076,17.4034],[5.0566,51.0775,20.4],[5.0775,51.0838,21.8049],[5.1014,51.0875,21.8914],[5.1251,51.1069,25.7204],[5.1316,51.1145,32.7553],[5.146,51.1231,27.4406],[5.202,51.1216,42.7381],[5.2091,51.1327,37.885],[5.2177,51.1392,35.7959],[5.2582,51.143,43.5866],[5.2706,51.1558,40.8786],[5.2741,51.1642,43.306399999999996],[5.2645,51.1878,44.9577],[5.257,51.1979,58.1329],[5.2467,51.205,44.6538],[5.2332,51.2109,39.0631],[5.2274,51.2197,38.5464],[5.2283,51.2461,48.3917],[5.2396,51.2623,46.7518],[5.2302,51.2671,39.378],[5.2284,51.2731,47.6062],[5.2376,51.2879,38.5858],[5.2457,51.3053,47.5187],[5.233,51.3131,47.3623],[5.21,51.3235,44.7398],[5.1813,51.3206,43.6819],[5.1775,51.3186,31.7271],[5.1367,51.3155,25.7428],[5.1224,51.3601,32.0165],[5.0758,51.3951,30.6394],[5.0766,51.4047,29.8586],[5.0975,51.4285,27.1793],[5.0948,51.4489,36.3655],[5.0821,51.4669,25.8367],[5.051,51.4715,29.1039],[5.0372,51.4854,21.6659],[5.0224,51.4757,19.3689],[5.0179,51.4707,21.3936],[5.0149,51.4642,30.1115],[5.017,51.4551,27.8467],[5.0066,51.4391,33.2198],[4.971,51.42,28.1225],[4.945,51.4019,26.9483],[4.9361,51.3975,26.2743],[4.9257,51.3986,22.9401],[4.8847,51.4156,18.1874],[4.8329,51.4093,20.7135],[4.7975,51.4095,16.6044],[4.7826,51.4154,14.9042],[4.7733,51.4289,10.8792],[4.786,51.4319,13.5361],[4.8107,51.4255,12.9823],[4.8349,51.4224,21.7689],[4.8292,51.4396,15.9063],[4.8399,51.4581,18.4875],[4.8386,51.4798,12.0724],[4.8049,51.4971,7.3113],[4.7793,51.5038,4.9479],[4.7521,51.4975,6.2413],[4.7369,51.4866,6.657],[4.7236,51.4702,10.253],[4.7193,51.4675,8.1508],[4.7121,51.4658,7.7052],[4.7075,51.4558,15.5682],[4.6788,51.4445,10.01],[4.6774,51.438,11.2595],[4.679,51.4296,11.6067],[4.7085,51.4191,15.6631],[4.7135,51.4158,14.4683],[4.7178,51.4102,15.6139],[4.7182,51.4067,17.042],[4.715,51.4021,18.4836],[4.7149,51.3992,18.7753],[4.722,51.3877,21.9113],[4.7224,51.376,22.2901],[4.7268,51.376,25.8996],[4.7264,51.3563,26.2809],[4.722,51.3473,29.2931],[4.7216,51.3269,28.953],[4.7439,51.3264,26.4184],[4.7677,51.3205,25.2486],[4.7725,51.3178,28.9776],[4.7758,51.3137,28.725],[4.7823,51.3112,26.6166],[4.7829,51.2908,18.7178],[4.7882999999999996,51.284,17.7354],[4.7858,51.2758,22.6642],[4.7739,51.2589,15.8213],[4.7729,51.2515,15.6746],[4.7675,51.2481,13.2649],[4.7578,51.2451,16.548],[4.7423,51.2447,24.7655],[4.7418,51.2177,13.5466],[4.7395,51.2106,9.8584],[4.7295,51.2059,12.955],[4.7068,51.191,15.6251],[4.7062,51.181399999999996,7.5792],[4.7243,51.1578,17.2654],[4.7226,51.1456,13.2205],[4.7144,51.1323,33.1837],[4.7147,51.1248,8.4612],[4.7157,51.1227,7.1121],[4.7212,51.1208,5.6584],[4.7246,51.1167,7.6498],[4.7326,51.1116,6.4349],[4.7425,51.1105,10.3583],[4.7572,51.1117,14.0379],[4.7614,51.1148,7.2728],[4.7638,51.1205,8.0365],[4.7722,51.1235,8.6971],[4.793,51.124,8.6719],[4.7963,51.1226,9.4413],[4.81,51.1076,14.7562],[4.8095,51.0913,9.6344],[4.8086,51.0888,8.8924],[4.7909,51.0785,13.5254],[4.778,51.0775,12.2516],[4.7751,51.0758,9.3139],[4.7757,51.0728,6.6258],[4.786,51.0685,9.7045],[4.7876,51.0659,17.3738],[4.7873,51.0565,10.4395],[4.7836,51.051,11.0847],[4.7828,51.0439,10.9198],[4.811,51.0349,10.5667],[4.8293,51.0186,14.0221],[4.8606,51.0193,21.2457],[4.8915,51.0297,16.1129],[4.913,51.0408,22.8044],[4.9454,51.0466,15.9117]]],
[[[4.9621,51.4475,26.0277],[4.9676,51.4485,25.6379],[4.9631,51.4544,24.8775],[4.9437,51.4504,26.5621],[4.9374,51.4515,25.6962],[4.9309,51.4501,26.7573],[4.9279,51.4477,27.8681],[4.9271,51.4379,27.6306],[4.929,51.4322,29.0182],[4.9452,51.4289,36.8697],[4.9521,51.4312,28.1677],[4.9512,51.44,27.7772],[4.9532,51.4445,26.1225],[4.9621,51.4475,26.0277]]]]}
,"properties": {"GID_3": "BEL.2.1.3_1","GID_0": "BEL","country": "Belgium","GID_1": "BEL.2_1","state": "Vlaanderen","NL_NAME_1": "NA","GID_2": "BEL.2.1_1","county": "Antwerpen","NL_NAME_2": "NA","city": "Turnhout","VARNAME_3": "NA","NL_NAME_3": "NA","TYPE_3": "Arrondissement","ENGTYPE_3": "Arrondissement","CC_3": "NA","HASC_3": "BE.AN.TH","name": "Turnhout.city","area_km2": 1334.882,"hist_schema_id": "Elevation0-9000","hist_area_km2": {"0": 148.402,"25": 1082.314,"50": 104.14,"75": 0.027}}}